<?xml version="1.0" encoding="UTF-8"?>
<gpx version="1.1" creator="Export" xmlns="http://www.topografix.com/GPX/1/1" xmlns:xsi="http://www.w3.org/2001/XMLSchema-instance" xsi:schemaLocation="http://www.topografix.com/GPX/1/1 http://www.topografix.com/GPX/1/1/gpx.xsd http://www.garmin.com/xmlschemas/GpxExtensions/v3 http://www.garmin.com/xmlschemas/GpxExtensionsv3.xsd http://www.garmin.com/xmlschemas/TrackPointExtension/v1 http://www.garmin.com/xmlschemas/TrackPointExtensionv1.xsd http://www.garmin.com/xmlschemas/PowerExtension/v1 http://www.garmin.com/xmlschemas/PowerExtensionv1.xsd http://www.topografix.com/GPX/gpx_style/0/2 http://www.topografix.com/GPX/gpx_style/0/2/gpx_style.xsd" xmlns:gpxtpx="http://www.garmin.com/xmlschemas/TrackPointExtension/v1" xmlns:gpxx="http://www.garmin.com/xmlschemas/GpxExtensions/v3" xmlns:gpxpx="http://www.garmin.com/xmlschemas/PowerExtension/v1" xmlns:gpx_style="http://www.topografix.com/GPX/gpx_style/0/2">
  <metadata>
    <name>activity_219_2024-09-14</name>
    <author>
      <name>gpx.studio</name>
      <link href="https://gpx.studio"/>
    </author>
  </metadata>
  <wpt lat="50.081618" lon="14.427878">
    <ele>212.92829671022523</ele>
    <name>Cafe Svateho Vaclava</name>
    <sym>Restaurant</sym>
  </wpt>
  <trk>
    <name>activity_219_2024-09-14</name>
    <trkseg>
      <trkpt lat="50.083194632475994" lon="14.43533068857198">
        <ele>219.29575867187233</ele>
        <time>2024-09-14T10:03:47.790Z</time>
      </trkpt>
      <trkpt lat="50.08346002503637" lon="14.4347649940279">
        <ele>211.52740557786854</ele>
        <time>2024-09-14T10:04:30.636Z</time>
      </trkpt>
      <trkpt lat="50.08372541759675" lon="14.434199299483819">
        <ele>206.96570562806505</ele>
        <time>2024-09-14T10:05:13.482Z</time>
      </trkpt>
      <trkpt lat="50.083938947040025" lon="14.433744153187007">
        <ele>207.0441668350726</ele>
        <time>2024-09-14T10:05:47.955Z</time>
      </trkpt>
      <trkpt lat="50.083938947040025" lon="14.433744153187007">
        <ele>207.0441668350726</ele>
        <time>2024-09-14T10:05:47.955Z</time>
      </trkpt>
      <trkpt lat="50.08523925489379" lon="14.431089129284175">
        <ele>205.5089444023869</ele>
        <time>2024-09-14T10:08:44.076Z</time>
      </trkpt>
      <trkpt lat="50.085329649315526" lon="14.429799546245931">
        <ele>202.86832787410867</ele>
        <time>2024-09-14T10:09:52.479Z</time>
      </trkpt>
      <trkpt lat="50.08713054880337" lon="14.428943436496809">
        <ele>204.55528682259074</ele>
        <time>2024-09-14T10:12:27.203Z</time>
      </trkpt>
      <trkpt lat="50.08715140824637" lon="14.425302260858956">
        <ele>201.83893486601417</ele>
        <time>2024-09-14T10:15:39.198Z</time>
      </trkpt>
      <trkpt lat="50.087219999999995" lon="14.4218">
        <ele>196.21212052017142</ele>
        <time>2024-09-14T10:18:55.777Z</time>
      </trkpt>
      <trkpt lat="50.08734" lon="14.4215">
        <ele>193.11171141747445</ele>
        <time>2024-09-14T10:19:29.742Z</time>
      </trkpt>
      <trkpt lat="50.087450000000004" lon="14.421486666666665">
        <ele>195.0117634874068</ele>
        <time>2024-09-14T10:19:40.784Z</time>
      </trkpt>
      <trkpt lat="50.087624999999996" lon="14.421541666666666">
        <ele>193.2119932938397</ele>
        <time>2024-09-14T10:20:05.738Z</time>
      </trkpt>
      <trkpt lat="50.08788166666667" lon="14.421391666666667">
        <ele>187.41194446128725</ele>
        <time>2024-09-14T10:20:36.735Z</time>
      </trkpt>
      <trkpt lat="50.08768499999999" lon="14.420688333333333">
        <ele>187.6106283989112</ele>
        <time>2024-09-14T10:21:27.744Z</time>
      </trkpt>
      <trkpt lat="50.08739166666666" lon="14.420663333333334">
        <ele>187.6103236061114</ele>
        <time>2024-09-14T10:21:54.742Z</time>
      </trkpt>
      <trkpt lat="50.08707" lon="14.420908333333333">
        <ele>188.9104761006129</ele>
        <time>2024-09-14T10:22:38.739Z</time>
      </trkpt>
      <trkpt lat="50.086955" lon="14.420800000000002">
        <ele>186.410219822248</ele>
        <time>2024-09-14T10:22:51.738Z</time>
      </trkpt>
      <trkpt lat="50.08679" lon="14.420306666666667">
        <ele>187.3092345254469</ele>
        <time>2024-09-14T10:23:42.748Z</time>
      </trkpt>
      <trkpt lat="50.08682833333334" lon="14.420313333333334">
        <ele>187.3092701007735</ele>
        <time>2024-09-14T10:23:52.755Z</time>
      </trkpt>
      <trkpt lat="50.08677833333333" lon="14.420381666666666">
        <ele>188.00936377663643</ele>
        <time>2024-09-14T10:24:02.758Z</time>
      </trkpt>
      <trkpt lat="50.08669833333333" lon="14.420223333333334">
        <ele>188.30907934234128</ele>
        <time>2024-09-14T10:24:13.772Z</time>
      </trkpt>
      <trkpt lat="50.087125" lon="14.419973333333333">
        <ele>188.30902651827643</ele>
        <time>2024-09-14T10:24:31.764Z</time>
      </trkpt>
      <trkpt lat="50.08724666666667" lon="14.420099999999998">
        <ele>260.9091616050142</ele>
        <time>2024-09-14T10:24:33.738Z</time>
      </trkpt>
      <trkpt lat="50.0872" lon="14.420131666666668">
        <ele>266.2092471447679</ele>
        <time>2024-09-14T10:24:34.732Z</time>
      </trkpt>
      <trkpt lat="50.08710166666666" lon="14.420095">
        <ele>207.7091162348812</ele>
        <time>2024-09-14T10:24:52.771Z</time>
      </trkpt>
      <trkpt lat="50.08697166666668" lon="14.420296666666665">
        <ele>207.80933615782922</ele>
        <time>2024-09-14T10:24:58.771Z</time>
      </trkpt>
      <trkpt lat="50.08698166666667" lon="14.420218333333333">
        <ele>207.70926170565508</ele>
        <time>2024-09-14T10:25:03.748Z</time>
      </trkpt>
      <trkpt lat="50.086531666666666" lon="14.420316666666668">
        <ele>207.70924053013553</ele>
        <time>2024-09-14T10:26:15.774Z</time>
      </trkpt>
      <trkpt lat="50.086468333333336" lon="14.420405">
        <ele>241.00905455063383</ele>
        <time>2024-09-14T10:26:16.748Z</time>
      </trkpt>
      <trkpt lat="50.08646333333333" lon="14.420558333333334">
        <ele>205.10924476899666</ele>
        <time>2024-09-14T10:26:18.755Z</time>
      </trkpt>
      <trkpt lat="50.086603333333336" lon="14.420745">
        <ele>220.50983795031794</ele>
        <time>2024-09-14T10:26:45.764Z</time>
      </trkpt>
      <trkpt lat="50.086378333333336" lon="14.420808333333332">
        <ele>185.50978197557907</ele>
        <time>2024-09-14T10:27:25.735Z</time>
      </trkpt>
      <trkpt lat="50.086131666666674" lon="14.420688333333333">
        <ele>196.50942552282544</ele>
        <time>2024-09-14T10:27:53.744Z</time>
      </trkpt>
      <trkpt lat="50.08596833333333" lon="14.420778333333333">
        <ele>202.90938653334672</ele>
        <time>2024-09-14T10:28:11.741Z</time>
      </trkpt>
      <trkpt lat="50.08569166666666" lon="14.420708333333334">
        <ele>207.90906983806894</ele>
        <time>2024-09-14T10:28:52.742Z</time>
      </trkpt>
      <trkpt lat="50.085575" lon="14.420751666666668">
        <ele>216.3090406365947</ele>
        <time>2024-09-14T10:29:31.738Z</time>
      </trkpt>
      <trkpt lat="50.085453333333334" lon="14.421056666666667">
        <ele>218.0094381793551</ele>
        <time>2024-09-14T10:29:57.738Z</time>
      </trkpt>
      <trkpt lat="50.085305" lon="14.42091">
        <ele>218.00919605905042</ele>
        <time>2024-09-14T10:30:03.738Z</time>
      </trkpt>
      <trkpt lat="50.085355" lon="14.420435000000001">
        <ele>216.8084207967026</ele>
        <time>2024-09-14T10:30:10.741Z</time>
      </trkpt>
      <trkpt lat="50.08527333333333" lon="14.420405">
        <ele>216.90822451852472</ele>
        <time>2024-09-14T10:30:18.735Z</time>
      </trkpt>
      <trkpt lat="50.08511" lon="14.420755000000002">
        <ele>214.90866982621804</ele>
        <time>2024-09-14T10:30:35.734Z</time>
      </trkpt>
      <trkpt lat="50.085193333333336" lon="14.420546666666667">
        <ele>214.20847391713767</ele>
        <time>2024-09-14T10:30:39.738Z</time>
      </trkpt>
      <trkpt lat="50.08516666666666" lon="14.42041">
        <ele>213.70820401719575</ele>
        <time>2024-09-14T10:30:46.738Z</time>
      </trkpt>
      <trkpt lat="50.08504833333333" lon="14.420749999999998">
        <ele>213.4081411435447</ele>
        <time>2024-09-14T10:30:47.732Z</time>
      </trkpt>
      <trkpt lat="50.085060000000006" lon="14.420943333333332">
        <ele>213.60862726840307</ele>
        <time>2024-09-14T10:30:48.734Z</time>
      </trkpt>
      <trkpt lat="50.085635" lon="14.420841666666668">
        <ele>214.30920991289847</ele>
        <time>2024-09-14T10:30:52.761Z</time>
      </trkpt>
      <trkpt lat="50.085653333333326" lon="14.420908333333333">
        <ele>215.3093598832935</ele>
        <time>2024-09-14T10:30:57.774Z</time>
      </trkpt>
      <trkpt lat="50.08555666666666" lon="14.421086666666667">
        <ele>202.40958992008805</ele>
        <time>2024-09-14T10:31:15.771Z</time>
      </trkpt>
      <trkpt lat="50.08540333333334" lon="14.42109">
        <ele>200.30949019778208</ele>
        <time>2024-09-14T10:31:27.775Z</time>
      </trkpt>
      <trkpt lat="50.085345000000004" lon="14.421255">
        <ele>201.60969730675066</ele>
        <time>2024-09-14T10:31:40.772Z</time>
      </trkpt>
      <trkpt lat="50.085435000000004" lon="14.42138">
        <ele>197.50999563688174</ele>
        <time>2024-09-14T10:32:33.771Z</time>
      </trkpt>
      <trkpt lat="50.08532333333333" lon="14.421394999999999">
        <ele>199.50993368457813</ele>
        <time>2024-09-14T10:32:55.734Z</time>
      </trkpt>
      <trkpt lat="50.08541666666667" lon="14.421318333333334">
        <ele>200.80989779073204</ele>
        <time>2024-09-14T10:33:14.732Z</time>
      </trkpt>
      <trkpt lat="50.08505333333333" lon="14.421460000000002">
        <ele>192.10983929164604</ele>
        <time>2024-09-14T10:34:46.778Z</time>
      </trkpt>
      <trkpt lat="50.08531500000001" lon="14.421521666666669">
        <ele>195.51016678222817</ele>
        <time>2024-09-14T10:37:00.728Z</time>
      </trkpt>
      <trkpt lat="50.085265" lon="14.42154">
        <ele>196.61012641039815</ele>
        <time>2024-09-14T10:37:10.732Z</time>
      </trkpt>
      <trkpt lat="50.08564500000001" lon="14.421975000000002">
        <ele>200.91116387921014</ele>
        <time>2024-09-14T10:37:56.735Z</time>
      </trkpt>
      <trkpt lat="50.08562" lon="14.422126666666667">
        <ele>201.5114082063706</ele>
        <time>2024-09-14T10:38:17.758Z</time>
      </trkpt>
      <trkpt lat="50.08587666666667" lon="14.422173333333335">
        <ele>188.6116882829544</ele>
        <time>2024-09-14T10:38:51.782Z</time>
      </trkpt>
      <trkpt lat="50.085903333333334" lon="14.422343333333334">
        <ele>185.41199419265828</ele>
        <time>2024-09-14T10:39:01.778Z</time>
      </trkpt>
      <trkpt lat="50.08614333333333" lon="14.422574999999998">
        <ele>183.91256716189656</ele>
        <time>2024-09-14T10:39:21.772Z</time>
      </trkpt>
      <trkpt lat="50.08606666666666" lon="14.42275">
        <ele>190.51281970639204</ele>
        <time>2024-09-14T10:39:40.745Z</time>
      </trkpt>
      <trkpt lat="50.085791666666665" lon="14.423035">
        <ele>201.41310649698295</ele>
        <time>2024-09-14T10:40:09.736Z</time>
      </trkpt>
      <trkpt lat="50.085805" lon="14.423163333333331">
        <ele>199.71330500028517</ele>
        <time>2024-09-14T10:40:40.741Z</time>
      </trkpt>
      <trkpt lat="50.085713333333324" lon="14.423056666666666">
        <ele>204.1130908897445</ele>
        <time>2024-09-14T10:41:05.749Z</time>
      </trkpt>
      <trkpt lat="50.085609999999996" lon="14.4231">
        <ele>204.31306196633028</ele>
        <time>2024-09-14T10:41:16.744Z</time>
      </trkpt>
      <trkpt lat="50.08561666666666" lon="14.423173333333333">
        <ele>204.71311772513062</ele>
        <time>2024-09-14T10:41:25.741Z</time>
      </trkpt>
      <trkpt lat="50.085755" lon="14.423091666666668">
        <ele>202.61318352708673</ele>
        <time>2024-09-14T10:41:42.781Z</time>
      </trkpt>
      <trkpt lat="50.085654999999996" lon="14.423224999999999">
        <ele>202.21330195639678</ele>
        <time>2024-09-14T10:41:54.780Z</time>
      </trkpt>
      <trkpt lat="50.085653333333326" lon="14.423353333333333">
        <ele>200.61350006531515</ele>
        <time>2024-09-14T10:42:00.797Z</time>
      </trkpt>
      <trkpt lat="50.085840000000005" lon="14.42375">
        <ele>194.41433377500556</ele>
        <time>2024-09-14T10:42:31.728Z</time>
      </trkpt>
      <trkpt lat="50.08564166666667" lon="14.423931666666666">
        <ele>195.0144990110517</ele>
        <time>2024-09-14T10:42:51.739Z</time>
      </trkpt>
      <trkpt lat="50.08506666666667" lon="14.424778333333332">
        <ele>210.31550588627914</ele>
        <time>2024-09-14T10:44:12.742Z</time>
      </trkpt>
      <trkpt lat="50.08507666666666" lon="14.424650000000002">
        <ele>203.11533146890787</ele>
        <time>2024-09-14T10:44:29.747Z</time>
      </trkpt>
      <trkpt lat="50.084966666666666" lon="14.424545">
        <ele>202.21506410433386</ele>
        <time>2024-09-14T10:44:44.739Z</time>
      </trkpt>
      <trkpt lat="50.08497333333333" lon="14.424656666666666">
        <ele>204.5152555327534</ele>
        <time>2024-09-14T10:45:16.794Z</time>
      </trkpt>
      <trkpt lat="50.08428666666667" lon="14.423601666666665">
        <ele>202.11292602678606</ele>
        <time>2024-09-14T10:46:42.745Z</time>
      </trkpt>
      <trkpt lat="50.08394333333334" lon="14.423885">
        <ele>205.21311137339416</ele>
        <time>2024-09-14T10:47:12.780Z</time>
      </trkpt>
      <trkpt lat="50.084055000000006" lon="14.42364">
        <ele>198.61278161238283</ele>
        <time>2024-09-14T10:47:32.771Z</time>
      </trkpt>
      <trkpt lat="50.08401333333333" lon="14.423650000000002">
        <ele>200.31274557871637</ele>
        <time>2024-09-14T10:47:40.738Z</time>
      </trkpt>
      <trkpt lat="50.08397166666667" lon="14.423733333333333">
        <ele>203.11286505601532</ele>
        <time>2024-09-14T10:47:50.755Z</time>
      </trkpt>
      <trkpt lat="50.08401666666667" lon="14.423651666666668">
        <ele>204.6127746807188</ele>
        <time>2024-09-14T10:47:57.784Z</time>
      </trkpt>
      <trkpt lat="50.084019999999995" lon="14.423731666666667">
        <ele>205.91287352034095</ele>
        <time>2024-09-14T10:48:01.754Z</time>
      </trkpt>
      <trkpt lat="50.084105" lon="14.423671666666667">
        <ele>208.01286291197425</ele>
        <time>2024-09-14T10:48:12.761Z</time>
      </trkpt>
      <trkpt lat="50.08415166666667" lon="14.423515000000002">
        <ele>208.7126539964821</ele>
        <time>2024-09-14T10:48:18.770Z</time>
      </trkpt>
      <trkpt lat="50.08418333333334" lon="14.423641666666667">
        <ele>211.01287546344554</ele>
        <time>2024-09-14T10:48:27.755Z</time>
      </trkpt>
      <trkpt lat="50.084175" lon="14.423468333333336">
        <ele>223.212557052659</ele>
        <time>2024-09-14T10:48:49.754Z</time>
      </trkpt>
      <trkpt lat="50.08423166666667" lon="14.423445">
        <ele>226.71256749921105</ele>
        <time>2024-09-14T10:48:57.764Z</time>
      </trkpt>
      <trkpt lat="50.08423500000001" lon="14.4237">
        <ele>231.21298845038473</ele>
        <time>2024-09-14T10:49:07.749Z</time>
      </trkpt>
      <trkpt lat="50.08394166666667" lon="14.424045000000001">
        <ele>227.713366431129</ele>
        <time>2024-09-14T10:49:37.772Z</time>
      </trkpt>
      <trkpt lat="50.08391833333334" lon="14.423869999999999">
        <ele>227.01318290820984</ele>
        <time>2024-09-14T10:49:45.745Z</time>
      </trkpt>
      <trkpt lat="50.08368666666667" lon="14.423608333333334">
        <ele>219.81250783506474</ele>
        <time>2024-09-14T10:49:53.741Z</time>
      </trkpt>
      <trkpt lat="50.08350166666667" lon="14.423093333333334">
        <ele>213.11142131192486</ele>
        <time>2024-09-14T10:50:16.748Z</time>
      </trkpt>
      <trkpt lat="50.08367833333333" lon="14.423505">
        <ele>211.81216216464858</ele>
        <time>2024-09-14T10:50:28.759Z</time>
      </trkpt>
      <trkpt lat="50.08367166666667" lon="14.423903333333332">
        <ele>203.31288564061146</ele>
        <time>2024-09-14T10:50:41.754Z</time>
      </trkpt>
      <trkpt lat="50.083594999999995" lon="14.42412">
        <ele>202.9132101381715</ele>
        <time>2024-09-14T10:50:51.794Z</time>
      </trkpt>
      <trkpt lat="50.08350833333334" lon="14.424128333333332">
        <ele>201.31317768427573</ele>
        <time>2024-09-14T10:51:02.784Z</time>
      </trkpt>
      <trkpt lat="50.083106666666666" lon="14.42477">
        <ele>197.0139500367294</ele>
        <time>2024-09-14T10:52:03.736Z</time>
      </trkpt>
      <trkpt lat="50.08332666666667" lon="14.424693333333334">
        <ele>197.6139567268881</ele>
        <time>2024-09-14T10:52:25.781Z</time>
      </trkpt>
      <trkpt lat="50.083188333333325" lon="14.424521666666665">
        <ele>197.5139980085746</ele>
        <time>2024-09-14T10:52:47.764Z</time>
      </trkpt>
      <trkpt lat="50.08338666666667" lon="14.424845000000001">
        <ele>216.5139203828806</ele>
        <time>2024-09-14T10:52:49.751Z</time>
      </trkpt>
      <trkpt lat="50.08341" lon="14.425093333333333">
        <ele>228.61471475211118</ele>
        <time>2024-09-14T10:52:54.771Z</time>
      </trkpt>
      <trkpt lat="50.083515000000006" lon="14.425070000000002">
        <ele>226.21479180570998</ele>
        <time>2024-09-14T10:53:10.785Z</time>
      </trkpt>
      <trkpt lat="50.083436666666664" lon="14.425135000000001">
        <ele>222.51485606525125</ele>
        <time>2024-09-14T10:54:45.778Z</time>
      </trkpt>
      <trkpt lat="50.083445" lon="14.425216666666666">
        <ele>220.61496242388364</ele>
        <time>2024-09-14T10:55:24.784Z</time>
      </trkpt>
      <trkpt lat="50.08294166666666" lon="14.425818333333332">
        <ele>225.8156070725242</ele>
        <time>2024-09-14T10:56:51.738Z</time>
      </trkpt>
      <trkpt lat="50.082550000000005" lon="14.426155000000001">
        <ele>216.91587966807043</ele>
        <time>2024-09-14T10:57:58.741Z</time>
      </trkpt>
      <trkpt lat="50.08189666666667" lon="14.427076666666668">
        <ele>190.61692928349748</ele>
        <time>2024-09-14T10:59:27.737Z</time>
      </trkpt>
      <trkpt lat="50.08160978859493" lon="14.427845939914505">
        <ele>212.9207618098247</ele>
        <time>2024-09-14T11:00:06.882Z</time>
      </trkpt>
      <trkpt lat="50.081355" lon="14.427028333333332">
        <ele>213.48354027872304</ele>
        <time>2024-09-14T11:00:31.263Z</time>
      </trkpt>
      <trkpt lat="50.08125499999999" lon="14.427116666666667">
        <ele>260.91648700194065</ele>
        <time>2024-09-14T12:00:21.787Z</time>
      </trkpt>
      <trkpt lat="50.080954999999996" lon="14.427586666666665">
        <ele>252.3170585321226</ele>
        <time>2024-09-14T12:00:57.774Z</time>
      </trkpt>
      <trkpt lat="50.08095166666667" lon="14.42797">
        <ele>249.51765073105366</ele>
        <time>2024-09-14T12:01:13.782Z</time>
      </trkpt>
      <trkpt lat="50.08078833333334" lon="14.428626666666666">
        <ele>234.2186917772437</ele>
        <time>2024-09-14T12:01:44.761Z</time>
      </trkpt>
      <trkpt lat="50.07974333333333" lon="14.430101666666667">
        <ele>219.22040787529764</ele>
        <time>2024-09-14T12:04:08.748Z</time>
      </trkpt>
      <trkpt lat="50.079866666666675" lon="14.430403333333334">
        <ele>213.82100367748802</ele>
        <time>2024-09-14T12:04:25.767Z</time>
      </trkpt>
      <trkpt lat="50.080135000000006" lon="14.430790000000002">
        <ele>214.52186694322643</ele>
        <time>2024-09-14T12:05:13.745Z</time>
      </trkpt>
      <trkpt lat="50.08026499999999" lon="14.430838333333334">
        <ele>216.3221207697802</ele>
        <time>2024-09-14T12:05:32.768Z</time>
      </trkpt>
      <trkpt lat="50.08005166666667" lon="14.43062">
        <ele>212.02156760776188</ele>
        <time>2024-09-14T12:05:50.754Z</time>
      </trkpt>
      <trkpt lat="50.07998666666667" lon="14.430836666666668">
        <ele>213.72185209086928</ele>
        <time>2024-09-14T12:06:07.781Z</time>
      </trkpt>
      <trkpt lat="50.08078166666666" lon="14.432231666666667">
        <ele>212.62485541527786</ele>
        <time>2024-09-14T12:07:57.742Z</time>
      </trkpt>
      <trkpt lat="50.08092" lon="14.43222">
        <ele>211.52498283251748</ele>
        <time>2024-09-14T12:08:10.742Z</time>
      </trkpt>
      <trkpt lat="50.08102" lon="14.432015000000002">
        <ele>207.22471111535117</ele>
        <time>2024-09-14T12:08:26.741Z</time>
      </trkpt>
      <trkpt lat="50.08109833333333" lon="14.432236666666665">
        <ele>210.92514252641908</ele>
        <time>2024-09-14T12:09:12.741Z</time>
      </trkpt>
      <trkpt lat="50.08130333333334" lon="14.431806666666667">
        <ele>212.32457413231342</ele>
        <time>2024-09-14T12:09:52.747Z</time>
      </trkpt>
      <trkpt lat="50.08158666666667" lon="14.431998333333334">
        <ele>212.82511677624507</ele>
        <time>2024-09-14T12:10:27.742Z</time>
      </trkpt>
      <trkpt lat="50.081588333333336" lon="14.432091666666668">
        <ele>213.32527355622213</ele>
        <time>2024-09-14T12:10:35.738Z</time>
      </trkpt>
      <trkpt lat="50.08170833333334" lon="14.432128333333333">
        <ele>214.02540306424135</ele>
        <time>2024-09-14T12:10:44.738Z</time>
      </trkpt>
      <trkpt lat="50.08185333333333" lon="14.432028333333335">
        <ele>207.7253639295782</ele>
        <time>2024-09-14T12:11:02.741Z</time>
      </trkpt>
      <trkpt lat="50.083021666666674" lon="14.43303">
        <ele>206.52795893864123</ele>
        <time>2024-09-14T12:13:15.735Z</time>
      </trkpt>
      <trkpt lat="50.08312166666666" lon="14.43323">
        <ele>207.2284120009534</ele>
        <time>2024-09-14T12:13:31.728Z</time>
      </trkpt>
      <trkpt lat="50.08328333333334" lon="14.434226666666666">
        <ele>207.4302655128525</ele>
        <time>2024-09-14T12:15:16.728Z</time>
      </trkpt>
      <trkpt lat="50.08322833333333" lon="14.434248333333334">
        <ele>207.63027541254033</ele>
        <time>2024-09-14T12:15:18.758Z</time>
      </trkpt>
      <trkpt lat="50.08329833333334" lon="14.434228333333332">
        <ele>207.63026637823614</ele>
        <time>2024-09-14T12:15:19.795Z</time>
      </trkpt>
      <trkpt lat="50.08355333333334" lon="14.433743333333332">
        <ele>209.5295816015073</ele>
        <time>2024-09-14T12:15:53.791Z</time>
      </trkpt>
      <trkpt lat="50.08368166666667" lon="14.433803333333334">
        <ele>209.9298409428444</ele>
        <time>2024-09-14T12:15:57.768Z</time>
      </trkpt>
      <trkpt lat="50.08372166666666" lon="14.433728333333333">
        <ele>209.3297768805003</ele>
        <time>2024-09-14T12:16:05.804Z</time>
      </trkpt>
      <trkpt lat="50.08360166666667" lon="14.433723333333335">
        <ele>211.82964026467164</ele>
        <time>2024-09-14T12:32:40.739Z</time>
      </trkpt>
      <trkpt lat="50.08414" lon="14.434149999999999">
        <ele>209.0307694407032</ele>
        <time>2024-09-14T12:33:38.741Z</time>
      </trkpt>
      <trkpt lat="50.084158333333335" lon="14.434101666666667">
        <ele>208.93075953671695</ele>
        <time>2024-09-14T12:33:42.738Z</time>
      </trkpt>
      <trkpt lat="50.084066666666665" lon="14.434151666666667">
        <ele>207.23075327949746</ele>
        <time>2024-09-14T12:34:01.768Z</time>
      </trkpt>
      <trkpt lat="50.08408333333333" lon="14.434078333333332">
        <ele>206.93068587940598</ele>
        <time>2024-09-14T12:34:07.774Z</time>
      </trkpt>
      <trkpt lat="50.08399833333333" lon="14.434023333333334">
        <ele>206.63052722106278</ele>
        <time>2024-09-14T12:34:13.778Z</time>
      </trkpt>
      <trkpt lat="50.08401833333334" lon="14.433921666666667">
        <ele>206.4303606727027</ele>
        <time>2024-09-14T12:34:17.784Z</time>
      </trkpt>
      <trkpt lat="50.084070000000004" lon="14.433948333333335">
        <ele>206.43035886554838</ele>
        <time>2024-09-14T12:34:19.784Z</time>
      </trkpt>
      <trkpt lat="50.08398166666666" lon="14.433926666666666">
        <ele>206.2303044884099</ele>
        <time>2024-09-14T12:34:28.784Z</time>
      </trkpt>
      <trkpt lat="50.083929999999995" lon="14.434191666666667">
        <ele>206.13067798510968</ele>
        <time>2024-09-14T12:34:36.774Z</time>
      </trkpt>
      <trkpt lat="50.08333833333333" lon="14.435418333333333">
        <ele>206.13072025852958</ele>
        <time>2024-09-14T13:02:02.747Z</time>
      </trkpt>
      <trkpt lat="50.083245000000005" lon="14.435416666666667">
        <ele>212.5323593852242</ele>
        <time>2024-09-14T13:02:03.764Z</time>
      </trkpt>
      <trkpt lat="50.08318333333333" lon="14.435523333333332">
        <ele>218.1323385205881</ele>
        <time>2024-09-14T13:02:05.778Z</time>
      </trkpt>
    </trkseg>
  </trk>
</gpx>
