<?xml version="1.0" encoding="UTF-8"?>
<gpx version="1.1" creator="Export" xmlns="http://www.topografix.com/GPX/1/1" xmlns:xsi="http://www.w3.org/2001/XMLSchema-instance" xsi:schemaLocation="http://www.topografix.com/GPX/1/1 http://www.topografix.com/GPX/1/1/gpx.xsd http://www.garmin.com/xmlschemas/GpxExtensions/v3 http://www.garmin.com/xmlschemas/GpxExtensionsv3.xsd http://www.garmin.com/xmlschemas/TrackPointExtension/v1 http://www.garmin.com/xmlschemas/TrackPointExtensionv1.xsd http://www.garmin.com/xmlschemas/PowerExtension/v1 http://www.garmin.com/xmlschemas/PowerExtensionv1.xsd http://www.topografix.com/GPX/gpx_style/0/2 http://www.topografix.com/GPX/gpx_style/0/2/gpx_style.xsd" xmlns:gpxtpx="http://www.garmin.com/xmlschemas/TrackPointExtension/v1" xmlns:gpxx="http://www.garmin.com/xmlschemas/GpxExtensions/v3" xmlns:gpxpx="http://www.garmin.com/xmlschemas/PowerExtension/v1" xmlns:gpx_style="http://www.topografix.com/GPX/gpx_style/0/2">
  <metadata>
    <name>activity_214_2024-09-12</name>
    <author>
      <name>gpx.studio</name>
      <link href="https://gpx.studio"/>
    </author>
  </metadata>
  <trk>
    <name>activity_214_2024-09-12</name>
    <trkseg>
      <trkpt lat="45.48523166666667" lon="9.183118333333335">
        <ele>131.11844110994383</ele>
        <time>2024-09-12T12:50:39.066Z</time>
      </trkpt>
      <trkpt lat="45.485099999999996" lon="9.182133333333333">
        <ele>131.92201748665406</ele>
        <time>2024-09-12T12:52:00.058Z</time>
      </trkpt>
      <trkpt lat="45.485011666666665" lon="9.18232">
        <ele>135.22128543592868</ele>
        <time>2024-09-12T12:52:41.076Z</time>
      </trkpt>
      <trkpt lat="45.48417833333333" lon="9.182706666666666">
        <ele>140.0188608922634</ele>
        <time>2024-09-12T12:54:04.078Z</time>
      </trkpt>
      <trkpt lat="45.48403" lon="9.182619999999998">
        <ele>140.11897924208637</ele>
        <time>2024-09-12T12:54:15.091Z</time>
      </trkpt>
      <trkpt lat="45.48261833333333" lon="9.183758333333333">
        <ele>134.8130673283477</ele>
        <time>2024-09-12T12:56:42.095Z</time>
      </trkpt>
      <trkpt lat="45.48187666666666" lon="9.18409">
        <ele>126.11088429706066</ele>
        <time>2024-09-12T12:57:46.111Z</time>
      </trkpt>
      <trkpt lat="45.48137499999999" lon="9.184848333333333">
        <ele>134.60743276781534</ele>
        <time>2024-09-12T12:58:57.081Z</time>
      </trkpt>
      <trkpt lat="45.48137" lon="9.185274999999999">
        <ele>134.60574159162775</ele>
        <time>2024-09-12T12:59:23.085Z</time>
      </trkpt>
      <trkpt lat="45.480875" lon="9.185251666666666">
        <ele>128.30527735841704</ele>
        <time>2024-09-12T13:00:32.101Z</time>
      </trkpt>
      <trkpt lat="45.480583333333335" lon="9.186576666666667">
        <ele>134.8999361873047</ele>
        <time>2024-09-12T13:02:04.072Z</time>
      </trkpt>
      <trkpt lat="45.48054333333333" lon="9.186913333333333">
        <ele>130.098570786165</ele>
        <time>2024-09-12T13:02:24.061Z</time>
      </trkpt>
      <trkpt lat="45.48065666666666" lon="9.186946666666667">
        <ele>134.098526584373</ele>
        <time>2024-09-12T13:03:09.082Z</time>
      </trkpt>
      <trkpt lat="45.48033" lon="9.186836666666666">
        <ele>133.19854745650193</ele>
        <time>2024-09-12T13:04:07.073Z</time>
      </trkpt>
      <trkpt lat="45.48029499999999" lon="9.186578333333333">
        <ele>130.59945151293516</ele>
        <time>2024-09-12T13:04:22.084Z</time>
      </trkpt>
      <trkpt lat="45.479859999999995" lon="9.186153333333333">
        <ele>126.8005367620107</ele>
        <time>2024-09-12T13:05:57.108Z</time>
      </trkpt>
      <trkpt lat="45.47967833333334" lon="9.186178333333334">
        <ele>134.40031940316763</ele>
        <time>2024-09-12T13:07:54.072Z</time>
      </trkpt>
      <trkpt lat="45.479591666666664" lon="9.185933333333333">
        <ele>123.30107319368457</ele>
        <time>2024-09-12T13:08:30.065Z</time>
      </trkpt>
      <trkpt lat="45.478675" lon="9.185428333333334">
        <ele>118.10191461048466</ele>
        <time>2024-09-12T13:10:22.062Z</time>
      </trkpt>
      <trkpt lat="45.47829" lon="9.185435">
        <ele>121.8014878786436</ele>
        <time>2024-09-12T13:11:03.078Z</time>
      </trkpt>
      <trkpt lat="45.478204999999996" lon="9.185121666666667">
        <ele>123.00253469816874</ele>
        <time>2024-09-12T13:11:29.108Z</time>
      </trkpt>
      <trkpt lat="45.47781666666666" lon="9.184723333333332">
        <ele>137.70362093498048</ele>
        <time>2024-09-12T13:12:28.053Z</time>
      </trkpt>
      <trkpt lat="45.47765166666667" lon="9.184933333333333">
        <ele>142.00257155074382</ele>
        <time>2024-09-12T13:13:35.088Z</time>
      </trkpt>
      <trkpt lat="45.478069999999995" lon="9.185255000000002">
        <ele>142.20179060896453</ele>
        <time>2024-09-12T13:14:21.101Z</time>
      </trkpt>
      <trkpt lat="45.47741333333333" lon="9.185003333333333">
        <ele>144.30209758763058</ele>
        <time>2024-09-12T13:14:53.086Z</time>
      </trkpt>
      <trkpt lat="45.477615" lon="9.184726666666668">
        <ele>144.50328285591223</ele>
        <time>2024-09-12T13:15:21.101Z</time>
      </trkpt>
      <trkpt lat="45.47767999999999" lon="9.184511666666667">
        <ele>164.10424339317643</ele>
        <time>2024-09-12T13:17:31.055Z</time>
      </trkpt>
      <trkpt lat="45.47802166666667" lon="9.184458333333334">
        <ele>165.90462763444498</ele>
        <time>2024-09-12T13:18:23.092Z</time>
      </trkpt>
      <trkpt lat="45.47803333333333" lon="9.184658333333335">
        <ele>166.20415131006786</ele>
        <time>2024-09-12T13:19:33.105Z</time>
      </trkpt>
      <trkpt lat="45.47791" lon="9.184821666666666">
        <ele>143.4033964080222</ele>
        <time>2024-09-12T13:26:32.107Z</time>
      </trkpt>
      <trkpt lat="45.478035" lon="9.184638333333334">
        <ele>149.3042145481275</ele>
        <time>2024-09-12T13:28:30.094Z</time>
      </trkpt>
      <trkpt lat="45.47785166666666" lon="9.184678333333332">
        <ele>149.30383288179019</ele>
        <time>2024-09-12T13:32:05.088Z</time>
      </trkpt>
      <trkpt lat="45.47803333333333" lon="9.184733333333332">
        <ele>141.3038725083536</ele>
        <time>2024-09-12T13:33:51.056Z</time>
      </trkpt>
      <trkpt lat="45.47792166666667" lon="9.184825">
        <ele>140.2038303774237</ele>
        <time>2024-09-12T13:41:34.868Z</time>
      </trkpt>
      <trkpt lat="45.47718499999999" lon="9.183873333333334">
        <ele>136.60337848467154</ele>
        <time>2024-09-12T13:41:35.835Z</time>
      </trkpt>
      <trkpt lat="45.47717166666666" lon="9.184401666666668">
        <ele>179.70612597359462</ele>
        <time>2024-09-12T13:41:38.838Z</time>
      </trkpt>
      <trkpt lat="45.47794833333334" lon="9.184140000000001">
        <ele>201.9059685412842</ele>
        <time>2024-09-12T13:41:43.088Z</time>
      </trkpt>
      <trkpt lat="45.47803833333334" lon="9.184813333333333">
        <ele>147.5035676093592</ele>
        <time>2024-09-12T13:50:09.098Z</time>
      </trkpt>
      <trkpt lat="45.47794999999999" lon="9.184898333333333">
        <ele>144.10314115787102</ele>
        <time>2024-09-12T13:50:36.095Z</time>
      </trkpt>
      <trkpt lat="45.478069999999995" lon="9.184708333333333">
        <ele>133.60405742877617</ele>
        <time>2024-09-12T14:01:03.089Z</time>
      </trkpt>
      <trkpt lat="45.47793" lon="9.184978333333333">
        <ele>115.40289149579718</ele>
        <time>2024-09-12T14:05:17.523Z</time>
      </trkpt>
      <trkpt lat="45.47796333333334" lon="9.184615">
        <ele>130.30371073121555</ele>
        <time>2024-09-12T14:06:13.096Z</time>
      </trkpt>
      <trkpt lat="45.47825833333333" lon="9.185183333333333">
        <ele>131.50258350854233</ele>
        <time>2024-09-12T14:08:55.566Z</time>
      </trkpt>
      <trkpt lat="45.47800166666666" lon="9.184556666666667">
        <ele>166.30452585648555</ele>
        <time>2024-09-12T14:11:09.094Z</time>
      </trkpt>
      <trkpt lat="45.47852666666666" lon="9.185483333333334">
        <ele>135.60159938771858</ele>
        <time>2024-09-12T14:12:26.082Z</time>
      </trkpt>
      <trkpt lat="45.477844999999995" lon="9.184876666666666">
        <ele>121.40305858053233</ele>
        <time>2024-09-12T14:14:01.085Z</time>
      </trkpt>
      <trkpt lat="45.47791" lon="9.184541666666666">
        <ele>128.70436871155266</ele>
        <time>2024-09-12T14:15:29.101Z</time>
      </trkpt>
      <trkpt lat="45.477743333333336" lon="9.184065">
        <ele>130.10603636850146</ele>
        <time>2024-09-12T14:16:05.082Z</time>
      </trkpt>
      <trkpt lat="45.47703166666667" lon="9.184548333333334">
        <ele>126.70341332713897</ele>
        <time>2024-09-12T14:17:21.096Z</time>
      </trkpt>
      <trkpt lat="45.47656833333334" lon="9.18439">
        <ele>125.9034339711182</ele>
        <time>2024-09-12T14:18:03.091Z</time>
      </trkpt>
      <trkpt lat="45.47649" lon="9.183243333333333">
        <ele>144.40768260898193</ele>
        <time>2024-09-12T14:19:04.094Z</time>
      </trkpt>
      <trkpt lat="45.47655666666666" lon="9.183981666666666">
        <ele>138.30501508582017</ele>
        <time>2024-09-12T14:20:01.072Z</time>
      </trkpt>
      <trkpt lat="45.476395000000004" lon="9.184151666666667">
        <ele>142.60416615086632</ele>
        <time>2024-09-12T14:20:16.088Z</time>
      </trkpt>
      <trkpt lat="45.476143333333326" lon="9.184158333333333">
        <ele>142.70382469323818</ele>
        <time>2024-09-12T14:20:43.089Z</time>
      </trkpt>
      <trkpt lat="45.47635333333333" lon="9.18409">
        <ele>140.50427643274372</ele>
        <time>2024-09-12T14:21:23.102Z</time>
      </trkpt>
      <trkpt lat="45.47541666666666" lon="9.183705">
        <ele>130.9046795970162</ele>
        <time>2024-09-12T14:23:32.082Z</time>
      </trkpt>
      <trkpt lat="45.47529333333333" lon="9.183496666666667">
        <ele>136.30527539301397</ele>
        <time>2024-09-12T14:23:46.095Z</time>
      </trkpt>
      <trkpt lat="45.47470333333334" lon="9.183366666666666">
        <ele>143.20511822680766</ele>
        <time>2024-09-12T14:24:39.092Z</time>
      </trkpt>
      <trkpt lat="45.47427" lon="9.183363333333334">
        <ele>132.50462586439477</ele>
        <time>2024-09-12T14:25:22.094Z</time>
      </trkpt>
      <trkpt lat="45.474038333333326" lon="9.183541666666667">
        <ele>126.7037036237932</ele>
        <time>2024-09-12T14:25:52.098Z</time>
      </trkpt>
      <trkpt lat="45.473825000000005" lon="9.183368333333334">
        <ele>128.80406852767288</ele>
        <time>2024-09-12T14:26:18.092Z</time>
      </trkpt>
      <trkpt lat="45.473578333333336" lon="9.183498333333334">
        <ele>127.50332610806899</ele>
        <time>2024-09-12T14:26:50.059Z</time>
      </trkpt>
      <trkpt lat="45.47369666666667" lon="9.183785">
        <ele>137.40235325909916</ele>
        <time>2024-09-12T14:27:03.051Z</time>
      </trkpt>
      <trkpt lat="45.47362666666666" lon="9.183651666666666">
        <ele>134.90275354907862</ele>
        <time>2024-09-12T14:27:16.092Z</time>
      </trkpt>
      <trkpt lat="45.47177333333334" lon="9.184045">
        <ele>121.59909789363454</ele>
        <time>2024-09-12T14:30:17.092Z</time>
      </trkpt>
      <trkpt lat="45.471720000000005" lon="9.183791666666668">
        <ele>121.999963486801</ele>
        <time>2024-09-12T14:31:00.107Z</time>
      </trkpt>
      <trkpt lat="45.47155166666666" lon="9.183855">
        <ele>123.79952583806643</ele>
        <time>2024-09-12T14:31:16.066Z</time>
      </trkpt>
      <trkpt lat="45.471579999999996" lon="9.184075">
        <ele>126.79874206774599</ele>
        <time>2024-09-12T14:31:41.068Z</time>
      </trkpt>
      <trkpt lat="45.47128833333333" lon="9.183913333333333">
        <ele>120.19900775655535</ele>
        <time>2024-09-12T14:32:51.088Z</time>
      </trkpt>
      <trkpt lat="45.470288333333336" lon="9.18461">
        <ele>116.89519106425581</ele>
        <time>2024-09-12T14:35:25.095Z</time>
      </trkpt>
      <trkpt lat="45.470298333333325" lon="9.185278333333335">
        <ele>128.39262455988057</ele>
        <time>2024-09-12T14:36:56.088Z</time>
      </trkpt>
      <trkpt lat="45.470171666666666" lon="9.184966666666666">
        <ele>124.49363461142985</ele>
        <time>2024-09-12T14:37:38.101Z</time>
      </trkpt>
      <trkpt lat="45.469836666666666" lon="9.18511">
        <ele>115.29272898186426</ele>
        <time>2024-09-12T14:38:15.085Z</time>
      </trkpt>
      <trkpt lat="45.47013833333334" lon="9.1849">
        <ele>108.69385026494164</ele>
        <time>2024-09-12T14:38:53.092Z</time>
      </trkpt>
      <trkpt lat="45.47034166666667" lon="9.185585">
        <ele>119.09154018831907</ele>
        <time>2024-09-12T14:39:39.085Z</time>
      </trkpt>
      <trkpt lat="45.47044833333333" lon="9.185593333333333">
        <ele>120.6916058191893</ele>
        <time>2024-09-12T14:40:04.095Z</time>
      </trkpt>
      <trkpt lat="45.470388333333325" lon="9.18575">
        <ele>121.89100181381103</ele>
        <time>2024-09-12T14:40:24.098Z</time>
      </trkpt>
      <trkpt lat="45.470555" lon="9.185826666666665">
        <ele>122.59086002161922</ele>
        <time>2024-09-12T14:41:35.095Z</time>
      </trkpt>
      <trkpt lat="45.470423333333336" lon="9.186031666666667">
        <ele>122.78993195690575</ele>
        <time>2024-09-12T14:42:25.059Z</time>
      </trkpt>
      <trkpt lat="45.47054" lon="9.186001666666668">
        <ele>113.89016431937485</ele>
        <time>2024-09-12T14:42:50.108Z</time>
      </trkpt>
      <trkpt lat="45.470311666666674" lon="9.185834999999999">
        <ele>119.49050021316404</ele>
        <time>2024-09-12T14:43:25.098Z</time>
      </trkpt>
      <trkpt lat="45.470409999999994" lon="9.185793333333333">
        <ele>121.19075127920136</ele>
        <time>2024-09-12T14:43:33.086Z</time>
      </trkpt>
      <trkpt lat="45.47036333333334" lon="9.185531666666666">
        <ele>125.99168616552865</ele>
        <time>2024-09-12T14:43:56.089Z</time>
      </trkpt>
      <trkpt lat="45.47023000000001" lon="9.185595000000001">
        <ele>125.39131382291455</ele>
        <time>2024-09-12T14:44:20.098Z</time>
      </trkpt>
      <trkpt lat="45.47052" lon="9.185345000000002">
        <ele>125.99261784274842</ele>
        <time>2024-09-12T14:44:53.072Z</time>
      </trkpt>
      <trkpt lat="45.47048499999999" lon="9.185513333333335">
        <ele>129.59197477596956</ele>
        <time>2024-09-12T14:45:23.094Z</time>
      </trkpt>
      <trkpt lat="45.47009666666666" lon="9.185566666666666">
        <ele>103.59137580917329</ele>
        <time>2024-09-12T14:55:31.095Z</time>
      </trkpt>
      <trkpt lat="45.47029333333333" lon="9.185361666666667">
        <ele>124.19230245931405</ele>
        <time>2024-09-12T14:56:02.092Z</time>
      </trkpt>
      <trkpt lat="45.47051166666667" lon="9.185395">
        <ele>125.99240244079157</ele>
        <time>2024-09-12T14:56:37.095Z</time>
      </trkpt>
      <trkpt lat="45.47027666666666" lon="9.185078333333333">
        <ele>140.69331934590375</ele>
        <time>2024-09-12T14:57:54.076Z</time>
      </trkpt>
      <trkpt lat="45.46998166666667" lon="9.185046666666667">
        <ele>139.2930995701449</ele>
        <time>2024-09-12T14:58:06.072Z</time>
      </trkpt>
      <trkpt lat="45.468936666666664" lon="9.185506666666667">
        <ele>130.59015046565656</ele>
        <time>2024-09-12T15:00:18.085Z</time>
      </trkpt>
      <trkpt lat="45.46765666666667" lon="9.18572">
        <ele>167.98782030710504</ele>
        <time>2024-09-12T15:02:38.082Z</time>
      </trkpt>
      <trkpt lat="45.46758333333334" lon="9.185976666666667">
        <ele>149.98677268821024</ele>
        <time>2024-09-12T15:02:57.085Z</time>
      </trkpt>
      <trkpt lat="45.46713166666667" lon="9.185696666666667">
        <ele>123.48728061062428</ele>
        <time>2024-09-12T15:03:57.109Z</time>
      </trkpt>
      <trkpt lat="45.46710666666666" lon="9.185848333333333">
        <ele>121.48671142064134</ele>
        <time>2024-09-12T15:04:06.104Z</time>
      </trkpt>
      <trkpt lat="45.466243333333324" lon="9.186111666666667">
        <ele>125.3846388413611</ele>
        <time>2024-09-12T15:05:29.099Z</time>
      </trkpt>
      <trkpt lat="45.466165000000004" lon="9.186313333333334">
        <ele>123.48379393722439</ele>
        <time>2024-09-12T15:05:48.105Z</time>
      </trkpt>
      <trkpt lat="45.46579499999999" lon="9.186476666666666">
        <ele>126.08270495706157</ele>
        <time>2024-09-12T15:06:46.061Z</time>
      </trkpt>
      <trkpt lat="45.465650000000004" lon="9.186074999999999">
        <ele>135.08404460890648</ele>
        <time>2024-09-12T15:08:10.071Z</time>
      </trkpt>
      <trkpt lat="45.46583833333334" lon="9.185665">
        <ele>137.2857898923378</ele>
        <time>2024-09-12T15:10:08.055Z</time>
      </trkpt>
      <trkpt lat="45.466008333333335" lon="9.185515">
        <ele>130.48656781508487</ele>
        <time>2024-09-12T15:10:40.094Z</time>
      </trkpt>
      <trkpt lat="45.46611166666666" lon="9.185638333333333">
        <ele>128.68624257153613</ele>
        <time>2024-09-12T15:11:01.091Z</time>
      </trkpt>
      <trkpt lat="45.465914999999995" lon="9.185495">
        <ele>138.5865787835182</ele>
        <time>2024-09-12T15:11:33.111Z</time>
      </trkpt>
      <trkpt lat="45.46591166666667" lon="9.185233333333334">
        <ele>149.68745365883916</ele>
        <time>2024-09-12T15:11:52.111Z</time>
      </trkpt>
      <trkpt lat="45.46643000000001" lon="9.184513333333333">
        <ele>127.99086088846104</ele>
        <time>2024-09-12T15:13:25.082Z</time>
      </trkpt>
      <trkpt lat="45.46661166666666" lon="9.184578333333333">
        <ele>126.89089719758331</ele>
        <time>2024-09-12T15:13:42.078Z</time>
      </trkpt>
      <trkpt lat="45.466568333333335" lon="9.184228333333333">
        <ele>129.69211710822458</ele>
        <time>2024-09-12T15:15:36.088Z</time>
      </trkpt>
      <trkpt lat="45.46696166666667" lon="9.18422">
        <ele>117.69267870689403</ele>
        <time>2024-09-12T15:16:14.088Z</time>
      </trkpt>
      <trkpt lat="45.46708666666667" lon="9.183846666666666">
        <ele>111.79419246068693</ele>
        <time>2024-09-12T15:16:41.092Z</time>
      </trkpt>
      <trkpt lat="45.467936666666674" lon="9.182778333333333">
        <ele>128.4992629608345</ele>
        <time>2024-09-12T15:18:43.061Z</time>
      </trkpt>
      <trkpt lat="45.468093333333336" lon="9.182445">
        <ele>126.40075389180848</ele>
        <time>2024-09-12T15:19:18.062Z</time>
      </trkpt>
      <trkpt lat="45.468026666666674" lon="9.182146666666666">
        <ele>129.60180973408796</ele>
        <time>2024-09-12T15:19:58.063Z</time>
      </trkpt>
      <trkpt lat="45.46863333333334" lon="9.181776666666668">
        <ele>126.30389261166289</ele>
        <time>2024-09-12T15:21:07.092Z</time>
      </trkpt>
      <trkpt lat="45.469028333333334" lon="9.181191666666667">
        <ele>121.50659435072875</ele>
        <time>2024-09-12T15:22:03.065Z</time>
      </trkpt>
      <trkpt lat="45.46909333333333" lon="9.180784999999998">
        <ele>127.00815296517804</ele>
        <time>2024-09-12T15:22:29.065Z</time>
      </trkpt>
      <trkpt lat="45.469611666666665" lon="9.180576666666667">
        <ele>129.90958981830283</ele>
        <time>2024-09-12T15:23:35.098Z</time>
      </trkpt>
      <trkpt lat="45.470135" lon="9.179685000000001">
        <ele>131.71362117963412</ele>
        <time>2024-09-12T15:25:09.059Z</time>
      </trkpt>
      <trkpt lat="45.471684999999994" lon="9.177795">
        <ele>131.4225357186572</ele>
        <time>2024-09-12T15:49:57.086Z</time>
      </trkpt>
      <trkpt lat="45.47175000000001" lon="9.177681666666667">
        <ele>131.72304028198386</ele>
        <time>2024-09-12T15:50:08.075Z</time>
      </trkpt>
      <trkpt lat="45.47147333333334" lon="9.177635">
        <ele>128.72291705347558</ele>
        <time>2024-09-12T15:50:43.085Z</time>
      </trkpt>
      <trkpt lat="45.471403333333335" lon="9.1774">
        <ele>129.92365703979448</ele>
        <time>2024-09-12T15:50:58.105Z</time>
      </trkpt>
      <trkpt lat="45.47162" lon="9.176586666666667">
        <ele>126.82694429325471</ele>
        <time>2024-09-12T15:51:52.094Z</time>
      </trkpt>
      <trkpt lat="45.47198166666667" lon="9.176326666666666">
        <ele>122.52842138284592</ele>
        <time>2024-09-12T15:52:30.096Z</time>
      </trkpt>
      <trkpt lat="45.472165" lon="9.175918333333334">
        <ele>128.33010762197864</ele>
        <time>2024-09-12T15:53:12.089Z</time>
      </trkpt>
      <trkpt lat="45.47241" lon="9.17592">
        <ele>127.73042243798865</ele>
        <time>2024-09-12T15:53:30.092Z</time>
      </trkpt>
      <trkpt lat="45.47375666666667" lon="9.173713333333334">
        <ele>131.64022973345388</ele>
        <time>2024-09-12T15:57:12.095Z</time>
      </trkpt>
      <trkpt lat="45.47454" lon="9.173146666666666">
        <ele>126.24330872241819</ele>
        <time>2024-09-12T15:58:41.094Z</time>
      </trkpt>
      <trkpt lat="45.47509" lon="9.173531666666666">
        <ele>128.64260411307464</ele>
        <time>2024-09-12T15:59:53.095Z</time>
      </trkpt>
      <trkpt lat="45.47510666666667" lon="9.174236666666667">
        <ele>130.33995611931232</ele>
        <time>2024-09-12T16:00:38.091Z</time>
      </trkpt>
      <trkpt lat="45.475395" lon="9.17409">
        <ele>128.14078068223859</ele>
        <time>2024-09-12T16:01:13.096Z</time>
      </trkpt>
      <trkpt lat="45.475456666666666" lon="9.173656666666666">
        <ele>133.24245539469425</ele>
        <time>2024-09-12T16:01:49.105Z</time>
      </trkpt>
      <trkpt lat="45.475319999999996" lon="9.173425">
        <ele>134.5431555538856</ele>
        <time>2024-09-12T16:02:14.096Z</time>
      </trkpt>
      <trkpt lat="45.47554166666667" lon="9.172733333333333">
        <ele>131.34604299242898</ele>
        <time>2024-09-12T16:03:43.088Z</time>
      </trkpt>
      <trkpt lat="45.47536333333334" lon="9.17247">
        <ele>135.1468012603665</ele>
        <time>2024-09-12T16:04:43.066Z</time>
      </trkpt>
      <trkpt lat="45.47573166666666" lon="9.171726666666666">
        <ele>130.5499978265151</ele>
        <time>2024-09-12T16:07:06.082Z</time>
      </trkpt>
      <trkpt lat="45.47544166666667" lon="9.171466666666667">
        <ele>133.55061710586006</ele>
        <time>2024-09-12T16:07:43.076Z</time>
      </trkpt>
      <trkpt lat="45.47521833333334" lon="9.171601666666668">
        <ele>128.7498696069048</ele>
        <time>2024-09-12T16:08:06.098Z</time>
      </trkpt>
      <trkpt lat="45.474140000000006" lon="9.169873333333333">
        <ele>125.45496386189083</ele>
        <time>2024-09-12T16:10:55.088Z</time>
      </trkpt>
      <trkpt lat="45.474218333333326" lon="9.169995">
        <ele>128.65463837577553</ele>
        <time>2024-09-12T16:11:18.072Z</time>
      </trkpt>
      <trkpt lat="45.474106666666664" lon="9.169941666666666">
        <ele>129.25470845175036</ele>
        <time>2024-09-12T16:11:39.086Z</time>
      </trkpt>
      <trkpt lat="45.473218333333335" lon="9.171156666666667">
        <ele>133.14914646314102</ele>
        <time>2024-09-12T16:13:32.078Z</time>
      </trkpt>
      <trkpt lat="45.472305000000006" lon="9.173259999999999">
        <ele>138.64025043430203</ele>
        <time>2024-09-12T16:16:36.065Z</time>
      </trkpt>
      <trkpt lat="45.47135333333334" lon="9.174175">
        <ele>137.0357481035104</ele>
        <time>2024-09-12T16:19:00.079Z</time>
      </trkpt>
      <trkpt lat="45.47147333333334" lon="9.174248333333333">
        <ele>136.3355607840928</ele>
        <time>2024-09-12T16:19:38.058Z</time>
      </trkpt>
      <trkpt lat="45.471334999999996" lon="9.174101666666667">
        <ele>139.23592802859952</ele>
        <time>2024-09-12T16:20:04.098Z</time>
      </trkpt>
      <trkpt lat="45.47043999999999" lon="9.17488">
        <ele>133.6319750708815</ele>
        <time>2024-09-12T16:22:11.082Z</time>
      </trkpt>
      <trkpt lat="45.468651666666666" lon="9.177285000000001">
        <ele>130.1209394973836</ele>
        <time>2024-09-12T16:26:47.108Z</time>
      </trkpt>
      <trkpt lat="45.468158333333335" lon="9.176530000000001">
        <ele>130.2231049991149</ele>
        <time>2024-09-12T16:29:00.104Z</time>
      </trkpt>
      <trkpt lat="45.46815166666667" lon="9.176335">
        <ele>130.22381232895316</ele>
        <time>2024-09-12T16:29:19.088Z</time>
      </trkpt>
      <trkpt lat="45.46851" lon="9.17576">
        <ele>127.92637795898403</ele>
        <time>2024-09-12T16:30:37.089Z</time>
      </trkpt>
      <trkpt lat="45.46854499999999" lon="9.175526666666666">
        <ele>131.92726409942046</ele>
        <time>2024-09-12T16:31:00.095Z</time>
      </trkpt>
      <trkpt lat="45.468435" lon="9.175456666666665">
        <ele>131.32747182192782</ele>
        <time>2024-09-12T16:31:08.092Z</time>
      </trkpt>
      <trkpt lat="45.46837833333334" lon="9.17572">
        <ele>121.72643424910217</ele>
        <time>2024-09-12T16:31:28.069Z</time>
      </trkpt>
      <trkpt lat="45.468520000000005" lon="9.175595">
        <ele>134.52704949451004</ele>
        <time>2024-09-12T16:31:53.098Z</time>
      </trkpt>
      <trkpt lat="45.468383333333335" lon="9.176203333333332">
        <ele>133.6246518617412</ele>
        <time>2024-09-12T16:32:34.088Z</time>
      </trkpt>
      <trkpt lat="45.468048333333336" lon="9.176636666666667">
        <ele>134.42260551497495</ele>
        <time>2024-09-12T16:33:21.091Z</time>
      </trkpt>
      <trkpt lat="45.46769333333334" lon="9.176731666666665">
        <ele>128.82180565597892</ele>
        <time>2024-09-12T16:34:37.065Z</time>
      </trkpt>
      <trkpt lat="45.467643333333335" lon="9.176521666666668">
        <ele>122.32249559164558</ele>
        <time>2024-09-12T16:35:02.082Z</time>
      </trkpt>
      <trkpt lat="45.467741666666676" lon="9.176913333333333">
        <ele>125.32121499431136</ele>
        <time>2024-09-12T16:36:22.086Z</time>
      </trkpt>
      <trkpt lat="45.467416666666665" lon="9.17747">
        <ele>124.8187782823328</ele>
        <time>2024-09-12T16:37:04.112Z</time>
      </trkpt>
      <trkpt lat="45.466513333333324" lon="9.176881666666667">
        <ele>144.11981446963387</ele>
        <time>2024-09-12T16:38:49.073Z</time>
      </trkpt>
      <trkpt lat="45.46613166666666" lon="9.177063333333333">
        <ele>147.11874244121285</ele>
        <time>2024-09-12T16:39:28.104Z</time>
      </trkpt>
      <trkpt lat="45.46601166666666" lon="9.17745">
        <ele>129.81708845810195</ele>
        <time>2024-09-12T16:40:13.096Z</time>
      </trkpt>
      <trkpt lat="45.465865" lon="9.177458333333334">
        <ele>131.81692109947073</ele>
        <time>2024-09-12T16:40:38.109Z</time>
      </trkpt>
      <trkpt lat="45.46584500000001" lon="9.178266666666667">
        <ele>132.31381072006474</ele>
        <time>2024-09-12T16:41:39.049Z</time>
      </trkpt>
      <trkpt lat="45.46568166666666" lon="9.178221666666667">
        <ele>143.51380724086715</ele>
        <time>2024-09-12T16:42:09.058Z</time>
      </trkpt>
      <trkpt lat="45.465783333333334" lon="9.178331666666667">
        <ele>138.51357012578822</ele>
        <time>2024-09-12T16:42:24.107Z</time>
      </trkpt>
      <trkpt lat="45.46565666666667" lon="9.178754999999999">
        <ele>124.91182616374451</ele>
        <time>2024-09-12T16:42:52.101Z</time>
      </trkpt>
      <trkpt lat="45.46561499999999" lon="9.180438333333333">
        <ele>143.70547465852593</ele>
        <time>2024-09-12T16:44:38.101Z</time>
      </trkpt>
      <trkpt lat="45.46522" lon="9.180366666666666">
        <ele>127.50518527305596</ele>
        <time>2024-09-12T16:45:14.115Z</time>
      </trkpt>
      <trkpt lat="45.46513166666667" lon="9.180655">
        <ele>145.80418049824732</ele>
        <time>2024-09-12T16:46:05.062Z</time>
      </trkpt>
      <trkpt lat="45.464905" lon="9.180453333333332">
        <ele>141.90450766170227</ele>
        <time>2024-09-12T16:46:49.088Z</time>
      </trkpt>
      <trkpt lat="45.46490166666668" lon="9.180905">
        <ele>135.7028523091031</ele>
        <time>2024-09-12T16:47:21.071Z</time>
      </trkpt>
      <trkpt lat="45.464635" lon="9.181221666666666">
        <ele>141.7012775228656</ele>
        <time>2024-09-12T16:48:30.075Z</time>
      </trkpt>
      <trkpt lat="45.46470166666666" lon="9.181883333333333">
        <ele>152.9988549437531</ele>
        <time>2024-09-12T16:49:32.068Z</time>
      </trkpt>
      <trkpt lat="45.46459333333334" lon="9.181931666666665">
        <ele>146.29852793491742</ele>
        <time>2024-09-12T16:50:14.072Z</time>
      </trkpt>
      <trkpt lat="45.46481000000001" lon="9.181941666666667">
        <ele>137.99876760866596</ele>
        <time>2024-09-12T16:51:04.073Z</time>
      </trkpt>
      <trkpt lat="45.464303333333326" lon="9.182865">
        <ele>126.49468642467906</ele>
        <time>2024-09-12T16:52:30.062Z</time>
      </trkpt>
      <trkpt lat="45.46467333333333" lon="9.183034999999999">
        <ele>132.39439514684332</ele>
        <time>2024-09-12T16:53:58.062Z</time>
      </trkpt>
      <trkpt lat="45.464705" lon="9.183505">
        <ele>145.09264974086202</ele>
        <time>2024-09-12T16:55:03.104Z</time>
      </trkpt>
      <trkpt lat="45.46439999999999" lon="9.183685">
        <ele>144.89171128766517</ele>
        <time>2024-09-12T16:55:33.095Z</time>
      </trkpt>
      <trkpt lat="45.464646666666674" lon="9.185111666666668">
        <ele>124.58661854383865</ele>
        <time>2024-09-12T16:57:12.101Z</time>
      </trkpt>
      <trkpt lat="45.464821666666666" lon="9.18529">
        <ele>118.48607521759345</ele>
        <time>2024-09-12T16:57:35.055Z</time>
      </trkpt>
      <trkpt lat="45.464686666666665" lon="9.185319999999999">
        <ele>121.78579885938838</ele>
        <time>2024-09-12T16:58:02.059Z</time>
      </trkpt>
      <trkpt lat="45.46457" lon="9.184913333333332">
        <ele>142.3871655061891</ele>
        <time>2024-09-12T16:59:01.076Z</time>
      </trkpt>
      <trkpt lat="45.46428666666667" lon="9.1848">
        <ele>140.48730611106512</ele>
        <time>2024-09-12T16:59:26.072Z</time>
      </trkpt>
      <trkpt lat="45.46401000000001" lon="9.184958333333332">
        <ele>141.0863554932122</ele>
        <time>2024-09-12T16:59:47.078Z</time>
      </trkpt>
      <trkpt lat="45.46370333333333" lon="9.185486666666666">
        <ele>134.9839898292887</ele>
        <time>2024-09-12T17:00:40.098Z</time>
      </trkpt>
      <trkpt lat="45.463925" lon="9.185554999999999">
        <ele>129.2839989012835</ele>
        <time>2024-09-12T17:01:00.101Z</time>
      </trkpt>
      <trkpt lat="45.463776666666675" lon="9.185991666666666">
        <ele>130.28219997748954</ele>
        <time>2024-09-12T17:01:23.107Z</time>
      </trkpt>
      <trkpt lat="45.463805" lon="9.186336666666667">
        <ele>127.38089578774503</ele>
        <time>2024-09-12T17:01:58.094Z</time>
      </trkpt>
      <trkpt lat="45.464033333333326" lon="9.186470000000002">
        <ele>134.7806743502422</ele>
        <time>2024-09-12T17:02:19.081Z</time>
      </trkpt>
      <trkpt lat="45.463898333333326" lon="9.18666">
        <ele>131.97973704635564</ele>
        <time>2024-09-12T17:03:21.096Z</time>
      </trkpt>
      <trkpt lat="45.46401000000001" lon="9.186558333333332">
        <ele>127.28025106885066</ele>
        <time>2024-09-12T17:04:45.055Z</time>
      </trkpt>
      <trkpt lat="45.46451833333334" lon="9.187116666666666">
        <ele>139.67875888658358</ele>
        <time>2024-09-12T17:05:54.085Z</time>
      </trkpt>
      <trkpt lat="45.463853333333326" lon="9.187990000000001">
        <ele>120.07457565557826</ele>
        <time>2024-09-12T17:07:55.091Z</time>
      </trkpt>
      <trkpt lat="45.463805" lon="9.188291666666666">
        <ele>126.77338898253497</ele>
        <time>2024-09-12T17:08:28.105Z</time>
      </trkpt>
      <trkpt lat="45.464345" lon="9.188743333333333">
        <ele>126.17230511712427</ele>
        <time>2024-09-12T17:10:55.059Z</time>
      </trkpt>
      <trkpt lat="45.46474166666667" lon="9.188751666666667">
        <ele>136.77278284117097</ele>
        <time>2024-09-12T17:11:50.065Z</time>
      </trkpt>
      <trkpt lat="45.46463833333334" lon="9.190401666666666">
        <ele>130.06633979383201</ele>
        <time>2024-09-12T17:14:16.094Z</time>
      </trkpt>
      <trkpt lat="45.46471833333333" lon="9.192115">
        <ele>103.25981849135398</ele>
        <time>2024-09-12T17:16:18.088Z</time>
      </trkpt>
      <trkpt lat="45.464533333333335" lon="9.192796666666668">
        <ele>135.95693214458532</ele>
        <time>2024-09-12T17:17:07.062Z</time>
      </trkpt>
      <trkpt lat="45.46475" lon="9.193006666666667">
        <ele>143.95638956094484</ele>
        <time>2024-09-12T17:18:23.069Z</time>
      </trkpt>
      <trkpt lat="45.464864999999996" lon="9.193436666666665">
        <ele>145.85483761396767</ele>
        <time>2024-09-12T17:18:48.095Z</time>
      </trkpt>
      <trkpt lat="45.464785" lon="9.19348">
        <ele>145.25457233075798</ele>
        <time>2024-09-12T17:18:56.085Z</time>
      </trkpt>
      <trkpt lat="45.464905" lon="9.193466666666666">
        <ele>141.75470083049163</ele>
        <time>2024-09-12T17:19:18.082Z</time>
      </trkpt>
      <trkpt lat="45.464451666666676" lon="9.1935">
        <ele>143.05408309673948</ele>
        <time>2024-09-12T17:48:11.062Z</time>
      </trkpt>
      <trkpt lat="45.46492" lon="9.193413333333332">
        <ele>133.45500421964007</ele>
        <time>2024-09-12T18:17:59.073Z</time>
      </trkpt>
      <trkpt lat="45.46592117123191" lon="9.191980300257711">
        <ele>140.1291526481288</ele>
        <time>2024-09-12T18:20:07.729Z</time>
      </trkpt>
      <trkpt lat="45.466780777037116" lon="9.193005224795911">
        <ele>136.7198443202824</ele>
        <time>2024-09-12T18:21:44.878Z</time>
      </trkpt>
      <trkpt lat="45.46820483856652" lon="9.195300901481005">
        <ele>131.34474777533998</ele>
        <time>2024-09-12T18:24:51.355Z</time>
      </trkpt>
      <trkpt lat="45.469032944438425" lon="9.194340504656992">
        <ele>131.27163292486318</ele>
        <time>2024-09-12T18:26:23.899Z</time>
      </trkpt>
      <trkpt lat="45.470379970664595" lon="9.196623415138731">
        <ele>129.35626188337744</ele>
        <time>2024-09-12T18:29:25.296Z</time>
      </trkpt>
      <trkpt lat="45.471313333333335" lon="9.195693333333333">
        <ele>118.55373054927738</ele>
        <time>2024-09-12T18:37:11.056Z</time>
      </trkpt>
      <trkpt lat="45.47143500000001" lon="9.195403333333333">
        <ele>114.85498783876982</ele>
        <time>2024-09-12T18:37:34.086Z</time>
      </trkpt>
      <trkpt lat="45.47191333333333" lon="9.195071666666667">
        <ele>114.35687797408788</ele>
        <time>2024-09-12T18:38:24.095Z</time>
      </trkpt>
      <trkpt lat="45.47199333333333" lon="9.194791666666667">
        <ele>125.55803146158173</ele>
        <time>2024-09-12T18:39:06.081Z</time>
      </trkpt>
      <trkpt lat="45.472115" lon="9.195093333333334">
        <ele>133.25712979015657</ele>
        <time>2024-09-12T18:39:33.069Z</time>
      </trkpt>
      <trkpt lat="45.47235833333334" lon="9.195215">
        <ele>135.35690117657157</ele>
        <time>2024-09-12T18:40:00.061Z</time>
      </trkpt>
      <trkpt lat="45.47246499999999" lon="9.195623333333334">
        <ele>124.75546256467722</ele>
        <time>2024-09-12T18:40:33.062Z</time>
      </trkpt>
      <trkpt lat="45.47329333333334" lon="9.195885">
        <ele>139.65537076976545</ele>
        <time>2024-09-12T18:41:47.063Z</time>
      </trkpt>
      <trkpt lat="45.47349333333333" lon="9.196438333333333">
        <ele>120.65346257683561</ele>
        <time>2024-09-12T18:42:52.065Z</time>
      </trkpt>
      <trkpt lat="45.47403333333333" lon="9.197135">
        <ele>117.35141143224016</ele>
        <time>2024-09-12T18:43:57.079Z</time>
      </trkpt>
      <trkpt lat="45.474515000000004" lon="9.197046666666667">
        <ele>118.95228336655697</ele>
        <time>2024-09-12T18:44:55.062Z</time>
      </trkpt>
      <trkpt lat="45.475145000000005" lon="9.197451666666666">
        <ele>123.35145099029319</ele>
        <time>2024-09-12T18:46:02.108Z</time>
      </trkpt>
      <trkpt lat="45.475458333333336" lon="9.197063333333334">
        <ele>130.6533037052049</ele>
        <time>2024-09-12T18:46:44.078Z</time>
      </trkpt>
      <trkpt lat="45.47573666666667" lon="9.197073333333332">
        <ele>131.85362061094065</ele>
        <time>2024-09-12T18:47:12.108Z</time>
      </trkpt>
      <trkpt lat="45.47645000000001" lon="9.197668333333333">
        <ele>135.3521366611293</ele>
        <time>2024-09-12T18:48:19.078Z</time>
      </trkpt>
      <trkpt lat="45.47712166666667" lon="9.197015">
        <ele>120.45542945463988</ele>
        <time>2024-09-12T18:49:26.086Z</time>
      </trkpt>
      <trkpt lat="45.477154999999996" lon="9.196663333333333">
        <ele>120.85689398557648</ele>
        <time>2024-09-12T18:49:59.092Z</time>
      </trkpt>
      <trkpt lat="45.47772333333334" lon="9.197238333333333">
        <ele>113.95533527275003</ele>
        <time>2024-09-12T18:51:08.055Z</time>
      </trkpt>
      <trkpt lat="45.47748166666667" lon="9.197835">
        <ele>125.15272326501025</ele>
        <time>2024-09-12T18:52:01.062Z</time>
      </trkpt>
      <trkpt lat="45.47763833333333" lon="9.198058333333334">
        <ele>129.6520807127666</ele>
        <time>2024-09-12T18:53:06.107Z</time>
      </trkpt>
      <trkpt lat="45.47827" lon="9.198183333333333">
        <ele>122.95228788325839</ele>
        <time>2024-09-12T18:54:25.075Z</time>
      </trkpt>
      <trkpt lat="45.47851166666666" lon="9.198568333333332">
        <ele>125.95109055813256</ele>
        <time>2024-09-12T18:55:16.085Z</time>
      </trkpt>
      <trkpt lat="45.478906666666674" lon="9.198791666666667">
        <ele>125.55065376927561</ele>
        <time>2024-09-12T18:56:19.072Z</time>
      </trkpt>
      <trkpt lat="45.479125" lon="9.198726666666666">
        <ele>126.55118125693421</ele>
        <time>2024-09-12T18:56:41.084Z</time>
      </trkpt>
      <trkpt lat="45.479135" lon="9.198485">
        <ele>127.65210152607946</ele>
        <time>2024-09-12T18:56:59.089Z</time>
      </trkpt>
      <trkpt lat="45.47868833333334" lon="9.198360000000001">
        <ele>132.75207804402274</ele>
        <time>2024-09-12T18:57:41.102Z</time>
      </trkpt>
      <trkpt lat="45.47844833333333" lon="9.197463333333333">
        <ele>122.95520697489545</ele>
        <time>2024-09-12T18:58:41.105Z</time>
      </trkpt>
      <trkpt lat="45.47882833333333" lon="9.196761666666667">
        <ele>115.55843224904902</ele>
        <time>2024-09-12T18:59:03.068Z</time>
      </trkpt>
      <trkpt lat="45.47907166666667" lon="9.195733333333333">
        <ele>121.46271485403716</ele>
        <time>2024-09-12T19:00:16.085Z</time>
      </trkpt>
      <trkpt lat="45.479523333333326" lon="9.195091666666666">
        <ele>115.86575490760009</ele>
        <time>2024-09-12T19:01:15.091Z</time>
      </trkpt>
      <trkpt lat="45.48000166666667" lon="9.19392">
        <ele>121.47088764196748</ele>
        <time>2024-09-12T19:02:30.105Z</time>
      </trkpt>
      <trkpt lat="45.480046666666674" lon="9.193505">
        <ele>124.97249982015902</ele>
        <time>2024-09-12T19:02:48.099Z</time>
      </trkpt>
      <trkpt lat="45.48052833333333" lon="9.192876666666667">
        <ele>119.27550682497483</ele>
        <time>2024-09-12T19:03:45.096Z</time>
      </trkpt>
      <trkpt lat="45.480446666666666" lon="9.19251">
        <ele>123.77687162414942</ele>
        <time>2024-09-12T19:04:20.086Z</time>
      </trkpt>
      <trkpt lat="45.480291666666666" lon="9.192393333333333">
        <ele>126.77716735574067</ele>
        <time>2024-09-12T19:04:47.055Z</time>
      </trkpt>
      <trkpt lat="45.480401666666666" lon="9.192113333333333">
        <ele>125.27836134583703</ele>
        <time>2024-09-12T19:05:25.065Z</time>
      </trkpt>
      <trkpt lat="45.48040833333333" lon="9.192874999999999">
        <ele>133.77544417903567</ele>
        <time>2024-09-12T19:07:31.069Z</time>
      </trkpt>
      <trkpt lat="45.48040833333333" lon="9.192720000000001">
        <ele>140.77601360389366</ele>
        <time>2024-09-12T19:08:54.085Z</time>
      </trkpt>
      <trkpt lat="45.48065166666667" lon="9.192945">
        <ele>138.3754632846408</ele>
        <time>2024-09-12T19:09:19.101Z</time>
      </trkpt>
      <trkpt lat="45.48152166666667" lon="9.193173333333334">
        <ele>140.37558594688093</ele>
        <time>2024-09-12T19:10:25.059Z</time>
      </trkpt>
      <trkpt lat="45.48184500000001" lon="9.192910000000001">
        <ele>149.87690062594865</ele>
        <time>2024-09-12T19:10:42.061Z</time>
      </trkpt>
      <trkpt lat="45.481880000000004" lon="9.192173333333333">
        <ele>132.37987478600698</ele>
        <time>2024-09-12T19:11:36.079Z</time>
      </trkpt>
      <trkpt lat="45.48205500000001" lon="9.192315">
        <ele>128.67953228768152</ele>
        <time>2024-09-12T19:12:03.084Z</time>
      </trkpt>
      <trkpt lat="45.482165" lon="9.192091666666666">
        <ele>124.88047376964408</ele>
        <time>2024-09-12T19:12:41.088Z</time>
      </trkpt>
      <trkpt lat="45.482456666666664" lon="9.192105">
        <ele>126.48080807132642</ele>
        <time>2024-09-12T19:13:23.085Z</time>
      </trkpt>
      <trkpt lat="45.48308999999999" lon="9.19308">
        <ele>125.47782779640411</ele>
        <time>2024-09-12T19:14:48.071Z</time>
      </trkpt>
      <trkpt lat="45.483421666666665" lon="9.193383333333333">
        <ele>123.47704603852097</ele>
        <time>2024-09-12T19:15:35.081Z</time>
      </trkpt>
      <trkpt lat="45.48382" lon="9.193425">
        <ele>123.57730387899048</ele>
        <time>2024-09-12T19:16:47.075Z</time>
      </trkpt>
      <trkpt lat="45.48344999999999" lon="9.19258">
        <ele>127.48010583772759</ele>
        <time>2024-09-12T19:18:07.111Z</time>
      </trkpt>
      <trkpt lat="45.483884999999994" lon="9.191788333333333">
        <ele>128.9836776547804</ele>
        <time>2024-09-12T19:19:26.099Z</time>
      </trkpt>
      <trkpt lat="45.483884999999994" lon="9.191550000000001">
        <ele>131.384624305149</ele>
        <time>2024-09-12T19:19:41.098Z</time>
      </trkpt>
      <trkpt lat="45.484199999999994" lon="9.19128">
        <ele>127.68596624488328</ele>
        <time>2024-09-12T19:20:21.073Z</time>
      </trkpt>
      <trkpt lat="45.48448166666667" lon="9.190204999999999">
        <ele>129.29046632021792</ele>
        <time>2024-09-12T19:21:41.055Z</time>
      </trkpt>
      <trkpt lat="45.484645" lon="9.190016666666667">
        <ele>126.89138837032253</ele>
        <time>2024-09-12T19:21:58.101Z</time>
      </trkpt>
      <trkpt lat="45.484638333333336" lon="9.189486666666665">
        <ele>133.49346234244683</ele>
        <time>2024-09-12T19:22:32.059Z</time>
      </trkpt>
      <trkpt lat="45.48476000000001" lon="9.19004">
        <ele>124.29152159705896</ele>
        <time>2024-09-12T19:23:09.068Z</time>
      </trkpt>
      <trkpt lat="45.48531500000001" lon="9.190371666666666">
        <ele>129.39085921781032</ele>
        <time>2024-09-12T19:24:06.095Z</time>
      </trkpt>
      <trkpt lat="45.48553833333334" lon="9.190266666666668">
        <ele>135.39150005570224</ele>
        <time>2024-09-12T19:25:26.053Z</time>
      </trkpt>
      <trkpt lat="45.48558500000001" lon="9.189879999999999">
        <ele>141.2930566072021</ele>
        <time>2024-09-12T19:27:32.075Z</time>
      </trkpt>
      <trkpt lat="45.48581166666666" lon="9.190245">
        <ele>168.69195082633894</ele>
        <time>2024-09-12T19:28:55.072Z</time>
      </trkpt>
      <trkpt lat="45.485981666666675" lon="9.18984">
        <ele>163.69362619155476</ele>
        <time>2024-09-12T19:29:43.098Z</time>
      </trkpt>
      <trkpt lat="45.48616333333333" lon="9.190008333333333">
        <ele>163.19325178667907</ele>
        <time>2024-09-12T19:29:58.049Z</time>
      </trkpt>
      <trkpt lat="45.486441666666664" lon="9.189815000000001">
        <ele>166.59432413303378</ele>
        <time>2024-09-12T19:30:33.091Z</time>
      </trkpt>
      <trkpt lat="45.48652833333334" lon="9.190589999999998">
        <ele>133.09149438018667</ele>
        <time>2024-09-12T19:31:28.085Z</time>
      </trkpt>
      <trkpt lat="45.486700000000006" lon="9.190761666666667">
        <ele>130.6910511488616</ele>
        <time>2024-09-12T19:31:40.092Z</time>
      </trkpt>
      <trkpt lat="45.48676666666667" lon="9.191331666666667">
        <ele>134.9889159795955</ele>
        <time>2024-09-12T19:32:07.092Z</time>
      </trkpt>
      <trkpt lat="45.48699333333334" lon="9.191645">
        <ele>134.68794162834573</ele>
        <time>2024-09-12T19:32:46.095Z</time>
      </trkpt>
      <trkpt lat="45.487296666666666" lon="9.191523333333333">
        <ele>136.58870707442566</ele>
        <time>2024-09-12T19:33:15.086Z</time>
      </trkpt>
      <trkpt lat="45.48748833333334" lon="9.191201666666666">
        <ele>136.39019378505543</ele>
        <time>2024-09-12T19:33:34.094Z</time>
      </trkpt>
      <trkpt lat="45.48803833333333" lon="9.191345">
        <ele>155.4903013738337</ele>
        <time>2024-09-12T19:34:19.084Z</time>
      </trkpt>
      <trkpt lat="45.48817666666667" lon="9.191201666666666">
        <ele>157.39102022564586</ele>
        <time>2024-09-12T19:34:35.085Z</time>
      </trkpt>
      <trkpt lat="45.48823833333333" lon="9.191355">
        <ele>154.29049279619</ele>
        <time>2024-09-12T19:34:48.085Z</time>
      </trkpt>
      <trkpt lat="45.48819" lon="9.191215">
        <ele>148.69097575526538</ele>
        <time>2024-09-12T19:35:07.081Z</time>
      </trkpt>
      <trkpt lat="45.48878500000001" lon="9.191036666666667">
        <ele>132.8923694280957</ele>
        <time>2024-09-12T19:36:37.095Z</time>
      </trkpt>
      <trkpt lat="45.48904833333333" lon="9.189879999999999">
        <ele>128.09706160224712</ele>
        <time>2024-09-12T19:37:44.078Z</time>
      </trkpt>
      <trkpt lat="45.48889666666667" lon="9.189323333333334">
        <ele>115.49904853779456</ele>
        <time>2024-09-12T19:38:22.085Z</time>
      </trkpt>
      <trkpt lat="45.48907666666667" lon="9.188813333333334">
        <ele>115.90121638182</ele>
        <time>2024-09-12T19:39:01.066Z</time>
      </trkpt>
      <trkpt lat="45.48886833333333" lon="9.188275">
        <ele>109.40303122433754</ele>
        <time>2024-09-12T19:39:33.101Z</time>
      </trkpt>
      <trkpt lat="45.48911833333333" lon="9.187366666666666">
        <ele>113.3068347219189</ele>
        <time>2024-09-12T19:40:24.088Z</time>
      </trkpt>
      <trkpt lat="45.489034999999994" lon="9.186178333333334">
        <ele>100.61125696997004</ele>
        <time>2024-09-12T19:41:35.104Z</time>
      </trkpt>
      <trkpt lat="45.489195" lon="9.186100000000001">
        <ele>116.71178013611495</ele>
        <time>2024-09-12T19:41:52.082Z</time>
      </trkpt>
      <trkpt lat="45.489111666666666" lon="9.186471666666668">
        <ele>129.41033889056223</ele>
        <time>2024-09-12T19:42:13.088Z</time>
      </trkpt>
      <trkpt lat="45.48921166666667" lon="9.186641666666667">
        <ele>131.60980838824707</ele>
        <time>2024-09-12T19:42:32.086Z</time>
      </trkpt>
      <trkpt lat="45.488998333333335" lon="9.186588333333333">
        <ele>129.2097262364129</ele>
        <time>2024-09-12T19:43:40.095Z</time>
      </trkpt>
      <trkpt lat="45.48909666666667" lon="9.186465">
        <ele>133.01025425325224</ele>
        <time>2024-09-12T19:44:09.086Z</time>
      </trkpt>
      <trkpt lat="45.489021666666666" lon="9.186595">
        <ele>132.80982463203324</ele>
        <time>2024-09-12T19:44:21.095Z</time>
      </trkpt>
      <trkpt lat="45.48892000000001" lon="9.186473333333334">
        <ele>135.71003955260448</ele>
        <time>2024-09-12T19:44:51.094Z</time>
      </trkpt>
      <trkpt lat="45.48916166666666" lon="9.186601666666666">
        <ele>130.30987520399447</ele>
        <time>2024-09-12T19:45:26.088Z</time>
      </trkpt>
      <trkpt lat="45.48885666666667" lon="9.18655">
        <ele>130.50971386437988</ele>
        <time>2024-09-12T19:47:07.094Z</time>
      </trkpt>
      <trkpt lat="45.489270000000005" lon="9.18666">
        <ele>129.2097390991709</ele>
        <time>2024-09-12T19:53:11.092Z</time>
      </trkpt>
      <trkpt lat="45.489293333333336" lon="9.187095">
        <ele>138.70817731075553</ele>
        <time>2024-09-12T19:55:06.085Z</time>
      </trkpt>
      <trkpt lat="45.48911666666666" lon="9.187606666666666">
        <ele>139.00594960649946</ele>
        <time>2024-09-12T19:55:48.081Z</time>
      </trkpt>
      <trkpt lat="45.48831833333334" lon="9.187298333333333">
        <ele>141.60618421564732</ele>
        <time>2024-09-12T19:56:54.085Z</time>
      </trkpt>
      <trkpt lat="45.48767666666666" lon="9.187363333333334">
        <ele>139.60518228582626</ele>
        <time>2024-09-12T19:57:59.088Z</time>
      </trkpt>
      <trkpt lat="45.48744666666666" lon="9.187068333333334">
        <ele>139.90603521974242</ele>
        <time>2024-09-12T19:58:21.068Z</time>
      </trkpt>
      <trkpt lat="45.48717499999999" lon="9.187151666666667">
        <ele>140.00542629610385</ele>
        <time>2024-09-12T19:58:56.069Z</time>
      </trkpt>
      <trkpt lat="45.486668333333334" lon="9.186973333333333">
        <ele>133.1055093895954</ele>
        <time>2024-09-12T19:59:41.107Z</time>
      </trkpt>
      <trkpt lat="45.48660499999999" lon="9.186755">
        <ele>133.2062360009948</ele>
        <time>2024-09-12T20:00:08.098Z</time>
      </trkpt>
      <trkpt lat="45.48614666666667" lon="9.18694">
        <ele>126.6050140628787</ele>
        <time>2024-09-12T20:00:45.118Z</time>
      </trkpt>
      <trkpt lat="45.48593833333333" lon="9.186836666666666">
        <ele>130.60514714210152</ele>
        <time>2024-09-12T20:01:26.075Z</time>
      </trkpt>
      <trkpt lat="45.486034999999994" lon="9.186771666666667">
        <ele>129.10531424133657</ele>
        <time>2024-09-12T20:01:52.088Z</time>
      </trkpt>
      <trkpt lat="45.48595333333333" lon="9.186694999999999">
        <ele>127.40571466757483</ele>
        <time>2024-09-12T20:02:08.084Z</time>
      </trkpt>
      <trkpt lat="45.484428333333334" lon="9.187441666666667">
        <ele>126.90557156704298</ele>
        <time>2024-09-12T20:05:01.058Z</time>
      </trkpt>
      <trkpt lat="45.484915" lon="9.187436666666667">
        <ele>111.70168793634392</ele>
        <time>2024-09-12T20:06:28.076Z</time>
      </trkpt>
      <trkpt lat="45.484876666666665" lon="9.185316666666667">
        <ele>135.60958288182098</ele>
        <time>2024-09-12T20:15:40.088Z</time>
      </trkpt>
      <trkpt lat="45.484905" lon="9.187206666666667">
        <ele>203.70297261918356</ele>
        <time>2024-09-12T20:15:49.101Z</time>
      </trkpt>
      <trkpt lat="45.48431666666667" lon="9.187759999999999">
        <ele>108.9998267158552</ele>
        <time>2024-09-12T20:16:37.101Z</time>
      </trkpt>
      <trkpt lat="45.48392166666666" lon="9.18759">
        <ele>117.19990778928658</ele>
        <time>2024-09-12T20:17:07.098Z</time>
      </trkpt>
      <trkpt lat="45.48370666666666" lon="9.187786666666666">
        <ele>128.79892333807337</ele>
        <time>2024-09-12T20:17:42.099Z</time>
      </trkpt>
      <trkpt lat="45.48391166666667" lon="9.188116666666668">
        <ele>125.99793926234688</ele>
        <time>2024-09-12T20:18:10.101Z</time>
      </trkpt>
      <trkpt lat="45.483665" lon="9.188451666666667">
        <ele>126.99635160330466</ele>
        <time>2024-09-12T20:18:38.107Z</time>
      </trkpt>
      <trkpt lat="45.483828333333335" lon="9.188796666666667">
        <ele>123.99521905586738</ele>
        <time>2024-09-12T20:19:20.109Z</time>
      </trkpt>
      <trkpt lat="45.48379166666667" lon="9.189528333333334">
        <ele>143.29235825244632</ele>
        <time>2024-09-12T20:20:16.112Z</time>
      </trkpt>
      <trkpt lat="45.483415" lon="9.189753333333334">
        <ele>154.59101575659776</ele>
        <time>2024-09-12T20:20:52.095Z</time>
      </trkpt>
      <trkpt lat="45.48359833333334" lon="9.190591666666668">
        <ele>140.08803717539803</ele>
        <time>2024-09-12T20:21:43.058Z</time>
      </trkpt>
      <trkpt lat="45.48385833333334" lon="9.190439999999999">
        <ele>138.68887300509738</ele>
        <time>2024-09-12T20:22:15.066Z</time>
      </trkpt>
      <trkpt lat="45.48409166666667" lon="9.190565">
        <ele>136.78869382830112</ele>
        <time>2024-09-12T20:22:35.102Z</time>
      </trkpt>
      <trkpt lat="45.485549999999996" lon="9.19043">
        <ele>135.4909023886509</ele>
        <time>2024-09-12T20:24:34.111Z</time>
      </trkpt>
      <trkpt lat="45.485504999999996" lon="9.190298333333335">
        <ele>135.69136752049386</ele>
        <time>2024-09-12T20:24:46.082Z</time>
      </trkpt>
      <trkpt lat="45.48563833333333" lon="9.19042">
        <ele>133.89105052111205</ele>
        <time>2024-09-12T20:25:10.078Z</time>
      </trkpt>
      <trkpt lat="45.485618333333335" lon="9.190153333333335">
        <ele>132.59202568333797</ele>
        <time>2024-09-12T20:25:29.078Z</time>
      </trkpt>
      <trkpt lat="45.48589333333333" lon="9.190086666666668">
        <ele>131.29262551626215</ele>
        <time>2024-09-12T20:25:47.075Z</time>
      </trkpt>
      <trkpt lat="45.48599333333333" lon="9.190241666666667">
        <ele>130.7921661496644</ele>
        <time>2024-09-12T20:26:07.095Z</time>
      </trkpt>
      <trkpt lat="45.486079999999994" lon="9.189828333333333">
        <ele>136.5937924212185</ele>
        <time>2024-09-12T20:26:46.111Z</time>
      </trkpt>
      <trkpt lat="45.486383333333336" lon="9.189678333333335">
        <ele>140.694793015155</ele>
        <time>2024-09-12T20:27:05.098Z</time>
      </trkpt>
      <trkpt lat="45.48652833333334" lon="9.189801666666666">
        <ele>146.3944036335149</ele>
        <time>2024-09-12T20:27:25.098Z</time>
      </trkpt>
      <trkpt lat="45.486418333333326" lon="9.189783333333333">
        <ele>148.39448488371863</ele>
        <time>2024-09-12T20:27:34.065Z</time>
      </trkpt>
      <trkpt lat="45.486385000000006" lon="9.190093333333333">
        <ele>144.29324117458594</ele>
        <time>2024-09-12T20:27:52.101Z</time>
      </trkpt>
      <trkpt lat="45.48657166666667" lon="9.190483333333333">
        <ele>136.4919609776806</ele>
        <time>2024-09-12T20:28:20.104Z</time>
      </trkpt>
      <trkpt lat="45.48672499999999" lon="9.191526666666666">
        <ele>139.58811355613798</ele>
        <time>2024-09-12T20:29:17.085Z</time>
      </trkpt>
      <trkpt lat="45.487118333333335" lon="9.191699999999999">
        <ele>152.18786454423733</ele>
        <time>2024-09-12T20:29:53.094Z</time>
      </trkpt>
      <trkpt lat="45.487215" lon="9.191658333333333">
        <ele>153.18815216415155</ele>
        <time>2024-09-12T20:30:22.101Z</time>
      </trkpt>
      <trkpt lat="45.48706833333334" lon="9.19149">
        <ele>198.388426325117</ele>
        <time>2024-09-12T20:35:35.094Z</time>
      </trkpt>
      <trkpt lat="45.48735833333333" lon="9.191571666666666">
        <ele>193.4886326366136</ele>
        <time>2024-09-12T20:35:48.091Z</time>
      </trkpt>
      <trkpt lat="45.48758833333333" lon="9.191263333333334">
        <ele>162.09006489965154</ele>
        <time>2024-09-12T20:36:10.078Z</time>
      </trkpt>
      <trkpt lat="45.48793833333334" lon="9.191333333333334">
        <ele>154.99020845198046</ele>
        <time>2024-09-12T20:36:51.108Z</time>
      </trkpt>
      <trkpt lat="45.488295" lon="9.191166666666668">
        <ele>151.69129976619064</ele>
        <time>2024-09-12T20:37:26.102Z</time>
      </trkpt>
      <trkpt lat="45.48825" lon="9.191878333333333">
        <ele>133.8885842230759</ele>
        <time>2024-09-12T20:38:18.062Z</time>
      </trkpt>
      <trkpt lat="45.48842" lon="9.19308">
        <ele>129.78412892433556</ele>
        <time>2024-09-12T20:39:35.072Z</time>
      </trkpt>
      <trkpt lat="45.48906333333333" lon="9.193253333333333">
        <ele>140.18414449236255</ele>
        <time>2024-09-12T20:40:31.078Z</time>
      </trkpt>
      <trkpt lat="45.488348333333334" lon="9.19464">
        <ele>126.67799109823679</ele>
        <time>2024-09-12T20:42:16.089Z</time>
      </trkpt>
      <trkpt lat="45.48834166666667" lon="9.195211666666667">
        <ele>128.17574458890715</ele>
        <time>2024-09-12T20:42:47.076Z</time>
      </trkpt>
      <trkpt lat="45.48800500000001" lon="9.195870000000001">
        <ele>137.37280786677127</ele>
        <time>2024-09-12T20:44:06.068Z</time>
      </trkpt>
      <trkpt lat="45.48800500000001" lon="9.196135">
        <ele>133.77173847591686</ele>
        <time>2024-09-12T20:44:35.063Z</time>
      </trkpt>
      <trkpt lat="45.48753" lon="9.196901666666667">
        <ele>127.36821322980815</ele>
        <time>2024-09-12T20:45:46.078Z</time>
      </trkpt>
      <trkpt lat="45.487575" lon="9.197183333333333">
        <ele>128.66720035820697</ele>
        <time>2024-09-12T20:46:02.082Z</time>
      </trkpt>
      <trkpt lat="45.487204999999996" lon="9.197143333333335">
        <ele>131.16686588463722</ele>
        <time>2024-09-12T20:46:17.091Z</time>
      </trkpt>
      <trkpt lat="45.487095" lon="9.19729">
        <ele>131.96620603171655</ele>
        <time>2024-09-12T20:46:27.062Z</time>
      </trkpt>
      <trkpt lat="45.48703333333333" lon="9.197781666666666">
        <ele>130.2642316542168</ele>
        <time>2024-09-12T20:46:57.073Z</time>
      </trkpt>
      <trkpt lat="45.48727166666666" lon="9.198088333333335">
        <ele>126.56345130952963</ele>
        <time>2024-09-12T20:48:06.079Z</time>
      </trkpt>
      <trkpt lat="45.48697666666667" lon="9.198325">
        <ele>123.46206800032223</ele>
        <time>2024-09-12T20:48:29.071Z</time>
      </trkpt>
      <trkpt lat="45.48676833333334" lon="9.198826666666667">
        <ele>139.3597840153403</ele>
        <time>2024-09-12T20:48:57.063Z</time>
      </trkpt>
      <trkpt lat="45.486466666666665" lon="9.199016666666667">
        <ele>148.45866985938846</ele>
        <time>2024-09-12T20:49:38.061Z</time>
      </trkpt>
      <trkpt lat="45.48628999999999" lon="9.199876666666666">
        <ele>134.35518039392358</ele>
        <time>2024-09-12T20:50:31.098Z</time>
      </trkpt>
      <trkpt lat="45.485746666666664" lon="9.200546666666666">
        <ele>143.3518796160593</ele>
        <time>2024-09-12T20:51:54.069Z</time>
      </trkpt>
      <trkpt lat="45.48558333333334" lon="9.20108">
        <ele>147.54958640714494</ele>
        <time>2024-09-12T20:52:40.096Z</time>
      </trkpt>
      <trkpt lat="45.485185" lon="9.201275">
        <ele>141.54834006464836</ele>
        <time>2024-09-12T20:53:21.075Z</time>
      </trkpt>
      <trkpt lat="45.48533666666667" lon="9.20175">
        <ele>129.84664902424583</ele>
        <time>2024-09-12T20:53:47.085Z</time>
      </trkpt>
      <trkpt lat="45.485008333333326" lon="9.202373333333332">
        <ele>125.54385395859744</ele>
        <time>2024-09-12T20:54:42.063Z</time>
      </trkpt>
      <trkpt lat="45.485146666666665" lon="9.202683333333333">
        <ele>124.94278026361134</ele>
        <time>2024-09-12T20:55:14.059Z</time>
      </trkpt>
      <trkpt lat="45.48468333333334" lon="9.203185">
        <ele>124.34021282584958</ele>
        <time>2024-09-12T20:56:37.062Z</time>
      </trkpt>
      <trkpt lat="45.48493" lon="9.203543333333332">
        <ele>121.73908201514902</ele>
        <time>2024-09-12T20:57:25.069Z</time>
      </trkpt>
      <trkpt lat="45.48590166666666" lon="9.203998333333335">
        <ele>143.83837218107303</ele>
        <time>2024-09-12T21:00:04.086Z</time>
      </trkpt>
      <trkpt lat="45.486149999999995" lon="9.203978333333334">
        <ele>160.13590904374558</ele>
        <time>2024-09-12T21:17:56.082Z</time>
      </trkpt>
    </trkseg>
  </trk>
</gpx>
