<?xml version="1.0" encoding="UTF-8"?>
<gpx version="1.1" creator="Export" xmlns="http://www.topografix.com/GPX/1/1" xmlns:xsi="http://www.w3.org/2001/XMLSchema-instance" xsi:schemaLocation="http://www.topografix.com/GPX/1/1 http://www.topografix.com/GPX/1/1/gpx.xsd http://www.garmin.com/xmlschemas/GpxExtensions/v3 http://www.garmin.com/xmlschemas/GpxExtensionsv3.xsd http://www.garmin.com/xmlschemas/TrackPointExtension/v1 http://www.garmin.com/xmlschemas/TrackPointExtensionv1.xsd http://www.garmin.com/xmlschemas/PowerExtension/v1 http://www.garmin.com/xmlschemas/PowerExtensionv1.xsd http://www.topografix.com/GPX/gpx_style/0/2 http://www.topografix.com/GPX/gpx_style/0/2/gpx_style.xsd" xmlns:gpxtpx="http://www.garmin.com/xmlschemas/TrackPointExtension/v1" xmlns:gpxx="http://www.garmin.com/xmlschemas/GpxExtensions/v3" xmlns:gpxpx="http://www.garmin.com/xmlschemas/PowerExtension/v1" xmlns:gpx_style="http://www.topografix.com/GPX/gpx_style/0/2">
  <metadata>
    <name>activity_161_2024-08-21</name>
    <author>
      <name>gpx.studio</name>
      <link href="https://gpx.studio"/>
    </author>
  </metadata>
  <wpt lat="53.557354" lon="9.965908">
    <ele>18.900000000001455</ele>
    <name>Underdocks</name>
    <sym>Restaurant</sym>
  </wpt>
  <wpt lat="53.556417422982804" lon="9.970037371296712">
    <ele>17.30000000000109</ele>
    <name>Panorama View</name>
    <sym>Summit</sym>
  </wpt>
  <wpt lat="53.54289041650216" lon="10.009202854435244">
    <ele>2.7000000000007276</ele>
    <name>Diehalle</name>
    <sym>Building</sym>
  </wpt>
  <wpt lat="53.556194" lon="10.008181">
    <ele>15.499299855484129</ele>
    <name>Max &amp; Consorten</name>
    <sym>Restaurant</sym>
  </wpt>
  <wpt lat="53.548391" lon="9.978383">
    <ele>21.94921643664202</ele>
    <name>Church of St. Michael</name>
    <sym>Building</sym>
  </wpt>
  <trk>
    <extensions>
      <gpx_style:line>
        <color>ff0000</color>
      </gpx_style:line>
    </extensions>
    <trkseg>
      <trkpt lat="53.54878999999999" lon="9.957575">
        <ele>22.763045124487356</ele>
        <time>2024-08-21T12:31:01.085Z</time>
      </trkpt>
      <trkpt lat="53.548829999999995" lon="9.957723333333332">
        <ele>21.36316250151461</ele>
        <time>2024-08-21T12:31:22.576Z</time>
      </trkpt>
      <trkpt lat="53.549301666666665" lon="9.958346666666667">
        <ele>19.963694952529806</ele>
        <time>2024-08-21T12:32:17.608Z</time>
      </trkpt>
      <trkpt lat="53.54949166666667" lon="9.958404999999999">
        <ele>20.36373551126563</ele>
        <time>2024-08-21T12:32:33.578Z</time>
      </trkpt>
      <trkpt lat="53.54952166666667" lon="9.958364999999999">
        <ele>21.663697475441097</ele>
        <time>2024-08-21T12:32:40.565Z</time>
      </trkpt>
      <trkpt lat="53.549595" lon="9.958458333333335">
        <ele>29.763770192842998</ele>
        <time>2024-08-21T12:32:56.556Z</time>
      </trkpt>
      <trkpt lat="53.54955499999999" lon="9.958736666666665">
        <ele>34.86402154881426</ele>
        <time>2024-08-21T12:33:15.569Z</time>
      </trkpt>
      <trkpt lat="53.54940166666667" lon="9.959186666666666">
        <ele>25.464457349405208</ele>
        <time>2024-08-21T12:33:49.569Z</time>
      </trkpt>
      <trkpt lat="53.54935999999999" lon="9.960358333333334">
        <ele>23.96555651329507</ele>
        <time>2024-08-21T12:35:05.581Z</time>
      </trkpt>
      <trkpt lat="53.549326666666666" lon="9.960391666666668">
        <ele>24.565581409763453</ele>
        <time>2024-08-21T12:35:23.559Z</time>
      </trkpt>
      <trkpt lat="53.54930666666667" lon="9.960881666666667">
        <ele>16.966016883135588</ele>
        <time>2024-08-21T12:35:52.553Z</time>
      </trkpt>
      <trkpt lat="53.549233333333326" lon="9.960908333333332">
        <ele>20.1660846347028</ele>
        <time>2024-08-21T12:35:59.628Z</time>
      </trkpt>
      <trkpt lat="53.54934166666667" lon="9.960886666666665">
        <ele>26.966047312807234</ele>
        <time>2024-08-21T12:36:14.561Z</time>
      </trkpt>
      <trkpt lat="53.54926166666667" lon="9.960971666666667">
        <ele>25.366133726456866</ele>
        <time>2024-08-21T12:36:28.576Z</time>
      </trkpt>
      <trkpt lat="53.549233333333326" lon="9.961303333333332">
        <ele>22.166440352639626</ele>
        <time>2024-08-21T12:36:53.568Z</time>
      </trkpt>
      <trkpt lat="53.54922833333333" lon="9.961473333333334">
        <ele>20.366604296454966</ele>
        <time>2024-08-21T12:37:07.598Z</time>
      </trkpt>
      <trkpt lat="53.54926833333334" lon="9.961466666666666">
        <ele>19.96659210580026</ele>
        <time>2024-08-21T12:37:21.592Z</time>
      </trkpt>
      <trkpt lat="53.549290000000006" lon="9.961555">
        <ele>18.56666443464961</ele>
        <time>2024-08-21T12:37:27.592Z</time>
      </trkpt>
      <trkpt lat="53.549279999999996" lon="9.962005">
        <ele>18.567079381783017</ele>
        <time>2024-08-21T12:37:59.602Z</time>
      </trkpt>
      <trkpt lat="53.54926666666667" lon="9.962043333333334">
        <ele>19.16712368259143</ele>
        <time>2024-08-21T12:38:06.595Z</time>
      </trkpt>
      <trkpt lat="53.54925" lon="9.961921666666665">
        <ele>21.667022137790738</ele>
        <time>2024-08-21T12:38:16.596Z</time>
      </trkpt>
      <trkpt lat="53.54922333333334" lon="9.961971666666667">
        <ele>21.867017694208982</ele>
        <time>2024-08-21T12:38:24.585Z</time>
      </trkpt>
      <trkpt lat="53.549189999999996" lon="9.9625">
        <ele>22.16746360253792</ele>
        <time>2024-08-21T12:39:20.562Z</time>
      </trkpt>
      <trkpt lat="53.54913333333334" lon="9.962641666666666">
        <ele>22.467689565966005</ele>
        <time>2024-08-21T12:39:36.561Z</time>
      </trkpt>
      <trkpt lat="53.549164999999995" lon="9.963265">
        <ele>23.368261574315035</ele>
        <time>2024-08-21T12:40:57.572Z</time>
      </trkpt>
      <trkpt lat="53.54922" lon="9.963558333333333">
        <ele>26.96851257339513</ele>
        <time>2024-08-21T12:41:34.562Z</time>
      </trkpt>
      <trkpt lat="53.54917666666667" lon="9.963593333333334">
        <ele>23.868571658905296</ele>
        <time>2024-08-21T12:41:45.563Z</time>
      </trkpt>
      <trkpt lat="53.54922" lon="9.963685">
        <ele>23.56863985401604</ele>
        <time>2024-08-21T12:42:04.559Z</time>
      </trkpt>
      <trkpt lat="53.54927666666667" lon="9.964256666666667">
        <ele>27.96915106768565</ele>
        <time>2024-08-21T12:42:47.555Z</time>
      </trkpt>
      <trkpt lat="53.54932999999999" lon="9.964358333333333">
        <ele>28.66925737226893</ele>
        <time>2024-08-21T12:43:03.582Z</time>
      </trkpt>
      <trkpt lat="53.549350000000004" lon="9.964883333333335">
        <ele>25.569727648709275</ele>
        <time>2024-08-21T12:43:41.559Z</time>
      </trkpt>
      <trkpt lat="53.54937833333334" lon="9.964863333333334">
        <ele>25.669717226513953</ele>
        <time>2024-08-21T12:43:51.569Z</time>
      </trkpt>
      <trkpt lat="53.549281666666666" lon="9.964865">
        <ele>24.769723120203878</ele>
        <time>2024-08-21T12:44:12.588Z</time>
      </trkpt>
      <trkpt lat="53.549121666666665" lon="9.965005">
        <ele>26.86986706437881</ele>
        <time>2024-08-21T12:44:33.585Z</time>
      </trkpt>
      <trkpt lat="53.548921666666665" lon="9.964953333333334">
        <ele>25.569840898086866</ele>
        <time>2024-08-21T12:44:57.582Z</time>
      </trkpt>
      <trkpt lat="53.548885000000006" lon="9.965026666666667">
        <ele>26.069910957640694</ele>
        <time>2024-08-21T12:45:07.598Z</time>
      </trkpt>
      <trkpt lat="53.548976666666675" lon="9.964895">
        <ele>27.169792482396247</ele>
        <time>2024-08-21T12:46:10.555Z</time>
      </trkpt>
      <trkpt lat="53.54890999999999" lon="9.96491">
        <ele>22.569809244762247</ele>
        <time>2024-08-21T12:46:22.607Z</time>
      </trkpt>
      <trkpt lat="53.54859166666667" lon="9.965116666666667">
        <ele>29.07002453870269</ele>
        <time>2024-08-21T12:47:25.592Z</time>
      </trkpt>
      <trkpt lat="53.54854999999999" lon="9.965076666666667">
        <ele>28.87000348716829</ele>
        <time>2024-08-21T12:47:40.565Z</time>
      </trkpt>
      <trkpt lat="53.548211666666674" lon="9.965258333333333">
        <ele>23.77014138074778</ele>
        <time>2024-08-21T12:48:25.588Z</time>
      </trkpt>
      <trkpt lat="53.54777166666666" lon="9.965331666666666">
        <ele>37.97030899136109</ele>
        <time>2024-08-21T12:49:11.591Z</time>
      </trkpt>
      <trkpt lat="53.54773166666667" lon="9.96537">
        <ele>43.970346497308505</ele>
        <time>2024-08-21T12:49:16.589Z</time>
      </trkpt>
      <trkpt lat="53.547733333333326" lon="9.96556">
        <ele>47.37051051780878</ele>
        <time>2024-08-21T12:49:31.562Z</time>
      </trkpt>
      <trkpt lat="53.54779166666667" lon="9.965421666666666">
        <ele>58.97039781628934</ele>
        <time>2024-08-21T12:49:48.566Z</time>
      </trkpt>
      <trkpt lat="53.54771833333333" lon="9.965311666666667">
        <ele>52.77030788473639</ele>
        <time>2024-08-21T12:50:04.552Z</time>
      </trkpt>
      <trkpt lat="53.54772500000001" lon="9.965128333333332">
        <ele>47.870146707909925</ele>
        <time>2024-08-21T12:50:15.575Z</time>
      </trkpt>
      <trkpt lat="53.547643333333326" lon="9.965226666666666">
        <ele>35.77023328083005</ele>
        <time>2024-08-21T12:50:44.561Z</time>
      </trkpt>
      <trkpt lat="53.54767666666667" lon="9.964853333333334">
        <ele>33.26994590888232</ele>
        <time>2024-08-21T12:51:11.561Z</time>
      </trkpt>
      <trkpt lat="53.547613333333324" lon="9.964321666666667">
        <ele>30.26941508400308</ele>
        <time>2024-08-21T12:51:50.595Z</time>
      </trkpt>
      <trkpt lat="53.54752666666666" lon="9.964203333333334">
        <ele>27.769351798091527</ele>
        <time>2024-08-21T12:52:08.586Z</time>
      </trkpt>
      <trkpt lat="53.54754500000001" lon="9.963871666666668">
        <ele>30.56899761200998</ele>
        <time>2024-08-21T12:52:22.592Z</time>
      </trkpt>
      <trkpt lat="53.54748166666666" lon="9.96386">
        <ele>34.56899837133691</ele>
        <time>2024-08-21T12:52:31.586Z</time>
      </trkpt>
      <trkpt lat="53.547441666666664" lon="9.963686666666666">
        <ele>40.56884208628584</ele>
        <time>2024-08-21T12:52:42.558Z</time>
      </trkpt>
      <trkpt lat="53.547405" lon="9.963638333333334">
        <ele>39.868795915419454</ele>
        <time>2024-08-21T12:52:50.599Z</time>
      </trkpt>
      <trkpt lat="53.54731" lon="9.9637">
        <ele>38.56885353221678</ele>
        <time>2024-08-21T12:52:58.598Z</time>
      </trkpt>
      <trkpt lat="53.54716333333334" lon="9.963619999999999">
        <ele>49.86879967927355</ele>
        <time>2024-08-21T12:53:24.432Z</time>
      </trkpt>
      <trkpt lat="53.547165" lon="9.963699">
        <ele>21</ele>
        <time>2024-08-21T12:53:26.018Z</time>
        <extensions>
          <gpxtpx:TrackPointExtension>
            <gpxtpx:Extensions>
              <reversedirection>yes</reversedirection>
              <highway>service</highway>
              <surface>sett</surface>
            </gpxtpx:Extensions>
          </gpxtpx:TrackPointExtension>
        </extensions>
      </trkpt>
      <trkpt lat="53.547037" lon="9.96371">
        <ele>20</ele>
        <time>2024-08-21T12:53:30.346Z</time>
        <extensions>
          <gpxtpx:TrackPointExtension>
            <gpxtpx:Extensions>
              <highway>residential</highway>
              <surface>asphalt</surface>
              <sidewalk>both</sidewalk>
            </gpxtpx:Extensions>
          </gpxtpx:TrackPointExtension>
        </extensions>
      </trkpt>
      <trkpt lat="53.54703" lon="9.963617">
        <ele>19.5</ele>
        <time>2024-08-21T12:53:30.752Z</time>
      </trkpt>
      <trkpt lat="53.54696333333333" lon="9.963608333333333">
        <ele>41.86881981264039</ele>
        <time>2024-08-21T12:55:52.604Z</time>
      </trkpt>
      <trkpt lat="53.54703666666666" lon="9.963261666666666">
        <ele>38.66849153142443</ele>
        <time>2024-08-21T12:56:18.596Z</time>
      </trkpt>
      <trkpt lat="53.546915000000006" lon="9.963155">
        <ele>34.168394640532775</ele>
        <time>2024-08-21T12:56:35.592Z</time>
      </trkpt>
      <trkpt lat="53.54690166666666" lon="9.963063333333334">
        <ele>29.168326920272797</ele>
        <time>2024-08-21T12:56:46.601Z</time>
      </trkpt>
      <trkpt lat="53.54680666666666" lon="9.962958333333335">
        <ele>25.768233207008542</ele>
        <time>2024-08-21T12:56:54.575Z</time>
      </trkpt>
      <trkpt lat="53.54654166666666" lon="9.963031666666666">
        <ele>22.468322914983204</ele>
        <time>2024-08-21T12:57:37.546Z</time>
      </trkpt>
      <trkpt lat="53.54638" lon="9.963159999999998">
        <ele>14.468443987950863</ele>
        <time>2024-08-21T12:58:04.584Z</time>
      </trkpt>
      <trkpt lat="53.54627833333334" lon="9.965193333333334">
        <ele>13.370344162963654</ele>
        <time>2024-08-21T13:00:11.575Z</time>
      </trkpt>
      <trkpt lat="53.54630999999999" lon="9.965638333333334">
        <ele>15.97074094678409</ele>
        <time>2024-08-21T13:00:52.559Z</time>
      </trkpt>
      <trkpt lat="53.546255" lon="9.966156666666667">
        <ele>12.771197263452223</ele>
        <time>2024-08-21T13:01:26.562Z</time>
      </trkpt>
      <trkpt lat="53.54621" lon="9.966148333333333">
        <ele>13.971225029454835</ele>
        <time>2024-08-21T13:01:32.559Z</time>
      </trkpt>
      <trkpt lat="53.54623333333334" lon="9.966233333333333">
        <ele>13.47129789374764</ele>
        <time>2024-08-21T13:01:54.578Z</time>
      </trkpt>
      <trkpt lat="53.54618333333333" lon="9.966316666666668">
        <ele>11.37137135405544</ele>
        <time>2024-08-21T13:02:07.608Z</time>
      </trkpt>
      <trkpt lat="53.546105000000004" lon="9.967088333333333">
        <ele>11.372094977082178</ele>
        <time>2024-08-21T13:03:11.559Z</time>
      </trkpt>
      <trkpt lat="53.545966666666665" lon="9.967215000000001">
        <ele>8.972212417468839</ele>
        <time>2024-08-21T13:03:33.559Z</time>
      </trkpt>
      <trkpt lat="53.545901666666666" lon="9.967603333333333">
        <ele>10.972585868803712</ele>
        <time>2024-08-21T13:04:01.581Z</time>
      </trkpt>
      <trkpt lat="53.54571666666667" lon="9.967586666666667">
        <ele>10.472592737034908</ele>
        <time>2024-08-21T13:04:39.558Z</time>
      </trkpt>
      <trkpt lat="53.545640000000006" lon="9.967646666666667">
        <ele>10.372625536848993</ele>
        <time>2024-08-21T13:04:50.602Z</time>
      </trkpt>
      <trkpt lat="53.545608333333334" lon="9.967583333333332">
        <ele>9.87263189699312</ele>
        <time>2024-08-21T13:05:01.598Z</time>
      </trkpt>
      <trkpt lat="53.54572666666666" lon="9.967636666666667">
        <ele>8.172631578892208</ele>
        <time>2024-08-21T13:05:32.586Z</time>
      </trkpt>
      <trkpt lat="53.54574833333333" lon="9.967943333333332">
        <ele>8.672893982471294</ele>
        <time>2024-08-21T13:06:08.596Z</time>
      </trkpt>
      <trkpt lat="53.545731666666676" lon="9.968623333333333">
        <ele>12.473537313319497</ele>
        <time>2024-08-21T13:07:22.559Z</time>
      </trkpt>
      <trkpt lat="53.54568833333333" lon="9.96866">
        <ele>14.173569700992864</ele>
        <time>2024-08-21T13:07:33.555Z</time>
      </trkpt>
      <trkpt lat="53.54569" lon="9.968943333333334">
        <ele>11.273830949876746</ele>
        <time>2024-08-21T13:08:05.578Z</time>
      </trkpt>
      <trkpt lat="53.545628333333326" lon="9.9689">
        <ele>9.873804955510977</ele>
        <time>2024-08-21T13:08:19.588Z</time>
      </trkpt>
      <trkpt lat="53.545723333333335" lon="9.968936666666668">
        <ele>2.673821599565372</ele>
        <time>2024-08-21T13:08:52.565Z</time>
      </trkpt>
      <trkpt lat="53.54569166666667" lon="9.969016666666667">
        <ele>3.4738944185957976</ele>
        <time>2024-08-21T13:09:00.586Z</time>
      </trkpt>
      <trkpt lat="53.545764999999996" lon="9.969660000000001">
        <ele>10.774481416585346</ele>
        <time>2024-08-21T13:09:58.568Z</time>
      </trkpt>
      <trkpt lat="53.545735" lon="9.969648333333334">
        <ele>9.474476030789397</ele>
        <time>2024-08-21T13:10:03.555Z</time>
      </trkpt>
      <trkpt lat="53.545715" lon="9.970004999999999">
        <ele>8.874789023266871</ele>
        <time>2024-08-21T13:10:46.582Z</time>
      </trkpt>
      <trkpt lat="53.54568166666666" lon="9.970088333333333">
        <ele>9.474881683297262</ele>
        <time>2024-08-21T13:10:56.591Z</time>
      </trkpt>
      <trkpt lat="53.54553166666666" lon="9.969998333333333">
        <ele>9.774819661875647</ele>
        <time>2024-08-21T13:11:36.562Z</time>
      </trkpt>
      <trkpt lat="53.545496666666665" lon="9.970036666666665">
        <ele>10.97484759268567</ele>
        <time>2024-08-21T13:11:44.561Z</time>
      </trkpt>
      <trkpt lat="53.545541666666665" lon="9.970111666666666">
        <ele>8.674917852471033</ele>
        <time>2024-08-21T13:12:13.575Z</time>
      </trkpt>
      <trkpt lat="53.54544333333333" lon="9.97036">
        <ele>10.875143546731032</ele>
        <time>2024-08-21T13:12:33.569Z</time>
      </trkpt>
      <trkpt lat="53.545368333333336" lon="9.970976666666667">
        <ele>11.475712070374122</ele>
        <time>2024-08-21T13:13:13.595Z</time>
      </trkpt>
      <trkpt lat="53.545115" lon="9.971929999999999">
        <ele>12.076607937780352</ele>
        <time>2024-08-21T13:14:19.588Z</time>
      </trkpt>
      <trkpt lat="53.544941666666666" lon="9.972296666666667">
        <ele>8.676971650432982</ele>
        <time>2024-08-21T13:14:56.563Z</time>
      </trkpt>
      <trkpt lat="53.54509500000001" lon="9.972398333333333">
        <ele>11.977037206373332</ele>
        <time>2024-08-21T13:15:28.562Z</time>
      </trkpt>
      <trkpt lat="53.545115" lon="9.972861666666667">
        <ele>15.777460421549875</ele>
        <time>2024-08-21T13:16:00.578Z</time>
      </trkpt>
      <trkpt lat="53.54515166666667" lon="9.972945000000001">
        <ele>16.277533959035893</ele>
        <time>2024-08-21T13:16:07.561Z</time>
      </trkpt>
      <trkpt lat="53.54498666666667" lon="9.973171666666667">
        <ele>16.377769931653688</ele>
        <time>2024-08-21T13:16:30.559Z</time>
      </trkpt>
      <trkpt lat="53.54495166666667" lon="9.973488333333334">
        <ele>13.67802773473143</ele>
        <time>2024-08-21T13:16:52.592Z</time>
      </trkpt>
      <trkpt lat="53.544356666666665" lon="9.975303333333333">
        <ele>21.179711237645783</ele>
        <time>2024-08-21T13:18:43.553Z</time>
      </trkpt>
      <trkpt lat="53.544369999999994" lon="9.975265">
        <ele>21.279742455900134</ele>
        <time>2024-08-21T13:18:45.559Z</time>
      </trkpt>
      <trkpt lat="53.54428166666666" lon="9.975261666666666">
        <ele>20.77973144200587</ele>
        <time>2024-08-21T13:18:55.559Z</time>
      </trkpt>
      <trkpt lat="53.544198333333334" lon="9.975413333333334">
        <ele>20.77986758603307</ele>
        <time>2024-08-21T13:19:12.559Z</time>
      </trkpt>
      <trkpt lat="53.54387499999999" lon="9.976596666666667">
        <ele>12.280982327931127</ele>
        <time>2024-08-21T13:20:25.561Z</time>
      </trkpt>
      <trkpt lat="53.54382166666666" lon="9.977661666666668">
        <ele>13.181944145115295</ele>
        <time>2024-08-21T13:21:23.596Z</time>
      </trkpt>
      <trkpt lat="53.54371833333333" lon="9.977625">
        <ele>8.981926653343194</ele>
        <time>2024-08-21T13:21:33.589Z</time>
      </trkpt>
      <trkpt lat="53.54363333333334" lon="9.97774">
        <ele>4.482032067758965</ele>
        <time>2024-08-21T13:21:49.575Z</time>
      </trkpt>
      <trkpt lat="53.543816666666665" lon="9.977713333333332">
        <ele>7.681985623354208</ele>
        <time>2024-08-21T13:23:06.594Z</time>
      </trkpt>
      <trkpt lat="53.54383166666666" lon="9.977983333333333">
        <ele>14.982217174538789</ele>
        <time>2024-08-21T13:23:25.556Z</time>
      </trkpt>
      <trkpt lat="53.54378666666666" lon="9.978378333333334">
        <ele>11.982597560680958</ele>
        <time>2024-08-21T13:23:59.588Z</time>
      </trkpt>
      <trkpt lat="53.54384166666667" lon="9.979608333333335">
        <ele>12.783660413146627</ele>
        <time>2024-08-21T13:25:06.572Z</time>
      </trkpt>
      <trkpt lat="53.543951666666665" lon="9.97973">
        <ele>11.48379262296018</ele>
        <time>2024-08-21T13:25:16.592Z</time>
      </trkpt>
      <trkpt lat="53.54400166666666" lon="9.979983333333333">
        <ele>11.184013868031634</ele>
        <time>2024-08-21T13:25:31.596Z</time>
      </trkpt>
      <trkpt lat="53.54434666666666" lon="9.980046666666668">
        <ele>17.384046388895264</ele>
        <time>2024-08-21T13:26:04.601Z</time>
      </trkpt>
      <trkpt lat="53.54433000000001" lon="9.980271666666665">
        <ele>21.584227923719475</ele>
        <time>2024-08-21T13:26:24.601Z</time>
      </trkpt>
      <trkpt lat="53.544270000000004" lon="9.980348333333334">
        <ele>18.384307110024658</ele>
        <time>2024-08-21T13:26:34.555Z</time>
      </trkpt>
      <trkpt lat="53.544219999999996" lon="9.981169999999999">
        <ele>18.585063451636188</ele>
        <time>2024-08-21T13:27:40.589Z</time>
      </trkpt>
      <trkpt lat="53.544200000000004" lon="9.981096666666668">
        <ele>17.185008023669084</ele>
        <time>2024-08-21T13:28:00.585Z</time>
      </trkpt>
      <trkpt lat="53.54421166666666" lon="9.981461666666666">
        <ele>23.085331066447743</ele>
        <time>2024-08-21T13:28:29.549Z</time>
      </trkpt>
      <trkpt lat="53.544174999999996" lon="9.981291666666667">
        <ele>26.185184803632986</ele>
        <time>2024-08-21T13:28:50.588Z</time>
      </trkpt>
      <trkpt lat="53.544205" lon="9.981485">
        <ele>24.285348039696373</ele>
        <time>2024-08-21T13:29:06.598Z</time>
      </trkpt>
      <trkpt lat="53.544215" lon="9.981263333333334">
        <ele>21.485176803620575</ele>
        <time>2024-08-21T13:29:21.594Z</time>
      </trkpt>
      <trkpt lat="53.54425500000001" lon="9.981259999999999">
        <ele>18.485141340028193</ele>
        <time>2024-08-21T13:29:44.595Z</time>
      </trkpt>
      <trkpt lat="53.544225000000004" lon="9.981286666666668">
        <ele>18.185173803013335</ele>
        <time>2024-08-21T13:29:54.203Z</time>
      </trkpt>
    </trkseg>
  </trk>
  <trk>
    <extensions>
      <gpx_style:line>
        <color>ff0000</color>
      </gpx_style:line>
    </extensions>
    <trkseg>
      <trkpt lat="53.55681500000001" lon="9.968683333333333">
        <ele>16.900000000001455</ele>
        <time>2024-08-21T13:35:11.710Z</time>
      </trkpt>
      <trkpt lat="53.55724854834958" lon="9.968439329301987">
        <ele>16.826130102203102</ele>
        <time>2024-08-21T13:36:16.304Z</time>
      </trkpt>
      <trkpt lat="53.557277781166505" lon="9.967578120789938">
        <ele>19.14891341421753</ele>
        <time>2024-08-21T13:37:28.706Z</time>
      </trkpt>
      <trkpt lat="53.55714769497595" lon="9.966030406064164">
        <ele>19.5</ele>
        <time>2024-08-21T13:39:41.382Z</time>
      </trkpt>
      <trkpt lat="53.5573040906844" lon="9.965941824616579">
        <ele>18.900000000001455</ele>
        <time>2024-08-21T13:40:04.959Z</time>
      </trkpt>
      <trkpt lat="53.557468333333325" lon="9.96856">
        <ele>17.212598918565313</ele>
        <time>2024-08-21T13:43:22.541Z</time>
      </trkpt>
      <trkpt lat="53.55730666666667" lon="9.968520000000002">
        <ele>21.572262845298816</ele>
        <time>2024-08-21T14:50:32.579Z</time>
      </trkpt>
      <trkpt lat="53.55723666666666" lon="9.968575">
        <ele>18.57230597350982</ele>
        <time>2024-08-21T14:50:40.578Z</time>
      </trkpt>
      <trkpt lat="53.55720666666666" lon="9.969525">
        <ele>23.273186368068288</ele>
        <time>2024-08-21T14:53:10.930Z</time>
      </trkpt>
      <trkpt lat="53.55661969226733" lon="9.970765460483392">
        <ele>17.999999999999996</ele>
        <time>2024-08-21T14:57:21.574Z</time>
      </trkpt>
      <trkpt lat="53.556417932244386" lon="9.97004505515713">
        <ele>17.3971735117967</ele>
        <time>2024-08-21T14:59:27.445Z</time>
      </trkpt>
      <trkpt lat="53.55673555463909" lon="9.970471276008709">
        <ele>17.489181070403504</ele>
        <time>2024-08-21T15:00:58.594Z</time>
      </trkpt>
      <trkpt lat="53.55728323883437" lon="9.969275794518694">
        <ele>16.700000000000728</ele>
        <time>2024-08-21T15:04:19.839Z</time>
      </trkpt>
    </trkseg>
  </trk>
  <trk>
    <extensions>
      <gpx_style:line>
        <color>ff0000</color>
      </gpx_style:line>
    </extensions>
    <trkseg>
      <trkpt lat="53.545759227492994" lon="10.007014938946412">
        <ele>0.4258729929338434</ele>
        <time>2024-08-21T16:04:27.719Z</time>
      </trkpt>
      <trkpt lat="53.54466666666667" lon="10.006486666666666">
        <ele>0.9000000000014552</ele>
        <time>2024-08-21T16:06:41.599Z</time>
      </trkpt>
      <trkpt lat="53.54466666666667" lon="10.006683333333333">
        <ele>-25.98861195517354</ele>
        <time>2024-08-21T16:06:57.581Z</time>
      </trkpt>
      <trkpt lat="53.54442166666666" lon="10.006881666666667">
        <ele>-5.688318610181881</ele>
        <time>2024-08-21T16:07:15.573Z</time>
      </trkpt>
      <trkpt lat="53.54409999999999" lon="10.007313333333334">
        <ele>12.81222268414151</ele>
        <time>2024-08-21T16:07:56.611Z</time>
      </trkpt>
      <trkpt lat="53.54382333333333" lon="10.007835">
        <ele>5.812892437315817</ele>
        <time>2024-08-21T16:08:34.586Z</time>
      </trkpt>
      <trkpt lat="53.54338500000001" lon="10.008311666666666">
        <ele>8.113495558428909</ele>
        <time>2024-08-21T16:09:23.588Z</time>
      </trkpt>
      <trkpt lat="53.543325" lon="10.008491666666666">
        <ele>14.71371601909776</ele>
        <time>2024-08-21T16:09:36.571Z</time>
      </trkpt>
      <trkpt lat="53.54293666666668" lon="10.008898333333333">
        <ele>14.514238521108396</ele>
        <time>2024-08-21T16:10:21.551Z</time>
      </trkpt>
      <trkpt lat="53.542809999999996" lon="10.00895">
        <ele>12.614326776146086</ele>
        <time>2024-08-21T16:10:51.595Z</time>
      </trkpt>
      <trkpt lat="53.54257500000001" lon="10.009328333333334">
        <ele>9.314782251667864</ele>
        <time>2024-08-21T16:11:31.594Z</time>
      </trkpt>
      <trkpt lat="53.54251666666667" lon="10.009346666666666">
        <ele>8.014832392269902</ele>
        <time>2024-08-21T16:11:37.559Z</time>
      </trkpt>
      <trkpt lat="53.54273" lon="10.009196666666666">
        <ele>4.714630224636707</ele>
        <time>2024-08-21T16:12:02.592Z</time>
      </trkpt>
      <trkpt lat="53.54287833333333" lon="10.008931666666665">
        <ele>8.414308444585522</ele>
        <time>2024-08-21T16:12:25.591Z</time>
      </trkpt>
      <trkpt lat="53.542903333333335" lon="10.008939999999999">
        <ele>7.31430668439058</ele>
        <time>2024-08-21T16:12:29.601Z</time>
      </trkpt>
      <trkpt lat="53.54274999999999" lon="10.009138333333334">
        <ele>14.014552882926878</ele>
        <time>2024-08-21T16:12:57.596Z</time>
      </trkpt>
      <trkpt lat="53.54285" lon="10.00903">
        <ele>11.114416246453963</ele>
        <time>2024-08-21T16:13:12.595Z</time>
      </trkpt>
      <trkpt lat="53.54287833333333" lon="10.009160000000001">
        <ele>12.81456489069712</ele>
        <time>2024-08-21T16:13:24.601Z</time>
      </trkpt>
      <trkpt lat="53.542926666666666" lon="10.008961666666666">
        <ele>8.314351780023223</ele>
        <time>2024-08-21T17:10:45.588Z</time>
      </trkpt>
      <trkpt lat="53.542861666666674" lon="10.008988333333333">
        <ele>7.014363998709278</ele>
        <time>2024-08-21T17:11:50.571Z</time>
      </trkpt>
      <trkpt lat="53.54293333333333" lon="10.008848333333333">
        <ele>14.714208950669686</ele>
        <time>2024-08-21T17:12:08.562Z</time>
      </trkpt>
      <trkpt lat="53.54310666666667" lon="10.008703333333333">
        <ele>11.613990340628568</ele>
        <time>2024-08-21T17:12:30.602Z</time>
      </trkpt>
      <trkpt lat="53.543310000000005" lon="10.008396666666666">
        <ele>11.913625947237023</ele>
        <time>2024-08-21T17:13:04.585Z</time>
      </trkpt>
      <trkpt lat="53.54360833333333" lon="10.008186666666667">
        <ele>10.113345344517889</ele>
        <time>2024-08-21T17:13:46.585Z</time>
      </trkpt>
      <trkpt lat="53.54386666666666" lon="10.00779">
        <ele>11.912847081997718</ele>
        <time>2024-08-21T17:14:39.608Z</time>
      </trkpt>
      <trkpt lat="53.54432666666666" lon="10.007306666666667">
        <ele>10.712222919837792</ele>
        <time>2024-08-21T17:16:07.588Z</time>
      </trkpt>
      <trkpt lat="53.54423666666666" lon="10.007446666666668">
        <ele>10.412329440130101</ele>
        <time>2024-08-21T17:16:34.582Z</time>
      </trkpt>
      <trkpt lat="53.544354999999996" lon="10.007209999999999">
        <ele>9.112084003272088</ele>
        <time>2024-08-21T17:17:36.558Z</time>
      </trkpt>
      <trkpt lat="53.54433666666667" lon="10.007246666666667">
        <ele>9.212121394340926</ele>
        <time>2024-08-21T17:18:23.562Z</time>
      </trkpt>
      <trkpt lat="53.544354999999996" lon="10.007113333333333">
        <ele>8.311988414183844</ele>
        <time>2024-08-21T17:18:35.558Z</time>
      </trkpt>
      <trkpt lat="53.54442833333333" lon="10.007048333333334">
        <ele>7.911906249895566</ele>
        <time>2024-08-21T17:18:51.579Z</time>
      </trkpt>
      <trkpt lat="53.54457833333333" lon="10.006716666666668">
        <ele>10.111479392657458</ele>
        <time>2024-08-21T17:19:30.588Z</time>
      </trkpt>
      <trkpt lat="53.54492833333334" lon="10.006833333333333">
        <ele>-13.488409827869404</ele>
        <time>2024-08-21T17:20:24.585Z</time>
      </trkpt>
      <trkpt lat="53.54490666666667" lon="10.006879999999999">
        <ele>-15.088356310911763</ele>
        <time>2024-08-21T17:20:32.588Z</time>
      </trkpt>
      <trkpt lat="53.544956666666664" lon="10.006943333333334">
        <ele>-15.188346103702237</ele>
        <time>2024-08-21T17:20:40.592Z</time>
      </trkpt>
      <trkpt lat="53.545134999999995" lon="10.007038333333332">
        <ele>-18.68816889234789</ele>
        <time>2024-08-21T17:21:01.548Z</time>
      </trkpt>
      <trkpt lat="53.545136666666664" lon="10.006903333333334">
        <ele>-19.488260020360777</ele>
        <time>2024-08-21T17:21:06.565Z</time>
      </trkpt>
      <trkpt lat="53.545125000000006" lon="10.007041666666668">
        <ele>-16.488168782917292</ele>
        <time>2024-08-21T17:21:19.558Z</time>
      </trkpt>
      <trkpt lat="53.54567999999999" lon="10.007235">
        <ele>-19.587963575007173</ele>
        <time>2024-08-21T17:22:36.607Z</time>
      </trkpt>
      <trkpt lat="53.545856666666666" lon="10.007471666666667">
        <ele>-7.587687842245224</ele>
        <time>2024-08-21T17:23:09.601Z</time>
      </trkpt>
      <trkpt lat="53.545993333333335" lon="10.007100000000001">
        <ele>-1.2881084840562593</ele>
        <time>2024-08-21T17:23:37.540Z</time>
      </trkpt>
      <trkpt lat="53.54602166666667" lon="10.006771666666667">
        <ele>8.411449980659519</ele>
        <time>2024-08-21T17:23:48.602Z</time>
      </trkpt>
      <trkpt lat="53.54609333333333" lon="10.006846666666666">
        <ele>13.811531588541179</ele>
        <time>2024-08-21T17:23:59.578Z</time>
      </trkpt>
      <trkpt lat="53.546384999999994" lon="10.006918333333335">
        <ele>18.311598804602774</ele>
        <time>2024-08-21T17:24:24.569Z</time>
      </trkpt>
      <trkpt lat="53.54665333333334" lon="10.00713">
        <ele>12.411837950038098</ele>
        <time>2024-08-21T17:25:05.566Z</time>
      </trkpt>
      <trkpt lat="53.54677333333334" lon="10.007106666666665">
        <ele>11.911820019545594</ele>
        <time>2024-08-21T17:25:17.575Z</time>
      </trkpt>
      <trkpt lat="53.546870000000006" lon="10.006490000000001">
        <ele>4.011080354755258</ele>
        <time>2024-08-21T17:26:05.569Z</time>
      </trkpt>
      <trkpt lat="53.54684833333334" lon="10.006335">
        <ele>5.810877402139667</ele>
        <time>2024-08-21T17:26:14.591Z</time>
      </trkpt>
      <trkpt lat="53.54690000000001" lon="10.006261666666667">
        <ele>7.310788338445484</ele>
        <time>2024-08-21T17:26:27.575Z</time>
      </trkpt>
      <trkpt lat="53.54685500000001" lon="10.006063333333334">
        <ele>10.710547499997716</ele>
        <time>2024-08-21T17:26:39.584Z</time>
      </trkpt>
      <trkpt lat="53.546815" lon="10.006053333333334">
        <ele>15.210517748127884</ele>
        <time>2024-08-21T17:26:44.615Z</time>
      </trkpt>
      <trkpt lat="53.54686166666667" lon="10.006286666666666">
        <ele>14.1107887992693</ele>
        <time>2024-08-21T17:27:09.605Z</time>
      </trkpt>
      <trkpt lat="53.54709" lon="10.00634">
        <ele>14.310849368017536</ele>
        <time>2024-08-21T17:27:25.589Z</time>
      </trkpt>
      <trkpt lat="53.54711833333334" lon="10.006316666666667">
        <ele>15.210818834440431</ele>
        <time>2024-08-21T17:27:28.594Z</time>
      </trkpt>
      <trkpt lat="53.54703333333334" lon="10.005936666666665">
        <ele>12.31039240420823</ele>
        <time>2024-08-21T17:27:56.563Z</time>
      </trkpt>
      <trkpt lat="53.54698666666666" lon="10.006018333333333">
        <ele>13.310434797419369</ele>
        <time>2024-08-21T17:28:38.559Z</time>
      </trkpt>
      <trkpt lat="53.54703500000001" lon="10.005918333333334">
        <ele>12.010342053152414</ele>
        <time>2024-08-21T17:29:56.559Z</time>
      </trkpt>
      <trkpt lat="53.54708000000001" lon="10.006176666666667">
        <ele>12.210639704605853</ele>
        <time>2024-08-21T17:31:19.558Z</time>
      </trkpt>
      <trkpt lat="53.54722666666667" lon="10.006213333333333">
        <ele>11.110683253882861</ele>
        <time>2024-08-21T17:31:40.569Z</time>
      </trkpt>
      <trkpt lat="53.54723333333333" lon="10.00611">
        <ele>10.610580335670242</ele>
        <time>2024-08-21T17:31:47.586Z</time>
      </trkpt>
      <trkpt lat="53.54716333333334" lon="10.005898333333333">
        <ele>15.210305062973887</ele>
        <time>2024-08-21T17:32:08.556Z</time>
      </trkpt>
      <trkpt lat="53.547288333333334" lon="10.006229999999999">
        <ele>14.610695793219264</ele>
        <time>2024-08-21T17:32:34.578Z</time>
      </trkpt>
      <trkpt lat="53.54755166666667" lon="10.006265">
        <ele>11.710729593847148</ele>
        <time>2024-08-21T17:33:07.571Z</time>
      </trkpt>
      <trkpt lat="53.547758333333334" lon="10.006416666666667">
        <ele>12.510894083415813</ele>
        <time>2024-08-21T17:33:37.559Z</time>
      </trkpt>
      <trkpt lat="53.548199999999994" lon="10.006558333333334">
        <ele>10.111041030090902</ele>
        <time>2024-08-21T17:34:17.595Z</time>
      </trkpt>
      <trkpt lat="53.54829333333334" lon="10.006485">
        <ele>7.110949067269523</ele>
        <time>2024-08-21T17:34:37.601Z</time>
      </trkpt>
      <trkpt lat="53.54901499999999" lon="10.00666">
        <ele>8.011114365553766</ele>
        <time>2024-08-21T17:36:12.599Z</time>
      </trkpt>
      <trkpt lat="53.54899" lon="10.006561666666666">
        <ele>8.511096414652918</ele>
        <time>2024-08-21T17:36:29.558Z</time>
      </trkpt>
      <trkpt lat="53.548874999999995" lon="10.006523333333332">
        <ele>14.410967765301514</ele>
        <time>2024-08-21T17:36:42.552Z</time>
      </trkpt>
      <trkpt lat="53.54890999999999" lon="10.006525">
        <ele>14.310960016889261</ele>
        <time>2024-08-21T17:36:48.562Z</time>
      </trkpt>
      <trkpt lat="53.54920833333334" lon="10.006601666666667">
        <ele>14.011030573281133</ele>
        <time>2024-08-21T17:37:31.579Z</time>
      </trkpt>
      <trkpt lat="53.54950333333333" lon="10.006766666666666">
        <ele>9.111203596207034</ele>
        <time>2024-08-21T17:38:28.602Z</time>
      </trkpt>
      <trkpt lat="53.54975833333333" lon="10.006795">
        <ele>14.61123237591378</ele>
        <time>2024-08-21T17:38:53.588Z</time>
      </trkpt>
      <trkpt lat="53.54985" lon="10.006795">
        <ele>19.01122957550575</ele>
        <time>2024-08-21T17:39:02.588Z</time>
      </trkpt>
      <trkpt lat="53.54987333333334" lon="10.006651666666667">
        <ele>21.011071440057535</ele>
        <time>2024-08-21T17:39:09.601Z</time>
      </trkpt>
      <trkpt lat="53.550085" lon="10.006606666666666">
        <ele>22.710984456979283</ele>
        <time>2024-08-21T17:39:36.596Z</time>
      </trkpt>
      <trkpt lat="53.55032500000001" lon="10.007735">
        <ele>16.71234458462517</ele>
        <time>2024-08-21T17:41:11.595Z</time>
      </trkpt>
      <trkpt lat="53.55018833333334" lon="10.007916666666667">
        <ele>16.21256473697448</ele>
        <time>2024-08-21T17:41:33.553Z</time>
      </trkpt>
      <trkpt lat="53.55010833333334" lon="10.007933333333334">
        <ele>17.4126030685604</ele>
        <time>2024-08-21T17:41:43.553Z</time>
      </trkpt>
      <trkpt lat="53.55005833333333" lon="10.008051666666667">
        <ele>16.612745127276035</ele>
        <time>2024-08-21T17:42:02.556Z</time>
      </trkpt>
      <trkpt lat="53.550171666666664" lon="10.008085">
        <ele>13.412779705494557</ele>
        <time>2024-08-21T17:44:15.559Z</time>
      </trkpt>
      <trkpt lat="53.550246666666666" lon="10.008201666666668">
        <ele>15.512917030547648</ele>
        <time>2024-08-21T17:44:32.598Z</time>
      </trkpt>
      <trkpt lat="53.550340000000006" lon="10.008123333333334">
        <ele>14.912831686260425</ele>
        <time>2024-08-21T17:44:42.588Z</time>
      </trkpt>
      <trkpt lat="53.55037833333334" lon="10.008176666666666">
        <ele>14.512867979745437</ele>
        <time>2024-08-21T17:44:47.584Z</time>
      </trkpt>
      <trkpt lat="53.55052166666666" lon="10.008936666666667">
        <ele>14.013804309971093</ele>
        <time>2024-08-21T17:45:46.565Z</time>
      </trkpt>
      <trkpt lat="53.55058166666666" lon="10.009023333333333">
        <ele>14.213890469844287</ele>
        <time>2024-08-21T17:46:15.585Z</time>
      </trkpt>
      <trkpt lat="53.550776666666664" lon="10.00895">
        <ele>13.013800500793543</ele>
        <time>2024-08-21T17:46:53.584Z</time>
      </trkpt>
      <trkpt lat="53.550843333333326" lon="10.009251666666668">
        <ele>11.714146801727992</ele>
        <time>2024-08-21T17:47:15.589Z</time>
      </trkpt>
      <trkpt lat="53.550934999999996" lon="10.009435">
        <ele>8.414375381387572</ele>
        <time>2024-08-21T17:47:38.594Z</time>
      </trkpt>
      <trkpt lat="53.55092166666667" lon="10.009591666666667">
        <ele>6.1145692608955</ele>
        <time>2024-08-21T17:47:49.601Z</time>
      </trkpt>
      <trkpt lat="53.551028333333335" lon="10.01009">
        <ele>13.015140588749034</ele>
        <time>2024-08-21T17:49:12.556Z</time>
      </trkpt>
      <trkpt lat="53.551035" lon="10.010001666666666">
        <ele>17.815079493986836</ele>
        <time>2024-08-21T17:49:30.558Z</time>
      </trkpt>
      <trkpt lat="53.55109666666667" lon="10.010101666666666">
        <ele>16.41519409069339</ele>
        <time>2024-08-21T17:49:58.559Z</time>
      </trkpt>
      <trkpt lat="53.55155500000001" lon="10.009708333333332">
        <ele>3.3146923762945733</ele>
        <time>2024-08-21T17:51:20.594Z</time>
      </trkpt>
      <trkpt lat="53.55178666666667" lon="10.009678333333333">
        <ele>5.2146370536787</ele>
        <time>2024-08-21T17:51:47.604Z</time>
      </trkpt>
      <trkpt lat="53.552029999999995" lon="10.00984">
        <ele>10.21479876439156</ele>
        <time>2024-08-21T17:52:11.592Z</time>
      </trkpt>
      <trkpt lat="53.552216666666666" lon="10.010281666666666">
        <ele>19.915338054007023</ele>
        <time>2024-08-21T17:52:50.188Z</time>
      </trkpt>
      <trkpt lat="53.55238799139664" lon="10.010211950812732">
        <ele>12.46074657468209</ele>
        <time>2024-08-21T17:53:06.875Z</time>
      </trkpt>
      <trkpt lat="53.552555281292314" lon="10.009673909186091">
        <ele>14.083644262934408</ele>
        <time>2024-08-21T17:53:41.111Z</time>
      </trkpt>
      <trkpt lat="53.552728333333334" lon="10.009351666666667">
        <ele>14.7494569869335</ele>
        <time>2024-08-21T17:54:05.543Z</time>
      </trkpt>
      <trkpt lat="53.55271333333334" lon="10.009401666666667">
        <ele>17.714232905666677</ele>
        <time>2024-08-21T17:54:26.572Z</time>
      </trkpt>
      <trkpt lat="53.55278333333334" lon="10.009426666666666">
        <ele>17.014249574004374</ele>
        <time>2024-08-21T17:54:34.588Z</time>
      </trkpt>
      <trkpt lat="53.55287166666667" lon="10.009596666666665">
        <ele>16.71441039598502</ele>
        <time>2024-08-21T17:54:39.585Z</time>
      </trkpt>
      <trkpt lat="53.55302333333334" lon="10.009631666666667">
        <ele>16.614514650232856</ele>
        <time>2024-08-21T17:54:59.011Z</time>
      </trkpt>
      <trkpt lat="53.55244251005243" lon="10.01005079568992">
        <ele>12.700000000000728</ele>
        <time>2024-08-21T17:56:19.205Z</time>
      </trkpt>
      <trkpt lat="53.552591666666665" lon="10.009228333333335">
        <ele>15</ele>
        <time>2024-08-21T17:57:24.034Z</time>
      </trkpt>
      <trkpt lat="53.55254166666667" lon="10.008343333333332">
        <ele>12.413054324165323</ele>
        <time>2024-08-21T17:58:32.586Z</time>
      </trkpt>
      <trkpt lat="53.552681666666665" lon="10.008218333333334">
        <ele>13.612804048654112</ele>
        <time>2024-08-21T17:58:48.552Z</time>
      </trkpt>
      <trkpt lat="53.55271" lon="10.007965">
        <ele>24.512481689851597</ele>
        <time>2024-08-21T17:59:19.578Z</time>
      </trkpt>
      <trkpt lat="53.55322833333333" lon="10.007765000000001">
        <ele>16.412197641048508</ele>
        <time>2024-08-21T18:00:51.589Z</time>
      </trkpt>
      <trkpt lat="53.553176666666666" lon="10.007855000000001">
        <ele>15.91230266252115</ele>
        <time>2024-08-21T18:01:13.582Z</time>
      </trkpt>
      <trkpt lat="53.55326" lon="10.007781666666666">
        <ele>16.912226453695013</ele>
        <time>2024-08-21T18:01:30.588Z</time>
      </trkpt>
      <trkpt lat="53.553313333333335" lon="10.007408333333332">
        <ele>19.11177996909116</ele>
        <time>2024-08-21T18:01:56.592Z</time>
      </trkpt>
      <trkpt lat="53.55312833333334" lon="10.007431666666667">
        <ele>21.611780056698535</ele>
        <time>2024-08-21T18:02:10.596Z</time>
      </trkpt>
      <trkpt lat="53.552996666666665" lon="10.007681666666667">
        <ele>27.512101641831016</ele>
        <time>2024-08-21T18:02:30.584Z</time>
      </trkpt>
      <trkpt lat="53.55288833333334" lon="10.007681666666667">
        <ele>33.412112947243926</ele>
        <time>2024-08-21T18:02:49.611Z</time>
      </trkpt>
      <trkpt lat="53.552818333333335" lon="10.007606666666668">
        <ele>32.712041671072626</ele>
        <time>2024-08-21T18:02:59.601Z</time>
      </trkpt>
      <trkpt lat="53.55278166666667" lon="10.007695">
        <ele>32.91212780657479</ele>
        <time>2024-08-21T18:03:06.608Z</time>
      </trkpt>
      <trkpt lat="53.55246666666667" lon="10.00779">
        <ele>28.412273917933753</ele>
        <time>2024-08-21T18:03:49.598Z</time>
      </trkpt>
      <trkpt lat="53.55233166666667" lon="10.007958333333333">
        <ele>23.21247234789338</ele>
        <time>2024-08-21T18:04:26.602Z</time>
      </trkpt>
      <trkpt lat="53.55242499999999" lon="10.007866666666667">
        <ele>20.712397712847633</ele>
        <time>2024-08-21T18:04:51.588Z</time>
      </trkpt>
      <trkpt lat="53.55245" lon="10.008006666666667">
        <ele>21.712508585163015</ele>
        <time>2024-08-21T18:04:56.596Z</time>
      </trkpt>
      <trkpt lat="53.55240833333334" lon="10.008106666666666">
        <ele>21.312675669393485</ele>
        <time>2024-08-21T18:05:04.605Z</time>
      </trkpt>
      <trkpt lat="53.55237833333334" lon="10.00774">
        <ele>18.512269778546347</ele>
        <time>2024-08-21T18:05:15.594Z</time>
      </trkpt>
      <trkpt lat="53.552433333333326" lon="10.007618333333333">
        <ele>17.51218190896097</ele>
        <time>2024-08-21T18:05:27.596Z</time>
      </trkpt>
      <trkpt lat="53.55231333333333" lon="10.007248333333333">
        <ele>24.511649259845456</ele>
        <time>2024-08-21T18:05:45.598Z</time>
      </trkpt>
      <trkpt lat="53.55238666666667" lon="10.007249999999999">
        <ele>26.011631451252633</ele>
        <time>2024-08-21T18:05:52.598Z</time>
      </trkpt>
      <trkpt lat="53.55242499999999" lon="10.00717">
        <ele>27.11153679247959</ele>
        <time>2024-08-21T18:05:56.598Z</time>
      </trkpt>
      <trkpt lat="53.552443333333336" lon="10.007001666666667">
        <ele>29.111330546562954</ele>
        <time>2024-08-21T18:06:14.582Z</time>
      </trkpt>
      <trkpt lat="53.55249333333333" lon="10.007021666666667">
        <ele>31.211328203234196</ele>
        <time>2024-08-21T18:06:29.592Z</time>
      </trkpt>
      <trkpt lat="53.55245333333334" lon="10.007011666666667">
        <ele>31.911317759614327</ele>
        <time>2024-08-21T18:06:38.598Z</time>
      </trkpt>
      <trkpt lat="53.55246666666667" lon="10.006921666666667">
        <ele>32.71131292917651</ele>
        <time>2024-08-21T18:06:48.595Z</time>
      </trkpt>
      <trkpt lat="53.55240833333334" lon="10.006816666666667">
        <ele>32.011104124634954</ele>
        <time>2024-08-21T18:06:54.595Z</time>
      </trkpt>
      <trkpt lat="53.552401666666675" lon="10.006885">
        <ele>31.411167767286464</ele>
        <time>2024-08-21T18:07:03.592Z</time>
      </trkpt>
      <trkpt lat="53.55224333333334" lon="10.006723333333333">
        <ele>30.810992003704612</ele>
        <time>2024-08-21T18:07:16.598Z</time>
      </trkpt>
      <trkpt lat="53.552254999999995" lon="10.006563333333334">
        <ele>31.01080738449202</ele>
        <time>2024-08-21T18:07:27.596Z</time>
      </trkpt>
      <trkpt lat="53.552135" lon="10.006303333333333">
        <ele>24.11048822851754</ele>
        <time>2024-08-21T18:07:54.595Z</time>
      </trkpt>
      <trkpt lat="53.552118333333325" lon="10.006454999999999">
        <ele>22.710642881292266</ele>
        <time>2024-08-21T18:08:06.599Z</time>
      </trkpt>
      <trkpt lat="53.55219" lon="10.006586666666667">
        <ele>24.710819930965776</ele>
        <time>2024-08-21T18:08:35.598Z</time>
      </trkpt>
      <trkpt lat="53.55210999999999" lon="10.006535000000001">
        <ele>24.710763117109828</ele>
        <time>2024-08-21T18:08:49.599Z</time>
      </trkpt>
      <trkpt lat="53.55219166666667" lon="10.006375">
        <ele>24.71058118143913</ele>
        <time>2024-08-21T18:08:59.595Z</time>
      </trkpt>
      <trkpt lat="53.55184166666666" lon="10.006278333333334">
        <ele>22.81047820335337</ele>
        <time>2024-08-21T18:09:29.767Z</time>
      </trkpt>
      <trkpt lat="53.55190833333333" lon="10.005055">
        <ele>26.108965282554735</ele>
        <time>2024-08-21T18:13:05.944Z</time>
      </trkpt>
      <trkpt lat="53.55182666666666" lon="10.005055">
        <ele>23.808993699701375</ele>
        <time>2024-08-21T18:13:24.927Z</time>
      </trkpt>
      <trkpt lat="53.55174333333333" lon="10.004695">
        <ele>21.508531625300847</ele>
        <time>2024-08-21T18:14:06.235Z</time>
      </trkpt>
      <trkpt lat="53.55202130729796" lon="10.004328498931613">
        <ele>23.09452685610342</ele>
        <time>2024-08-21T18:15:15.872Z</time>
      </trkpt>
      <trkpt lat="53.55238183456149" lon="10.004154069382565">
        <ele>20.928345118044206</ele>
        <time>2024-08-21T18:16:44.580Z</time>
      </trkpt>
      <trkpt lat="53.55197645527497" lon="10.00273687513581">
        <ele>26</ele>
        <time>2024-08-21T18:20:13.540Z</time>
      </trkpt>
      <trkpt lat="53.55203882157153" lon="10.002684386459606">
        <ele>25.382440439752827</ele>
        <time>2024-08-21T18:20:25.393Z</time>
      </trkpt>
      <trkpt lat="53.55276666666667" lon="10.005098333333333">
        <ele>18.600000000000364</ele>
        <time>2024-08-21T18:24:58.818Z</time>
      </trkpt>
      <trkpt lat="53.552915" lon="10.005171666666666">
        <ele>20.90905128088297</ele>
        <time>2024-08-21T18:26:11.938Z</time>
      </trkpt>
      <trkpt lat="53.55294666666667" lon="10.005329999999999">
        <ele>17.70922003377013</ele>
        <time>2024-08-21T18:26:24.933Z</time>
      </trkpt>
      <trkpt lat="53.55302333333334" lon="10.0054">
        <ele>17.109307395669603</ele>
        <time>2024-08-21T18:26:35.934Z</time>
      </trkpt>
      <trkpt lat="53.55315666666667" lon="10.005455000000001">
        <ele>18.909370465630474</ele>
        <time>2024-08-21T18:26:52.954Z</time>
      </trkpt>
      <trkpt lat="53.55326333333334" lon="10.005398333333334">
        <ele>17.10930207436114</ele>
        <time>2024-08-21T18:27:12.926Z</time>
      </trkpt>
      <trkpt lat="53.553315000000005" lon="10.005466666666667">
        <ele>15.609352489888366</ele>
        <time>2024-08-21T18:27:17.901Z</time>
      </trkpt>
      <trkpt lat="53.55335651828565" lon="10.005874291721767">
        <ele>16.796413164540553</ele>
        <time>2024-08-21T18:27:52.372Z</time>
      </trkpt>
      <trkpt lat="53.55332333333334" lon="10.00588">
        <ele>16.85626879986514</ele>
        <time>2024-08-21T18:27:56.986Z</time>
      </trkpt>
      <trkpt lat="53.553293979291624" lon="10.005771601938847">
        <ele>16.147343084682245</ele>
        <time>2024-08-21T18:28:32.633Z</time>
      </trkpt>
      <trkpt lat="53.55335214258329" lon="10.006026253452461">
        <ele>16.900000000001455</ele>
        <time>2024-08-21T18:29:22.539Z</time>
      </trkpt>
      <trkpt lat="53.553261877468685" lon="10.006212192074287">
        <ele>18.587390454439802</ele>
        <time>2024-08-21T18:30:05.443Z</time>
      </trkpt>
      <trkpt lat="53.553219999999996" lon="10.00613">
        <ele>18.757054403331352</ele>
        <time>2024-08-21T18:30:23.134Z</time>
      </trkpt>
      <trkpt lat="53.553179682244746" lon="10.005480028348785">
        <ele>16.203981601121114</ele>
        <time>2024-08-21T18:30:41.292Z</time>
      </trkpt>
      <trkpt lat="53.553272134297" lon="10.00548228699401">
        <ele>15.455553982376763</ele>
        <time>2024-08-21T18:30:45.616Z</time>
      </trkpt>
      <trkpt lat="53.55330666666667" lon="10.005573333333333">
        <ele>15.860353950225946</ele>
        <time>2024-08-21T18:30:48.617Z</time>
      </trkpt>
      <trkpt lat="53.55327130995761" lon="10.005738299498887">
        <ele>16.336493836437473</ele>
        <time>2024-08-21T18:31:17.557Z</time>
      </trkpt>
      <trkpt lat="53.553336722162896" lon="10.00574504684326">
        <ele>15.875818308257244</ele>
        <time>2024-08-21T18:31:25.869Z</time>
      </trkpt>
      <trkpt lat="53.553608333333344" lon="10.006256666666667">
        <ele>15.050278306287442</ele>
        <time>2024-08-21T18:32:26.842Z</time>
      </trkpt>
      <trkpt lat="53.55368" lon="10.006691666666667">
        <ele>52.01083891993969</ele>
        <time>2024-08-21T18:32:35.916Z</time>
      </trkpt>
      <trkpt lat="53.55361500000001" lon="10.006813333333334">
        <ele>16.801860991260746</ele>
        <time>2024-08-21T18:32:39.205Z</time>
      </trkpt>
      <trkpt lat="53.55361166666667" lon="10.006928333333333">
        <ele>58.011143904026504</ele>
        <time>2024-08-21T18:33:33.764Z</time>
      </trkpt>
      <trkpt lat="53.553765000000006" lon="10.007441666666667">
        <ele>53.71171480110952</ele>
        <time>2024-08-21T18:34:18.751Z</time>
      </trkpt>
      <trkpt lat="53.55375833333333" lon="10.00773">
        <ele>47.01212483575591</ele>
        <time>2024-08-21T18:34:27.748Z</time>
      </trkpt>
      <trkpt lat="53.55387" lon="10.007643333333334">
        <ele>31.612011804914417</ele>
        <time>2024-08-21T18:34:52.757Z</time>
      </trkpt>
      <trkpt lat="53.55398" lon="10.007778333333333">
        <ele>28.012148347468532</ele>
        <time>2024-08-21T18:35:03.768Z</time>
      </trkpt>
      <trkpt lat="53.554373333333324" lon="10.008011666666667">
        <ele>15.212423008881451</ele>
        <time>2024-08-21T18:35:42.754Z</time>
      </trkpt>
      <trkpt lat="53.555335" lon="10.007716666666665">
        <ele>24.812023553681655</ele>
        <time>2024-08-21T18:37:16.737Z</time>
      </trkpt>
      <trkpt lat="53.55538" lon="10.007816666666667">
        <ele>25.812110745008894</ele>
        <time>2024-08-21T18:37:22.725Z</time>
      </trkpt>
      <trkpt lat="53.555690000000006" lon="10.007816666666667">
        <ele>25.712118876924478</ele>
        <time>2024-08-21T18:37:46.985Z</time>
      </trkpt>
      <trkpt lat="53.55604376189467" lon="10.007624939398482">
        <ele>16.541962115140784</ele>
        <time>2024-08-21T18:38:44.087Z</time>
      </trkpt>
      <trkpt lat="53.55614057435747" lon="10.007690943946585">
        <ele>16.5</ele>
        <time>2024-08-21T18:39:00.109Z</time>
      </trkpt>
      <trkpt lat="53.55629602882226" lon="10.007889607857834">
        <ele>14.800000000001093</ele>
        <time>2024-08-21T18:39:30.047Z</time>
      </trkpt>
      <trkpt lat="53.55620305675467" lon="10.00814655305993">
        <ele>15.401269570878583</ele>
        <time>2024-08-21T18:39:58.395Z</time>
      </trkpt>
      <trkpt lat="53.55600572748338" lon="10.008000804301162">
        <ele>15.900000000001455</ele>
        <time>2024-08-21T18:40:32.575Z</time>
      </trkpt>
      <trkpt lat="53.555691666666675" lon="10.008796666666665">
        <ele>14.3373783120187</ele>
        <time>2024-08-21T18:42:02.605Z</time>
      </trkpt>
      <trkpt lat="53.55667333333334" lon="10.010178333333332">
        <ele>11.21493448826537</ele>
        <time>2024-08-21T19:38:11.923Z</time>
      </trkpt>
      <trkpt lat="53.55737166666666" lon="10.010955">
        <ele>6.515805154916194</ele>
        <time>2024-08-21T19:40:38.326Z</time>
      </trkpt>
      <trkpt lat="53.55745526060747" lon="10.011270820627487">
        <ele>12.767703018595057</ele>
        <time>2024-08-21T19:41:14.251Z</time>
      </trkpt>
      <trkpt lat="53.55742359929778" lon="10.01134080073794">
        <ele>12.900000000001455</ele>
        <time>2024-08-21T19:41:23.390Z</time>
      </trkpt>
      <trkpt lat="53.557348842005155" lon="10.011280710031144">
        <ele>12.900000000001455</ele>
        <time>2024-08-21T19:41:49.136Z</time>
      </trkpt>
      <trkpt lat="53.557315" lon="10.011165">
        <ele>20.516022655720874</ele>
        <time>2024-08-21T19:42:13.723Z</time>
      </trkpt>
    </trkseg>
  </trk>
  <trk>
    <extensions>
      <gpx_style:line>
        <color>ff0000</color>
      </gpx_style:line>
    </extensions>
    <trkseg>
      <trkpt lat="53.54921473050561" lon="9.978532368595864">
        <ele>32</ele>
      </trkpt>
      <trkpt lat="53.549269690662186" lon="9.977996813299512">
        <ele>29.42342048958063</ele>
      </trkpt>
      <trkpt lat="53.54775207989155" lon="9.978282512305583">
        <ele>24.600000000000367</ele>
      </trkpt>
      <trkpt lat="53.54691661293154" lon="9.978129982891119">
        <ele>9.100000000000364</ele>
      </trkpt>
      <trkpt lat="53.5465468736503" lon="9.978140126707018">
        <ele>9</ele>
      </trkpt>
      <trkpt lat="53.546943770537126" lon="9.977944323495024">
        <ele>9.514028750110285</ele>
      </trkpt>
      <trkpt lat="53.54701238955269" lon="9.97672344567718">
        <ele>12.946288584545957</ele>
      </trkpt>
      <trkpt lat="53.546938863742696" lon="9.97433763990756">
        <ele>14.325606853269718</ele>
      </trkpt>
      <trkpt lat="53.5469829424882" lon="9.973677828734054">
        <ele>18.022126728575756</ele>
      </trkpt>
      <trkpt lat="53.54755639745315" lon="9.972720924497963">
        <ele>20.5</ele>
      </trkpt>
      <trkpt lat="53.54738086484264" lon="9.970337772800264">
        <ele>21.80000000000109</ele>
      </trkpt>
      <trkpt lat="53.54726615913589" lon="9.970344317060352">
        <ele>22.5</ele>
      </trkpt>
      <trkpt lat="53.54694342615812" lon="9.969853497505738">
        <ele>27.836654475471455</ele>
      </trkpt>
      <trkpt lat="53.546741230749575" lon="9.969843681114895">
        <ele>29.100000000000364</ele>
      </trkpt>
      <trkpt lat="53.546585695162634" lon="9.969379038603336">
        <ele>29.48323653968348</ele>
      </trkpt>
      <trkpt lat="53.54657630978687" lon="9.969153300276275">
        <ele>28.90000000000145</ele>
      </trkpt>
      <trkpt lat="53.54650059407848" lon="9.969102654571884">
        <ele>28.203562849760925</ele>
      </trkpt>
      <trkpt lat="53.546587958345015" lon="9.968934380138506">
        <ele>27.758651811350553</ele>
      </trkpt>
      <trkpt lat="53.54638410810969" lon="9.968918042814352">
        <ele>22.40000000000145</ele>
      </trkpt>
      <trkpt lat="53.54628509478371" lon="9.969118991896067">
        <ele>19.354060637255735</ele>
      </trkpt>
      <trkpt lat="53.546166666776145" lon="9.969122259361143">
        <ele>17.44684463767357</ele>
      </trkpt>
      <trkpt lat="53.54608451284747" lon="9.969769567831463">
        <ele>12.660976764258324</ele>
      </trkpt>
      <trkpt lat="53.545811203482884" lon="9.969644587195774">
        <ele>7.022174818441353</ele>
      </trkpt>
      <trkpt lat="53.54573655302417" lon="9.969950900196181">
        <ele>5.4350992353533805</ele>
      </trkpt>
      <trkpt lat="53.545099666942576" lon="9.969850367762234">
        <ele>4</ele>
      </trkpt>
      <trkpt lat="53.54537580970785" lon="9.963492893200453">
        <ele>0.11677417792301271</ele>
      </trkpt>
      <trkpt lat="53.54610252831014" lon="9.963355438703758">
        <ele>9.328307042644155</ele>
      </trkpt>
      <trkpt lat="53.546865454227145" lon="9.96293948899347">
        <ele>18.71639135163423</ele>
      </trkpt>
      <trkpt lat="53.546749426596534" lon="9.959849675902575">
        <ele>14.200000000000728</ele>
      </trkpt>
      <trkpt lat="53.54812082266068" lon="9.959623059951838">
        <ele>16.803799360153405</ele>
      </trkpt>
      <trkpt lat="53.5484358208937" lon="9.959263912242392">
        <ele>16.600000000000364</ele>
      </trkpt>
      <trkpt lat="53.54778244429261" lon="9.957403890678421">
        <ele>16.700000000000728</ele>
      </trkpt>
      <trkpt lat="53.54802226228338" lon="9.95628448538318">
        <ele>13.20000000000073</ele>
      </trkpt>
      <trkpt lat="53.54878932814245" lon="9.95757279594605">
        <ele>20.555141221080653</ele>
      </trkpt>
    </trkseg>
  </trk>
</gpx>
