<?xml version="1.0" encoding="UTF-8"?>
<gpx version="1.1" creator="Export" xmlns="http://www.topografix.com/GPX/1/1" xmlns:xsi="http://www.w3.org/2001/XMLSchema-instance" xsi:schemaLocation="http://www.topografix.com/GPX/1/1 http://www.topografix.com/GPX/1/1/gpx.xsd http://www.garmin.com/xmlschemas/GpxExtensions/v3 http://www.garmin.com/xmlschemas/GpxExtensionsv3.xsd http://www.garmin.com/xmlschemas/TrackPointExtension/v1 http://www.garmin.com/xmlschemas/TrackPointExtensionv1.xsd http://www.garmin.com/xmlschemas/PowerExtension/v1 http://www.garmin.com/xmlschemas/PowerExtensionv1.xsd http://www.topografix.com/GPX/gpx_style/0/2 http://www.topografix.com/GPX/gpx_style/0/2/gpx_style.xsd" xmlns:gpxtpx="http://www.garmin.com/xmlschemas/TrackPointExtension/v1" xmlns:gpxx="http://www.garmin.com/xmlschemas/GpxExtensions/v3" xmlns:gpxpx="http://www.garmin.com/xmlschemas/PowerExtension/v1" xmlns:gpx_style="http://www.topografix.com/GPX/gpx_style/0/2">
  <metadata>
    <name>activity_190_2024-09-07</name>
    <author>
      <name>gpx.studio</name>
      <link href="https://gpx.studio"/>
    </author>
  </metadata>
  <wpt lat="38.715082" lon="-9.14757">
    <ele>73.47687105905636</ele>
    <name>Cusca Cafe</name>
    <sym>Restaurant</sym>
  </wpt>
  <wpt lat="38.720821" lon="-9.153485">
    <ele>83.50862561905807</ele>
    <name>Continente Bom Dia</name>
    <sym>Shopping Center</sym>
  </wpt>
  <wpt lat="38.7338841697414" lon="-9.144041904194523">
    <ele>95.55523952534534</ele>
    <name>DejaVu Saldanha Kiosk</name>
    <sym>Restaurant</sym>
  </wpt>
  <wpt lat="38.731504" lon="-9.14818">
    <ele>85.374312802591</ele>
    <name>Hostel</name>
    <sym>Lodging</sym>
  </wpt>
  <wpt lat="38.731755" lon="-9.148288">
    <ele>89.18274889187938</ele>
    <name>Hostel</name>
    <sym>Lodging</sym>
  </wpt>
  <wpt lat="38.715928" lon="-9.14393">
    <ele>43.30496871232661</ele>
    <name>Hostel</name>
    <sym>Lodging</sym>
  </wpt>
  <trk>
    <name>activity_190_2024-09-07</name>
    <extensions>
      <gpx_style:line>
        <gpx_style:color>ff0000</gpx_style:color>
      </gpx_style:line>
    </extensions>
    <trkseg>
      <trkpt lat="38.71594042724894" lon="-9.143912708797302">
        <ele>42.83183731990735</ele>
        <time>2024-09-07T09:41:07.784Z</time>
      </trkpt>
      <trkpt lat="38.716006080660605" lon="-9.143833373575205">
        <ele>41.23315780754138</ele>
        <time>2024-09-07T09:41:19.935Z</time>
      </trkpt>
      <trkpt lat="38.715765976460204" lon="-9.143633833470574">
        <ele>38.61720163817599</ele>
        <time>2024-09-07T09:41:58.470Z</time>
      </trkpt>
      <trkpt lat="38.71551602423182" lon="-9.143712303958836">
        <ele>44.09332680822547</ele>
        <time>2024-09-07T09:42:33.124Z</time>
      </trkpt>
      <trkpt lat="38.71504519091357" lon="-9.143493531073887">
        <ele>47.158863489679725</ele>
        <time>2024-09-07T09:43:40.563Z</time>
      </trkpt>
      <trkpt lat="38.714202935529215" lon="-9.143986371090705">
        <ele>68.56521574549606</ele>
        <time>2024-09-07T09:45:45.391Z</time>
      </trkpt>
      <trkpt lat="38.71553500720688" lon="-9.144782945122301">
        <ele>72.46672020754693</ele>
        <time>2024-09-07T09:49:04.076Z</time>
      </trkpt>
      <trkpt lat="38.71571666666667" lon="-9.145975">
        <ele>92.60128938894665</ele>
        <time>2024-09-07T09:50:44.139Z</time>
      </trkpt>
      <trkpt lat="38.71565333333333" lon="-9.145991666666667">
        <ele>92.30145817855677</ele>
        <time>2024-09-07T09:50:49.148Z</time>
      </trkpt>
      <trkpt lat="38.715925" lon="-9.145841666666666">
        <ele>85.20077805572319</ele>
        <time>2024-09-07T09:51:03.148Z</time>
      </trkpt>
      <trkpt lat="38.715875" lon="-9.145925">
        <ele>79.9009538494788</ele>
        <time>2024-09-07T09:51:10.142Z</time>
      </trkpt>
      <trkpt lat="38.71597166666666" lon="-9.145900000000001">
        <ele>85.90091810741774</ele>
        <time>2024-09-07T09:51:30.145Z</time>
      </trkpt>
      <trkpt lat="38.716015" lon="-9.145816666666667">
        <ele>91.90053586266785</ele>
        <time>2024-09-07T09:51:38.144Z</time>
      </trkpt>
      <trkpt lat="38.71597" lon="-9.145913333333334">
        <ele>92.20076182632113</ele>
        <time>2024-09-07T09:52:01.139Z</time>
      </trkpt>
      <trkpt lat="38.715828333333334" lon="-9.14594">
        <ele>91.30102305530335</ele>
        <time>2024-09-07T09:52:10.131Z</time>
      </trkpt>
      <trkpt lat="38.71584666666667" lon="-9.146058333333334">
        <ele>91.40125325139918</ele>
        <time>2024-09-07T09:52:14.147Z</time>
      </trkpt>
      <trkpt lat="38.71575333333333" lon="-9.146005">
        <ele>88.40130968214788</ele>
        <time>2024-09-07T09:52:18.162Z</time>
      </trkpt>
      <trkpt lat="38.715655" lon="-9.146099999999999">
        <ele>85.70165198336872</ele>
        <time>2024-09-07T09:52:26.181Z</time>
      </trkpt>
      <trkpt lat="38.715754999999994" lon="-9.146248333333334">
        <ele>85.90181736854258</ele>
        <time>2024-09-07T09:52:39.167Z</time>
      </trkpt>
      <trkpt lat="38.715995" lon="-9.147191666666666">
        <ele>84.60333378328629</ele>
        <time>2024-09-07T09:53:53.172Z</time>
      </trkpt>
      <trkpt lat="38.715934999999995" lon="-9.147201666666666">
        <ele>87.10345783636973</ele>
        <time>2024-09-07T09:54:01.175Z</time>
      </trkpt>
      <trkpt lat="38.715848333333334" lon="-9.1473">
        <ele>92.90379034954802</ele>
        <time>2024-09-07T09:54:17.171Z</time>
      </trkpt>
      <trkpt lat="38.716078333333336" lon="-9.147421666666666">
        <ele>89.30367536704652</ele>
        <time>2024-09-07T09:54:49.175Z</time>
      </trkpt>
      <trkpt lat="38.716075000000004" lon="-9.147706666666666">
        <ele>81.7042482210413</ele>
        <time>2024-09-07T09:57:18.701Z</time>
      </trkpt>
      <trkpt lat="38.71506613302509" lon="-9.147619330466512">
        <ele>72.93504246426745</ele>
        <time>2024-09-07T10:08:38.547Z</time>
      </trkpt>
      <trkpt lat="38.71508280474498" lon="-9.147544077050838">
        <ele>73.65360527579965</ele>
        <time>2024-09-07T10:09:19.588Z</time>
      </trkpt>
      <trkpt lat="38.71474072008334" lon="-9.148667018247465">
        <ele>71.85394818547692</ele>
        <time>2024-09-07T10:10:47.284Z</time>
      </trkpt>
      <trkpt lat="38.71501741778704" lon="-9.14765066112048">
        <ele>72.0910975074251</ele>
        <time>2024-09-07T10:12:34.359Z</time>
      </trkpt>
      <trkpt lat="38.71622333333333" lon="-9.147781666666667">
        <ele>84.40845559748388</ele>
        <time>2024-09-07T10:15:08.644Z</time>
      </trkpt>
      <trkpt lat="38.71634666666667" lon="-9.147955">
        <ele>92.60432188728512</ele>
        <time>2024-09-07T11:06:42.168Z</time>
      </trkpt>
      <trkpt lat="38.7162" lon="-9.148135">
        <ele>86.60494167569098</ele>
        <time>2024-09-07T11:07:00.144Z</time>
      </trkpt>
      <trkpt lat="38.716255000000004" lon="-9.148241666666667">
        <ele>85.4050667941923</ele>
        <time>2024-09-07T11:07:23.141Z</time>
      </trkpt>
      <trkpt lat="38.716316666666664" lon="-9.148325">
        <ele>82.9051341823112</ele>
        <time>2024-09-07T11:08:08.141Z</time>
      </trkpt>
      <trkpt lat="38.716276666666666" lon="-9.148505">
        <ele>80.50555117461256</ele>
        <time>2024-09-07T11:08:24.144Z</time>
      </trkpt>
      <trkpt lat="38.716406666666664" lon="-9.14879">
        <ele>85.30593502982408</ele>
        <time>2024-09-07T11:08:48.149Z</time>
      </trkpt>
      <trkpt lat="38.71637166666667" lon="-9.148873333333334">
        <ele>88.90615777339795</ele>
        <time>2024-09-07T11:09:03.145Z</time>
      </trkpt>
      <trkpt lat="38.716586666666664" lon="-9.14884">
        <ele>83.90576802524068</ele>
        <time>2024-09-07T11:09:34.141Z</time>
      </trkpt>
      <trkpt lat="38.71673" lon="-9.148985000000001">
        <ele>80.30582161025302</ele>
        <time>2024-09-07T11:09:54.141Z</time>
      </trkpt>
      <trkpt lat="38.7169" lon="-9.148963333333334">
        <ele>79.20551742988326</ele>
        <time>2024-09-07T11:10:12.148Z</time>
      </trkpt>
      <trkpt lat="38.71695166666667" lon="-9.149065">
        <ele>82.60558454431113</ele>
        <time>2024-09-07T11:10:22.145Z</time>
      </trkpt>
      <trkpt lat="38.71686166666667" lon="-9.14921">
        <ele>80.10603795505214</ele>
        <time>2024-09-07T11:10:37.142Z</time>
      </trkpt>
      <trkpt lat="38.716856666666665" lon="-9.149121666666668">
        <ele>79.30592396426294</ele>
        <time>2024-09-07T11:10:51.148Z</time>
      </trkpt>
      <trkpt lat="38.716840000000005" lon="-9.149295">
        <ele>78.40625108968948</ele>
        <time>2024-09-07T11:11:10.141Z</time>
      </trkpt>
      <trkpt lat="38.71676166666667" lon="-9.14921">
        <ele>86.50622882078675</ele>
        <time>2024-09-07T11:11:21.178Z</time>
      </trkpt>
      <trkpt lat="38.71617833333333" lon="-9.149433333333333">
        <ele>77.20759780252914</ele>
        <time>2024-09-07T11:12:22.193Z</time>
      </trkpt>
      <trkpt lat="38.71614" lon="-9.1493">
        <ele>78.20741444367486</ele>
        <time>2024-09-07T11:12:35.185Z</time>
      </trkpt>
      <trkpt lat="38.716233333333335" lon="-9.149413333333333">
        <ele>78.40750061828132</ele>
        <time>2024-09-07T11:12:50.191Z</time>
      </trkpt>
      <trkpt lat="38.71709333333333" lon="-9.149146666666667">
        <ele>91.60555382499616</ele>
        <time>2024-09-07T11:14:28.158Z</time>
      </trkpt>
      <trkpt lat="38.71743166666667" lon="-9.15033">
        <ele>82.30739519297353</ele>
        <time>2024-09-07T11:16:03.184Z</time>
      </trkpt>
      <trkpt lat="38.71745833333333" lon="-9.15024">
        <ele>86.50720655307241</ele>
        <time>2024-09-07T11:16:43.147Z</time>
      </trkpt>
      <trkpt lat="38.71741" lon="-9.150401666666665">
        <ele>83.90755939638512</ele>
        <time>2024-09-07T11:17:00.151Z</time>
      </trkpt>
      <trkpt lat="38.717706666666665" lon="-9.151459999999998">
        <ele>86.9091539860701</ele>
        <time>2024-09-07T11:19:34.145Z</time>
      </trkpt>
      <trkpt lat="38.71835" lon="-9.15241">
        <ele>80.41011919103553</ele>
        <time>2024-09-07T11:21:04.145Z</time>
      </trkpt>
      <trkpt lat="38.718489999999996" lon="-9.152498333333334">
        <ele>81.01005981297014</ele>
        <time>2024-09-07T11:21:18.144Z</time>
      </trkpt>
      <trkpt lat="38.71855333333333" lon="-9.15235">
        <ele>80.20970488712359</ele>
        <time>2024-09-07T11:21:26.148Z</time>
      </trkpt>
      <trkpt lat="38.71862833333333" lon="-9.15235">
        <ele>78.70955159422974</ele>
        <time>2024-09-07T11:21:37.144Z</time>
      </trkpt>
      <trkpt lat="38.71866833333333" lon="-9.152148333333335">
        <ele>81.70910378404562</ele>
        <time>2024-09-07T11:21:59.145Z</time>
      </trkpt>
      <trkpt lat="38.719746666666666" lon="-9.150891666666666">
        <ele>67.10477635905212</ele>
        <time>2024-09-07T11:24:12.141Z</time>
      </trkpt>
      <trkpt lat="38.71989666666666" lon="-9.150968333333333">
        <ele>80.70468623305182</ele>
        <time>2024-09-07T11:24:38.158Z</time>
      </trkpt>
      <trkpt lat="38.719858333333335" lon="-9.150614999999998">
        <ele>85.90406915867462</ele>
        <time>2024-09-07T11:25:07.197Z</time>
      </trkpt>
      <trkpt lat="38.720193333333334" lon="-9.15072">
        <ele>89.00369290605968</ele>
        <time>2024-09-07T11:28:11.175Z</time>
      </trkpt>
      <trkpt lat="38.72143666666667" lon="-9.151868333333335">
        <ele>81.3039806671984</ele>
        <time>2024-09-07T11:31:09.158Z</time>
      </trkpt>
      <trkpt lat="38.721295000000005" lon="-9.15223">
        <ele>79.80494440479609</ele>
        <time>2024-09-07T11:31:32.145Z</time>
      </trkpt>
      <trkpt lat="38.72137" lon="-9.152325">
        <ele>76.0049600380097</ele>
        <time>2024-09-07T11:32:06.175Z</time>
      </trkpt>
      <trkpt lat="38.72074773991113" lon="-9.153387292187205">
        <ele>85.87855930082313</ele>
        <time>2024-09-07T11:34:13.466Z</time>
      </trkpt>
      <trkpt lat="38.72081880648284" lon="-9.15348360929346">
        <ele>83.55978599179846</ele>
        <time>2024-09-07T11:34:27.328Z</time>
      </trkpt>
      <trkpt lat="38.72070591601067" lon="-9.153361578571094">
        <ele>86.77119484934026</ele>
        <time>2024-09-07T11:35:20.074Z</time>
      </trkpt>
      <trkpt lat="38.72103666666667" lon="-9.152691666666668">
        <ele>72.40634115695734</ele>
        <time>2024-09-07T11:44:46.181Z</time>
      </trkpt>
      <trkpt lat="38.72125333333334" lon="-9.152645">
        <ele>72.80589098761999</ele>
        <time>2024-09-07T11:45:10.187Z</time>
      </trkpt>
      <trkpt lat="38.72122666666667" lon="-9.152548333333334">
        <ele>72.50571028767561</ele>
        <time>2024-09-07T11:45:20.185Z</time>
      </trkpt>
      <trkpt lat="38.721154999999996" lon="-9.152546666666666">
        <ele>76.10580342823752</ele>
        <time>2024-09-07T11:45:30.184Z</time>
      </trkpt>
      <trkpt lat="38.72032" lon="-9.154146666666666">
        <ele>62.81035242933761</ele>
        <time>2024-09-07T11:48:10.184Z</time>
      </trkpt>
      <trkpt lat="38.720405" lon="-9.154225">
        <ele>65.91044854603214</ele>
        <time>2024-09-07T11:48:33.145Z</time>
      </trkpt>
      <trkpt lat="38.720344999999995" lon="-9.154283333333332">
        <ele>72.31061652496899</ele>
        <time>2024-09-07T11:48:50.178Z</time>
      </trkpt>
      <trkpt lat="38.720405" lon="-9.154415">
        <ele>72.91081109149115</ele>
        <time>2024-09-07T11:49:03.172Z</time>
      </trkpt>
      <trkpt lat="38.72037666666667" lon="-9.154541666666667">
        <ele>73.21109506627545</ele>
        <time>2024-09-07T11:49:13.161Z</time>
      </trkpt>
      <trkpt lat="38.72047333333333" lon="-9.154696666666666">
        <ele>74.41128037992465</ele>
        <time>2024-09-07T11:49:33.184Z</time>
      </trkpt>
      <trkpt lat="38.72080833333334" lon="-9.154938333333332">
        <ele>75.01122168841542</ele>
        <time>2024-09-07T11:50:27.184Z</time>
      </trkpt>
      <trkpt lat="38.720884999999996" lon="-9.154828333333334">
        <ele>77.71088732199203</ele>
        <time>2024-09-07T11:50:49.144Z</time>
      </trkpt>
      <trkpt lat="38.72110166666666" lon="-9.155036666666666">
        <ele>82.81092569061238</ele>
        <time>2024-09-07T11:51:30.171Z</time>
      </trkpt>
      <trkpt lat="38.72118" lon="-9.155013333333333">
        <ele>83.11087617948026</ele>
        <time>2024-09-07T11:52:02.182Z</time>
      </trkpt>
      <trkpt lat="38.7214" lon="-9.155575">
        <ele>87.91149259050817</ele>
        <time>2024-09-07T11:53:03.184Z</time>
      </trkpt>
      <trkpt lat="38.72160833333333" lon="-9.155904999999999">
        <ele>85.411851669029</ele>
        <time>2024-09-07T11:53:40.167Z</time>
      </trkpt>
      <trkpt lat="38.72159666666666" lon="-9.155833333333334">
        <ele>90.71173006105425</ele>
        <time>2024-09-07T11:54:01.148Z</time>
      </trkpt>
      <trkpt lat="38.72176" lon="-9.15598">
        <ele>92.11176335318567</ele>
        <time>2024-09-07T11:54:27.147Z</time>
      </trkpt>
      <trkpt lat="38.72180166666667" lon="-9.155931666666667">
        <ele>90.21159755092701</ele>
        <time>2024-09-07T11:54:38.168Z</time>
      </trkpt>
      <trkpt lat="38.72187333333333" lon="-9.156051666666666">
        <ele>87.91171551016943</ele>
        <time>2024-09-07T11:54:52.138Z</time>
      </trkpt>
      <trkpt lat="38.72188666666667" lon="-9.15647">
        <ele>88.81254574625132</ele>
        <time>2024-09-07T11:55:39.139Z</time>
      </trkpt>
      <trkpt lat="38.72205666666667" lon="-9.156235">
        <ele>91.71179596775733</ele>
        <time>2024-09-07T11:56:25.158Z</time>
      </trkpt>
      <trkpt lat="38.722163333333334" lon="-9.156333333333333">
        <ele>91.41180545726127</ele>
        <time>2024-09-07T11:56:37.149Z</time>
      </trkpt>
      <trkpt lat="38.72209833333333" lon="-9.15626">
        <ele>88.71179044240651</ele>
        <time>2024-09-07T12:06:48.193Z</time>
      </trkpt>
      <trkpt lat="38.72212833333333" lon="-9.156295">
        <ele>93.31174882264588</ele>
        <time>2024-09-07T12:11:48.184Z</time>
      </trkpt>
      <trkpt lat="38.722135" lon="-9.15619">
        <ele>91.11157408019525</ele>
        <time>2024-09-07T12:15:56.171Z</time>
      </trkpt>
      <trkpt lat="38.722125" lon="-9.156315000000001">
        <ele>95.91183154532266</ele>
        <time>2024-09-07T12:18:46.128Z</time>
      </trkpt>
      <trkpt lat="38.722118333333334" lon="-9.156178333333335">
        <ele>88.41176710221023</ele>
        <time>2024-09-07T12:30:09.138Z</time>
      </trkpt>
      <trkpt lat="38.722136666666664" lon="-9.156303333333334">
        <ele>85.51180152182224</ele>
        <time>2024-09-07T12:32:12.167Z</time>
      </trkpt>
      <trkpt lat="38.722141666666666" lon="-9.156181666666667">
        <ele>94.11154628653466</ele>
        <time>2024-09-07T12:36:36.151Z</time>
      </trkpt>
      <trkpt lat="38.72216" lon="-9.156298333333332">
        <ele>96.21174702004822</ele>
        <time>2024-09-07T12:38:43.132Z</time>
      </trkpt>
      <trkpt lat="38.7221" lon="-9.15632">
        <ele>87.91188465400415</ele>
        <time>2024-09-07T13:01:09.157Z</time>
      </trkpt>
      <trkpt lat="38.722125" lon="-9.156139999999999">
        <ele>91.51150854167274</ele>
        <time>2024-09-07T13:04:46.158Z</time>
      </trkpt>
      <trkpt lat="38.72235833333333" lon="-9.156013333333334">
        <ele>92.81085827326268</ele>
        <time>2024-09-07T13:05:41.145Z</time>
      </trkpt>
      <trkpt lat="38.72235333333333" lon="-9.155893333333333">
        <ele>89.81081977722691</ele>
        <time>2024-09-07T13:06:32.194Z</time>
      </trkpt>
      <trkpt lat="38.72288" lon="-9.155416666666667">
        <ele>83.50883305492775</ele>
        <time>2024-09-07T13:08:04.181Z</time>
      </trkpt>
      <trkpt lat="38.72311833333333" lon="-9.155014999999999">
        <ele>73.20761666880543</ele>
        <time>2024-09-07T13:08:43.178Z</time>
      </trkpt>
      <trkpt lat="38.72352333333333" lon="-9.154606666666666">
        <ele>74.60612436239106</ele>
        <time>2024-09-07T13:09:32.190Z</time>
      </trkpt>
      <trkpt lat="38.72389833333333" lon="-9.154955">
        <ele>91.30617145231764</ele>
        <time>2024-09-07T13:10:17.168Z</time>
      </trkpt>
      <trkpt lat="38.72399" lon="-9.155100000000001">
        <ele>93.50630548891746</ele>
        <time>2024-09-07T13:10:32.185Z</time>
      </trkpt>
      <trkpt lat="38.72397333333333" lon="-9.155233333333333">
        <ele>93.90660774989432</ele>
        <time>2024-09-07T13:10:44.171Z</time>
      </trkpt>
      <trkpt lat="38.724106666666664" lon="-9.15524">
        <ele>99.2064016661956</ele>
        <time>2024-09-07T13:10:57.158Z</time>
      </trkpt>
      <trkpt lat="38.72475833333333" lon="-9.15621">
        <ele>101.10729625687037</ele>
        <time>2024-09-07T13:12:54.172Z</time>
      </trkpt>
      <trkpt lat="38.72477333333333" lon="-9.156466666666667">
        <ele>101.9077922984385</ele>
        <time>2024-09-07T13:13:37.137Z</time>
      </trkpt>
      <trkpt lat="38.724846666666664" lon="-9.156501666666665">
        <ele>106.0077189701052</ele>
        <time>2024-09-07T13:14:42.171Z</time>
      </trkpt>
      <trkpt lat="38.724846666666664" lon="-9.156856666666666">
        <ele>108.70839555483244</ele>
        <time>2024-09-07T13:15:15.135Z</time>
      </trkpt>
      <trkpt lat="38.725145" lon="-9.157038333333333">
        <ele>111.40833517117605</ele>
        <time>2024-09-07T13:16:01.138Z</time>
      </trkpt>
      <trkpt lat="38.72532833333333" lon="-9.157263333333333">
        <ele>106.90849050861968</ele>
        <time>2024-09-07T13:16:34.154Z</time>
      </trkpt>
      <trkpt lat="38.72557333333334" lon="-9.157061666666667">
        <ele>110.70769242936208</ele>
        <time>2024-09-07T13:17:19.129Z</time>
      </trkpt>
      <trkpt lat="38.726123333333334" lon="-9.156">
        <ele>100.50466816337038</ele>
        <time>2024-09-07T13:18:57.171Z</time>
      </trkpt>
      <trkpt lat="38.72631333333333" lon="-9.155713333333333">
        <ele>101.40375634827625</ele>
        <time>2024-09-07T13:20:39.178Z</time>
      </trkpt>
      <trkpt lat="38.726414999999996" lon="-9.155673333333334">
        <ele>99.5035425105354</ele>
        <time>2024-09-07T13:20:50.185Z</time>
      </trkpt>
      <trkpt lat="38.72661333333333" lon="-9.155381666666667">
        <ele>89.80261418382402</ele>
        <time>2024-09-07T13:21:20.171Z</time>
      </trkpt>
      <trkpt lat="38.726710000000004" lon="-9.155103333333333">
        <ele>88.9018861441618</ele>
        <time>2024-09-07T13:21:40.190Z</time>
      </trkpt>
      <trkpt lat="38.72644666666667" lon="-9.154898333333334">
        <ele>88.30189587050626</ele>
        <time>2024-09-07T13:22:15.158Z</time>
      </trkpt>
      <trkpt lat="38.72656833333333" lon="-9.154705">
        <ele>93.00130979385882</ele>
        <time>2024-09-07T13:22:41.141Z</time>
      </trkpt>
      <trkpt lat="38.72702666666667" lon="-9.155161666666666">
        <ele>96.10147118334571</ele>
        <time>2024-09-07T13:24:02.171Z</time>
      </trkpt>
      <trkpt lat="38.72711666666667" lon="-9.155061666666667">
        <ele>94.80113282700518</ele>
        <time>2024-09-07T13:24:17.151Z</time>
      </trkpt>
      <trkpt lat="38.7272" lon="-9.155146666666667">
        <ele>94.5011673023429</ele>
        <time>2024-09-07T13:25:07.182Z</time>
      </trkpt>
      <trkpt lat="38.72757" lon="-9.155108333333335">
        <ele>95.7005006424213</ele>
        <time>2024-09-07T13:25:47.184Z</time>
      </trkpt>
      <trkpt lat="38.727673333333335" lon="-9.155183333333333">
        <ele>92.10044774689236</ele>
        <time>2024-09-07T13:26:08.165Z</time>
      </trkpt>
      <trkpt lat="38.72795166666666" lon="-9.154924999999999">
        <ele>90.89951698184484</ele>
        <time>2024-09-07T13:26:44.174Z</time>
      </trkpt>
      <trkpt lat="38.72816" lon="-9.154599999999999">
        <ele>85.9985131713704</ele>
        <time>2024-09-07T13:27:24.181Z</time>
      </trkpt>
      <trkpt lat="38.72857666666666" lon="-9.154983333333332">
        <ele>86.49857695580539</ele>
        <time>2024-09-07T13:28:57.144Z</time>
      </trkpt>
      <trkpt lat="38.728658333333335" lon="-9.154955">
        <ele>87.79839433190321</ele>
        <time>2024-09-07T13:29:06.138Z</time>
      </trkpt>
      <trkpt lat="38.728613333333335" lon="-9.155008333333335">
        <ele>88.79854214661813</ele>
        <time>2024-09-07T13:29:20.174Z</time>
      </trkpt>
      <trkpt lat="38.72823166666667" lon="-9.154716666666667">
        <ele>85.39861221219965</ele>
        <time>2024-09-07T13:30:13.175Z</time>
      </trkpt>
      <trkpt lat="38.72823166666667" lon="-9.154546666666667">
        <ele>84.09830449264088</ele>
        <time>2024-09-07T13:30:27.184Z</time>
      </trkpt>
      <trkpt lat="38.72828166666667" lon="-9.15444">
        <ele>84.69801754423615</ele>
        <time>2024-09-07T13:30:36.178Z</time>
      </trkpt>
      <trkpt lat="38.72848" lon="-9.154151666666667">
        <ele>85.69708257551248</ele>
        <time>2024-09-07T13:31:28.187Z</time>
      </trkpt>
      <trkpt lat="38.728676666666665" lon="-9.154235">
        <ele>83.59692775719256</ele>
        <time>2024-09-07T13:31:48.184Z</time>
      </trkpt>
      <trkpt lat="38.72877666666667" lon="-9.154156666666667">
        <ele>86.8966082000477</ele>
        <time>2024-09-07T13:32:02.178Z</time>
      </trkpt>
      <trkpt lat="38.72871833333333" lon="-9.154236666666666">
        <ele>91.89682917434615</ele>
        <time>2024-09-07T13:32:16.158Z</time>
      </trkpt>
      <trkpt lat="38.728770000000004" lon="-9.154146666666666">
        <ele>91.69661058636142</ele>
        <time>2024-09-07T13:32:28.170Z</time>
      </trkpt>
      <trkpt lat="38.72893833333333" lon="-9.154131666666666">
        <ele>92.99630308519117</ele>
        <time>2024-09-07T13:32:59.178Z</time>
      </trkpt>
      <trkpt lat="38.728988333333334" lon="-9.153653333333333">
        <ele>92.19525125143625</ele>
        <time>2024-09-07T13:33:49.141Z</time>
      </trkpt>
      <trkpt lat="38.72920333333333" lon="-9.153936666666668">
        <ele>92.89545763915504</ele>
        <time>2024-09-07T13:34:55.161Z</time>
      </trkpt>
      <trkpt lat="38.73026333333333" lon="-9.154846666666666">
        <ele>102.09554955246766</ele>
        <time>2024-09-07T13:37:35.180Z</time>
      </trkpt>
      <trkpt lat="38.73039833333333" lon="-9.154641666666667">
        <ele>103.79493537728769</ele>
        <time>2024-09-07T13:37:58.137Z</time>
      </trkpt>
      <trkpt lat="38.730376666666665" lon="-9.15459">
        <ele>106.39484926472863</ele>
        <time>2024-09-07T13:38:08.138Z</time>
      </trkpt>
      <trkpt lat="38.73025500000001" lon="-9.154568333333334">
        <ele>103.39501944804698</ele>
        <time>2024-09-07T13:38:27.144Z</time>
      </trkpt>
      <trkpt lat="38.73029" lon="-9.15442">
        <ele>105.49465194631864</ele>
        <time>2024-09-07T13:39:01.138Z</time>
      </trkpt>
      <trkpt lat="38.73042" lon="-9.154258333333333">
        <ele>104.0941476342183</ele>
        <time>2024-09-07T13:39:30.159Z</time>
      </trkpt>
      <trkpt lat="38.730603333333335" lon="-9.154300000000001">
        <ele>110.69391566535666</ele>
        <time>2024-09-07T13:40:23.144Z</time>
      </trkpt>
      <trkpt lat="38.73058" lon="-9.154053333333334">
        <ele>107.79344440056894</ele>
        <time>2024-09-07T13:40:50.135Z</time>
      </trkpt>
      <trkpt lat="38.730693333333335" lon="-9.15412">
        <ele>108.69340068431272</ele>
        <time>2024-09-07T13:41:12.145Z</time>
      </trkpt>
      <trkpt lat="38.731001666666664" lon="-9.153481666666666">
        <ele>106.5916360266206</ele>
        <time>2024-09-07T13:42:26.164Z</time>
      </trkpt>
      <trkpt lat="38.731094999999996" lon="-9.153481666666666">
        <ele>107.29147863697075</ele>
        <time>2024-09-07T13:43:05.168Z</time>
      </trkpt>
      <trkpt lat="38.731210000000004" lon="-9.153775">
        <ele>105.89186124201092</ele>
        <time>2024-09-07T13:43:58.174Z</time>
      </trkpt>
      <trkpt lat="38.731055" lon="-9.154093333333332">
        <ele>104.69274647549167</ele>
        <time>2024-09-07T13:44:34.138Z</time>
      </trkpt>
      <trkpt lat="38.73132833333333" lon="-9.154126666666667">
        <ele>105.69238578578556</ele>
        <time>2024-09-07T13:45:26.178Z</time>
      </trkpt>
      <trkpt lat="38.7315" lon="-9.154273333333332">
        <ele>105.29238869103938</ele>
        <time>2024-09-07T13:45:44.161Z</time>
      </trkpt>
      <trkpt lat="38.731480000000005" lon="-9.154351666666667">
        <ele>106.79257151654072</ele>
        <time>2024-09-07T13:45:57.132Z</time>
      </trkpt>
      <trkpt lat="38.731498333333334" lon="-9.15428">
        <ele>109.99241704333724</ele>
        <time>2024-09-07T13:46:54.174Z</time>
      </trkpt>
      <trkpt lat="38.731566666666666" lon="-9.15434">
        <ele>107.9924184700757</ele>
        <time>2024-09-07T13:47:21.171Z</time>
      </trkpt>
      <trkpt lat="38.73176" lon="-9.154206666666665">
        <ele>108.59184881518397</ele>
        <time>2024-09-07T13:47:53.168Z</time>
      </trkpt>
      <trkpt lat="38.73195666666666" lon="-9.154278333333334">
        <ele>106.79165436242923</ele>
        <time>2024-09-07T13:48:18.171Z</time>
      </trkpt>
      <trkpt lat="38.73209666666666" lon="-9.154516666666666">
        <ele>108.39190153377893</ele>
        <time>2024-09-07T13:48:42.180Z</time>
      </trkpt>
      <trkpt lat="38.73227" lon="-9.154481666666667">
        <ele>109.09157622522201</ele>
        <time>2024-09-07T13:49:00.178Z</time>
      </trkpt>
      <trkpt lat="38.732345" lon="-9.154566666666666">
        <ele>106.79160822992128</ele>
        <time>2024-09-07T13:49:16.177Z</time>
      </trkpt>
      <trkpt lat="38.73263833333333" lon="-9.154493333333333">
        <ele>103.79097800946344</ele>
        <time>2024-09-07T13:49:48.141Z</time>
      </trkpt>
      <trkpt lat="38.73290333333333" lon="-9.154616666666668">
        <ele>93.3907834421195</ele>
        <time>2024-09-07T13:50:32.172Z</time>
      </trkpt>
      <trkpt lat="38.73350000000001" lon="-9.154443333333335">
        <ele>89.88947986461719</ele>
        <time>2024-09-07T13:51:51.181Z</time>
      </trkpt>
      <trkpt lat="38.733868333333334" lon="-9.154246666666667">
        <ele>89.58852003125232</ele>
        <time>2024-09-07T13:52:30.174Z</time>
      </trkpt>
      <trkpt lat="38.733934999999995" lon="-9.154188333333334">
        <ele>88.48828707926066</ele>
        <time>2024-09-07T13:52:37.178Z</time>
      </trkpt>
      <trkpt lat="38.73394333333333" lon="-9.154">
        <ele>86.0878830466662</ele>
        <time>2024-09-07T13:52:54.178Z</time>
      </trkpt>
      <trkpt lat="38.73424833333333" lon="-9.153813333333334">
        <ele>88.88704272300664</ele>
        <time>2024-09-07T13:54:18.174Z</time>
      </trkpt>
      <trkpt lat="38.734515" lon="-9.153305">
        <ele>81.28557934552614</ele>
        <time>2024-09-07T13:55:34.170Z</time>
      </trkpt>
      <trkpt lat="38.73543333333334" lon="-9.15424">
        <ele>80.88591623555975</ele>
        <time>2024-09-07T13:57:43.164Z</time>
      </trkpt>
      <trkpt lat="38.73547333333333" lon="-9.154193333333334">
        <ele>86.98577180099997</ele>
        <time>2024-09-07T13:58:04.165Z</time>
      </trkpt>
      <trkpt lat="38.73554166666667" lon="-9.154438333333333">
        <ele>79.18608700629026</ele>
        <time>2024-09-07T13:59:21.147Z</time>
      </trkpt>
      <trkpt lat="38.735834999999994" lon="-9.154838333333334">
        <ele>75.18644114163122</ele>
        <time>2024-09-07T14:00:15.167Z</time>
      </trkpt>
      <trkpt lat="38.73591166666667" lon="-9.154779999999999">
        <ele>72.58622197083216</ele>
        <time>2024-09-07T14:00:28.162Z</time>
      </trkpt>
      <trkpt lat="38.73598666666667" lon="-9.154868333333333">
        <ele>75.58625756717076</ele>
        <time>2024-09-07T14:01:14.135Z</time>
      </trkpt>
      <trkpt lat="38.73605" lon="-9.154688333333333">
        <ele>72.18582166592569</ele>
        <time>2024-09-07T14:01:35.144Z</time>
      </trkpt>
      <trkpt lat="38.73615666666667" lon="-9.1547">
        <ele>72.3856607671251</ele>
        <time>2024-09-07T14:01:48.139Z</time>
      </trkpt>
      <trkpt lat="38.73612166666667" lon="-9.154793333333334">
        <ele>76.58587373751216</ele>
        <time>2024-09-07T14:01:59.194Z</time>
      </trkpt>
      <trkpt lat="38.73631" lon="-9.155048333333333">
        <ele>76.68608341226525</ele>
        <time>2024-09-07T14:02:31.137Z</time>
      </trkpt>
      <trkpt lat="38.736493333333335" lon="-9.155085000000001">
        <ele>78.98595982518137</ele>
        <time>2024-09-07T14:03:09.148Z</time>
      </trkpt>
      <trkpt lat="38.73650833333333" lon="-9.154926666666666">
        <ele>77.98554023065873</ele>
        <time>2024-09-07T14:03:28.137Z</time>
      </trkpt>
      <trkpt lat="38.73672" lon="-9.154855">
        <ele>75.18506132017636</ele>
        <time>2024-09-07T14:03:49.138Z</time>
      </trkpt>
      <trkpt lat="38.73681666666666" lon="-9.154601666666668">
        <ele>70.28439117993139</ele>
        <time>2024-09-07T14:04:24.158Z</time>
      </trkpt>
      <trkpt lat="38.736729999999994" lon="-9.154821666666667">
        <ele>70.78493990636034</ele>
        <time>2024-09-07T14:04:50.174Z</time>
      </trkpt>
      <trkpt lat="38.736585" lon="-9.154863333333333">
        <ele>69.48525591004527</ele>
        <time>2024-09-07T14:05:06.172Z</time>
      </trkpt>
      <trkpt lat="38.736470000000004" lon="-9.155028333333332">
        <ele>69.68577268426516</ele>
        <time>2024-09-07T14:05:25.175Z</time>
      </trkpt>
      <trkpt lat="38.73678666666667" lon="-9.155511666666666">
        <ele>66.58622352201843</ele>
        <time>2024-09-07T14:06:17.185Z</time>
      </trkpt>
      <trkpt lat="38.73708333333333" lon="-9.15574">
        <ele>66.98620444219742</ele>
        <time>2024-09-07T14:06:53.158Z</time>
      </trkpt>
      <trkpt lat="38.737298333333335" lon="-9.155083333333332">
        <ele>69.68457869835916</ele>
        <time>2024-09-07T14:08:09.187Z</time>
      </trkpt>
      <trkpt lat="38.737674999999996" lon="-9.154193333333334">
        <ele>68.88220192745072</ele>
        <time>2024-09-07T14:09:47.135Z</time>
      </trkpt>
      <trkpt lat="38.73768333333333" lon="-9.154506666666666">
        <ele>71.28277995345297</ele>
        <time>2024-09-07T14:10:41.184Z</time>
      </trkpt>
      <trkpt lat="38.737989999999996" lon="-9.15437">
        <ele>69.78206115034666</ele>
        <time>2024-09-07T14:11:12.187Z</time>
      </trkpt>
      <trkpt lat="38.738025" lon="-9.154181666666666">
        <ele>65.28161679162011</ele>
        <time>2024-09-07T14:11:30.185Z</time>
      </trkpt>
      <trkpt lat="38.73817666666666" lon="-9.154069999999999">
        <ele>67.78115208846594</ele>
        <time>2024-09-07T14:11:52.171Z</time>
      </trkpt>
      <trkpt lat="38.73848666666667" lon="-9.153545000000001">
        <ele>69.57960882386344</ele>
        <time>2024-09-07T14:12:47.165Z</time>
      </trkpt>
      <trkpt lat="38.73851166666667" lon="-9.153291666666666">
        <ele>74.17905956724763</ele>
        <time>2024-09-07T14:13:23.145Z</time>
      </trkpt>
      <trkpt lat="38.737790000000004" lon="-9.152803333333333">
        <ele>76.57925038077394</ele>
        <time>2024-09-07T14:15:07.161Z</time>
      </trkpt>
      <trkpt lat="38.737208333333335" lon="-9.152700000000001">
        <ele>74.57995923620896</ele>
        <time>2024-09-07T14:16:27.170Z</time>
      </trkpt>
      <trkpt lat="38.73722" lon="-9.152641666666666">
        <ele>74.17991291611449</ele>
        <time>2024-09-07T14:16:30.171Z</time>
      </trkpt>
      <trkpt lat="38.73611833333334" lon="-9.152413333333334">
        <ele>67.98117641988645</ele>
        <time>2024-09-07T14:18:29.181Z</time>
      </trkpt>
      <trkpt lat="38.735861666666665" lon="-9.152336666666667">
        <ele>72.78144320188325</ele>
        <time>2024-09-07T14:18:56.178Z</time>
      </trkpt>
      <trkpt lat="38.73587833333333" lon="-9.152268333333334">
        <ele>74.88136378291634</ele>
        <time>2024-09-07T14:19:00.175Z</time>
      </trkpt>
      <trkpt lat="38.73595666666667" lon="-9.152343333333333">
        <ele>75.68131422695946</ele>
        <time>2024-09-07T14:19:23.155Z</time>
      </trkpt>
      <trkpt lat="38.735620000000004" lon="-9.152253333333334">
        <ele>91.38166914641715</ele>
        <time>2024-09-07T14:19:57.187Z</time>
      </trkpt>
      <trkpt lat="38.735591666666664" lon="-9.152175">
        <ele>94.4815714075836</ele>
        <time>2024-09-07T14:20:10.180Z</time>
      </trkpt>
      <trkpt lat="38.73499833333334" lon="-9.152151666666667">
        <ele>86.48247217116332</ele>
        <time>2024-09-07T14:21:14.174Z</time>
      </trkpt>
      <trkpt lat="38.73502333333333" lon="-9.152321666666667">
        <ele>84.0827734998286</ele>
        <time>2024-09-07T14:21:26.171Z</time>
      </trkpt>
      <trkpt lat="38.73511" lon="-9.151786666666668">
        <ele>76.48159596071247</ele>
        <time>2024-09-07T14:24:32.190Z</time>
      </trkpt>
      <trkpt lat="38.73582666666667" lon="-9.151885">
        <ele>76.1815143871605</ele>
        <time>2024-09-07T14:29:37.158Z</time>
      </trkpt>
      <trkpt lat="38.735294999999994" lon="-9.151743333333334">
        <ele>70.58120319984415</ele>
        <time>2024-09-07T14:29:43.164Z</time>
      </trkpt>
      <trkpt lat="38.735245" lon="-9.151868333333335">
        <ele>78.68139877190924</ele>
        <time>2024-09-07T14:29:46.139Z</time>
      </trkpt>
      <trkpt lat="38.73515666666666" lon="-9.151926666666666">
        <ele>85.18170619650563</ele>
        <time>2024-09-07T14:29:49.184Z</time>
      </trkpt>
      <trkpt lat="38.735103333333335" lon="-9.151861666666667">
        <ele>90.78175050560063</ele>
        <time>2024-09-07T14:29:58.158Z</time>
      </trkpt>
      <trkpt lat="38.73506333333333" lon="-9.151953333333333">
        <ele>76.981980931539</ele>
        <time>2024-09-07T14:30:32.177Z</time>
      </trkpt>
      <trkpt lat="38.73496333333333" lon="-9.151911666666667">
        <ele>80.28206093446394</ele>
        <time>2024-09-07T14:30:47.191Z</time>
      </trkpt>
      <trkpt lat="38.734945" lon="-9.152006666666667">
        <ele>83.88227161719836</ele>
        <time>2024-09-07T14:30:56.190Z</time>
      </trkpt>
      <trkpt lat="38.73486666666667" lon="-9.15196">
        <ele>90.78230610729159</ele>
        <time>2024-09-07T14:31:37.155Z</time>
      </trkpt>
      <trkpt lat="38.73481" lon="-9.152086666666666">
        <ele>92.5826466971014</ele>
        <time>2024-09-07T14:31:51.175Z</time>
      </trkpt>
      <trkpt lat="38.734278333333336" lon="-9.152096666666667">
        <ele>83.3835153723355</ele>
        <time>2024-09-07T14:33:18.158Z</time>
      </trkpt>
      <trkpt lat="38.73348" lon="-9.151885">
        <ele>86.58441239149064</ele>
        <time>2024-09-07T14:34:42.184Z</time>
      </trkpt>
      <trkpt lat="38.733195" lon="-9.151681666666667">
        <ele>89.58447954368512</ele>
        <time>2024-09-07T14:35:24.185Z</time>
      </trkpt>
      <trkpt lat="38.73296166666667" lon="-9.151823333333335">
        <ele>93.78512951803947</ele>
        <time>2024-09-07T14:35:46.195Z</time>
      </trkpt>
      <trkpt lat="38.732166666666664" lon="-9.151433333333333">
        <ele>90.28564612078043</ele>
        <time>2024-09-07T14:37:40.168Z</time>
      </trkpt>
      <trkpt lat="38.732123333333334" lon="-9.151299999999999">
        <ele>89.08545647881166</ele>
        <time>2024-09-07T14:37:58.142Z</time>
      </trkpt>
      <trkpt lat="38.732229999999994" lon="-9.151266666666666">
        <ele>89.78525157291404</ele>
        <time>2024-09-07T14:38:22.164Z</time>
      </trkpt>
      <trkpt lat="38.732369999999996" lon="-9.15098">
        <ele>90.68445433621419</ele>
        <time>2024-09-07T14:38:49.148Z</time>
      </trkpt>
      <trkpt lat="38.73217833333333" lon="-9.1507">
        <ele>90.18417179184105</ele>
        <time>2024-09-07T14:39:35.151Z</time>
      </trkpt>
      <trkpt lat="38.73200333333333" lon="-9.150091666666667">
        <ele>91.48328005214424</ele>
        <time>2024-09-07T14:40:57.181Z</time>
      </trkpt>
      <trkpt lat="38.73206833333334" lon="-9.149978333333333">
        <ele>89.98295231467779</ele>
        <time>2024-09-07T14:41:06.170Z</time>
      </trkpt>
      <trkpt lat="38.732005" lon="-9.149808333333334">
        <ele>86.58271741123048</ele>
        <time>2024-09-07T14:41:20.142Z</time>
      </trkpt>
      <trkpt lat="38.73193833333333" lon="-9.149828333333334">
        <ele>83.98281480874047</ele>
        <time>2024-09-07T14:41:37.148Z</time>
      </trkpt>
      <trkpt lat="38.731775" lon="-9.149598333333333">
        <ele>91.78264265192713</ele>
        <time>2024-09-07T14:42:11.144Z</time>
      </trkpt>
      <trkpt lat="38.73184833333333" lon="-9.149476666666667">
        <ele>92.68231470297184</ele>
        <time>2024-09-07T14:42:25.164Z</time>
      </trkpt>
      <trkpt lat="38.731836666666666" lon="-9.149331666666665">
        <ele>93.28203805868685</ele>
        <time>2024-09-07T14:42:34.158Z</time>
      </trkpt>
      <trkpt lat="38.73164666666666" lon="-9.148671666666667">
        <ele>86.38108208537798</ele>
        <time>2024-09-07T14:44:00.184Z</time>
      </trkpt>
      <trkpt lat="38.73155333333333" lon="-9.148581666666667">
        <ele>86.7809560378079</ele>
        <time>2024-09-07T14:44:20.188Z</time>
      </trkpt>
      <trkpt lat="38.73168833333333" lon="-9.148691666666668">
        <ele>89.28097617344125</ele>
        <time>2024-09-07T14:44:37.151Z</time>
      </trkpt>
      <trkpt lat="38.73184166666667" lon="-9.148535">
        <ele>90.0804134480192</ele>
        <time>2024-09-07T14:46:43.178Z</time>
      </trkpt>
      <trkpt lat="38.731905" lon="-9.148563333333334">
        <ele>90.18041012982803</ele>
        <time>2024-09-07T14:47:46.180Z</time>
      </trkpt>
      <trkpt lat="38.73193666666667" lon="-9.148471666666667">
        <ele>90.78014889007034</ele>
        <time>2024-09-07T14:47:54.145Z</time>
      </trkpt>
      <trkpt lat="38.73199666666667" lon="-9.148493333333333">
        <ele>91.18009734300324</ele>
        <time>2024-09-07T14:48:09.554Z</time>
      </trkpt>
      <trkpt lat="38.7317556247161" lon="-9.148291271531946">
        <ele>89.19690337283586</ele>
        <time>2024-09-07T14:49:20.957Z</time>
      </trkpt>
      <trkpt lat="38.731845" lon="-9.148556666666668">
        <ele>90.65205944835373</ele>
        <time>2024-09-07T14:50:16.698Z</time>
      </trkpt>
      <trkpt lat="38.731610910744735" lon="-9.148708340161221">
        <ele>89.6482205418343</ele>
        <time>2024-09-07T14:51:28.796Z</time>
      </trkpt>
      <trkpt lat="38.731489381975194" lon="-9.14813915975057">
        <ele>85.19969224613428</ele>
        <time>2024-09-07T14:53:35.329Z</time>
      </trkpt>
      <trkpt lat="38.731525719872536" lon="-9.148186573123297">
        <ele>85.64270177936626</ele>
        <time>2024-09-07T14:53:49.581Z</time>
      </trkpt>
      <trkpt lat="38.73115" lon="-9.147871666666667">
        <ele>86.39809681251705</ele>
        <time>2024-09-07T14:56:31.832Z</time>
      </trkpt>
      <trkpt lat="38.730378333333334" lon="-9.148323333333334">
        <ele>79.58234580387948</ele>
        <time>2024-09-07T18:18:29.181Z</time>
      </trkpt>
      <trkpt lat="38.730265" lon="-9.147945">
        <ele>76.98180892536774</ele>
        <time>2024-09-07T18:18:52.184Z</time>
      </trkpt>
      <trkpt lat="38.730061666666664" lon="-9.147448333333333">
        <ele>78.68112721946616</ele>
        <time>2024-09-07T18:19:34.165Z</time>
      </trkpt>
      <trkpt lat="38.72991666666667" lon="-9.147391666666666">
        <ele>76.88122835800814</ele>
        <time>2024-09-07T18:19:55.148Z</time>
      </trkpt>
      <trkpt lat="38.728323333333336" lon="-9.148376666666667">
        <ele>72.18575547870631</ele>
        <time>2024-09-07T18:22:39.168Z</time>
      </trkpt>
      <trkpt lat="38.727893333333334" lon="-9.148766666666667">
        <ele>68.78719993667369</ele>
        <time>2024-09-07T18:23:43.177Z</time>
      </trkpt>
      <trkpt lat="38.72625333333334" lon="-9.149851666666667">
        <ele>58.49205732032773</ele>
        <time>2024-09-07T18:27:14.167Z</time>
      </trkpt>
      <trkpt lat="38.72618166666667" lon="-9.149833333333333">
        <ele>58.792119777619035</ele>
        <time>2024-09-07T18:27:45.142Z</time>
      </trkpt>
      <trkpt lat="38.726056666666665" lon="-9.149431666666667">
        <ele>60.39157519880558</ele>
        <time>2024-09-07T18:28:21.167Z</time>
      </trkpt>
      <trkpt lat="38.72665" lon="-9.148958333333333">
        <ele>56.88968673180934</ele>
        <time>2024-09-07T18:29:39.180Z</time>
      </trkpt>
      <trkpt lat="38.72736999999999" lon="-9.148601666666668">
        <ele>65.58781435764678</ele>
        <time>2024-09-07T18:30:57.175Z</time>
      </trkpt>
      <trkpt lat="38.72745333333333" lon="-9.148511666666668">
        <ele>66.48749768370644</ele>
        <time>2024-09-07T18:31:07.135Z</time>
      </trkpt>
      <trkpt lat="38.72736" lon="-9.148390000000001">
        <ele>66.7873905133111</ele>
        <time>2024-09-07T18:31:13.139Z</time>
      </trkpt>
      <trkpt lat="38.72745166666667" lon="-9.148721666666667">
        <ele>66.3878090845985</ele>
        <time>2024-09-07T18:31:26.144Z</time>
      </trkpt>
      <trkpt lat="38.727305" lon="-9.1488">
        <ele>65.88823024838904</ele>
        <time>2024-09-07T18:31:31.168Z</time>
      </trkpt>
      <trkpt lat="38.72716333333334" lon="-9.149046666666667">
        <ele>74.38896710167143</ele>
        <time>2024-09-07T18:31:48.135Z</time>
      </trkpt>
      <trkpt lat="38.727380000000004" lon="-9.148908333333333">
        <ele>80.88838407351099</ele>
        <time>2024-09-07T18:31:59.155Z</time>
      </trkpt>
      <trkpt lat="38.727426666666666" lon="-9.148796666666668">
        <ele>85.68807127161483</ele>
        <time>2024-09-07T18:32:08.175Z</time>
      </trkpt>
      <trkpt lat="38.72743333333334" lon="-9.149056666666667">
        <ele>89.78854533251466</ele>
        <time>2024-09-07T18:32:15.185Z</time>
      </trkpt>
      <trkpt lat="38.72745166666667" lon="-9.148895000000001">
        <ele>96.88823252009178</ele>
        <time>2024-09-07T18:32:30.197Z</time>
      </trkpt>
      <trkpt lat="38.72756666666667" lon="-9.149111666666666">
        <ele>102.28846323546787</ele>
        <time>2024-09-07T18:32:42.181Z</time>
      </trkpt>
      <trkpt lat="38.72754166666667" lon="-9.149185">
        <ele>105.38861839990511</ele>
        <time>2024-09-07T18:32:53.178Z</time>
      </trkpt>
      <trkpt lat="38.72739166666667" lon="-9.14884">
        <ele>95.88821398432971</ele>
        <time>2024-09-07T18:33:30.135Z</time>
      </trkpt>
      <trkpt lat="38.729081666666666" lon="-9.147765">
        <ele>75.58337466933366</ele>
        <time>2024-09-07T18:37:10.180Z</time>
      </trkpt>
      <trkpt lat="38.72904166666667" lon="-9.147735">
        <ele>78.78331824441443</ele>
        <time>2024-09-07T18:37:24.171Z</time>
      </trkpt>
      <trkpt lat="38.729074999999995" lon="-9.147873333333333">
        <ele>75.383546546642</ele>
        <time>2024-09-07T18:37:37.195Z</time>
      </trkpt>
      <trkpt lat="38.729198333333336" lon="-9.147885">
        <ele>72.88338948164525</ele>
        <time>2024-09-07T18:37:57.134Z</time>
      </trkpt>
      <trkpt lat="38.72908666666667" lon="-9.147858333333334">
        <ele>75.18349621656111</ele>
        <time>2024-09-07T18:39:27.180Z</time>
      </trkpt>
      <trkpt lat="38.728984999999994" lon="-9.147646666666667">
        <ele>76.5832595677858</ele>
        <time>2024-09-07T18:39:36.185Z</time>
      </trkpt>
      <trkpt lat="38.72874" lon="-9.147793333333334">
        <ele>72.38392694134781</ele>
        <time>2024-09-07T18:40:08.184Z</time>
      </trkpt>
      <trkpt lat="38.7288" lon="-9.147703333333334">
        <ele>70.2836802297191</ele>
        <time>2024-09-07T18:41:02.184Z</time>
      </trkpt>
      <trkpt lat="38.729733333333336" lon="-9.147121666666667">
        <ele>90.68106270405114</ele>
        <time>2024-09-07T18:42:38.134Z</time>
      </trkpt>
      <trkpt lat="38.72977" lon="-9.147179999999999">
        <ele>85.88105208874009</ele>
        <time>2024-09-07T18:42:43.158Z</time>
      </trkpt>
      <trkpt lat="38.72989833333334" lon="-9.147083333333335">
        <ele>86.080652905648</ele>
        <time>2024-09-07T18:42:59.138Z</time>
      </trkpt>
      <trkpt lat="38.729974999999996" lon="-9.147179999999999">
        <ele>86.58071593478618</ele>
        <time>2024-09-07T18:43:10.182Z</time>
      </trkpt>
      <trkpt lat="38.73016833333334" lon="-9.147215">
        <ele>88.08050250216584</ele>
        <time>2024-09-07T18:43:26.184Z</time>
      </trkpt>
      <trkpt lat="38.73092333333333" lon="-9.146781666666667">
        <ele>79.97842760794616</ele>
        <time>2024-09-07T18:44:32.171Z</time>
      </trkpt>
      <trkpt lat="38.73125166666667" lon="-9.147615">
        <ele>88.67955684964167</ele>
        <time>2024-09-07T18:45:43.145Z</time>
      </trkpt>
      <trkpt lat="38.732065" lon="-9.147076666666667">
        <ele>83.777156756247</ele>
        <time>2024-09-07T18:47:23.159Z</time>
      </trkpt>
      <trkpt lat="38.73224333333334" lon="-9.14717">
        <ele>84.47705857549352</ele>
        <time>2024-09-07T18:47:40.154Z</time>
      </trkpt>
      <trkpt lat="38.732675" lon="-9.146878333333332">
        <ele>94.4757911748685</ele>
        <time>2024-09-07T18:48:39.164Z</time>
      </trkpt>
      <trkpt lat="38.73284" lon="-9.147033333333333">
        <ele>89.97578646405117</ele>
        <time>2024-09-07T18:48:57.167Z</time>
      </trkpt>
      <trkpt lat="38.732886666666666" lon="-9.146961666666666">
        <ele>85.07561334851023</ele>
        <time>2024-09-07T18:49:08.168Z</time>
      </trkpt>
      <trkpt lat="38.73301333333333" lon="-9.147028333333333">
        <ele>82.57554580474924</ele>
        <time>2024-09-07T18:49:29.148Z</time>
      </trkpt>
      <trkpt lat="38.73325333333333" lon="-9.146936666666667">
        <ele>87.3749854799869</ele>
        <time>2024-09-07T18:49:51.177Z</time>
      </trkpt>
      <trkpt lat="38.73507666666667" lon="-9.147346666666666">
        <ele>113.17286667815354</ele>
        <time>2024-09-07T18:52:46.134Z</time>
      </trkpt>
      <trkpt lat="38.73508833333334" lon="-9.147426666666666">
        <ele>113.9729794092143</ele>
        <time>2024-09-07T18:52:55.184Z</time>
      </trkpt>
      <trkpt lat="38.735083333333336" lon="-9.147335">
        <ele>116.07282295198928</ele>
        <time>2024-09-07T18:53:08.187Z</time>
      </trkpt>
      <trkpt lat="38.73512166666667" lon="-9.147823333333333">
        <ele>106.27368721671091</ele>
        <time>2024-09-07T18:53:44.167Z</time>
      </trkpt>
      <trkpt lat="38.73502333333333" lon="-9.147731666666665">
        <ele>101.1736999237867</ele>
        <time>2024-09-07T18:54:29.188Z</time>
      </trkpt>
      <trkpt lat="38.73497333333333" lon="-9.147781666666667">
        <ele>100.97384158461898</ele>
        <time>2024-09-07T18:54:49.162Z</time>
      </trkpt>
      <trkpt lat="38.734925" lon="-9.14766">
        <ele>104.27370001025142</ele>
        <time>2024-09-07T18:55:27.171Z</time>
      </trkpt>
      <trkpt lat="38.735095" lon="-9.147474999999998">
        <ele>98.37309874017274</ele>
        <time>2024-09-07T18:56:51.174Z</time>
      </trkpt>
      <trkpt lat="38.735096666666664" lon="-9.147385000000002">
        <ele>96.87289195639883</ele>
        <time>2024-09-07T18:57:04.187Z</time>
      </trkpt>
      <trkpt lat="38.735025" lon="-9.14749">
        <ele>93.77321098484747</ele>
        <time>2024-09-07T18:57:15.182Z</time>
      </trkpt>
      <trkpt lat="38.73498666666667" lon="-9.147036666666667">
        <ele>98.8723987530356</ele>
        <time>2024-09-07T18:57:42.184Z</time>
      </trkpt>
      <trkpt lat="38.73508" lon="-9.147013333333332">
        <ele>100.8721917491024</ele>
        <time>2024-09-07T18:57:57.172Z</time>
      </trkpt>
      <trkpt lat="38.735170000000004" lon="-9.147163333333333">
        <ele>106.27233444504611</ele>
        <time>2024-09-07T18:58:20.145Z</time>
      </trkpt>
      <trkpt lat="38.73517666666667" lon="-9.146956666666666">
        <ele>106.07191494619767</ele>
        <time>2024-09-07T18:58:39.174Z</time>
      </trkpt>
      <trkpt lat="38.73509166666667" lon="-9.146998333333332">
        <ele>108.47212191594542</ele>
        <time>2024-09-07T18:58:51.165Z</time>
      </trkpt>
      <trkpt lat="38.73505" lon="-9.147171666666667">
        <ele>108.07253552557623</ele>
        <time>2024-09-07T18:59:07.165Z</time>
      </trkpt>
      <trkpt lat="38.73503" lon="-9.146893333333333">
        <ele>99.87205179954171</ele>
        <time>2024-09-07T18:59:23.168Z</time>
      </trkpt>
      <trkpt lat="38.735083333333336" lon="-9.146891666666667">
        <ele>101.4719880993802</ele>
        <time>2024-09-07T18:59:33.159Z</time>
      </trkpt>
      <trkpt lat="38.73524166666667" lon="-9.146938333333333">
        <ele>96.47178237553095</ele>
        <time>2024-09-07T19:00:00.181Z</time>
      </trkpt>
      <trkpt lat="38.73518333333333" lon="-9.147205000000001">
        <ele>99.97232307684219</ele>
        <time>2024-09-07T19:00:20.132Z</time>
      </trkpt>
      <trkpt lat="38.73484" lon="-9.147243333333334">
        <ele>100.57299057154049</ele>
        <time>2024-09-07T19:00:39.175Z</time>
      </trkpt>
      <trkpt lat="38.734383333333334" lon="-9.147136666666666">
        <ele>101.47350030675426</ele>
        <time>2024-09-07T19:01:24.177Z</time>
      </trkpt>
      <trkpt lat="38.73428833333333" lon="-9.146719999999998">
        <ele>92.27288074666906</ele>
        <time>2024-09-07T19:01:49.182Z</time>
      </trkpt>
      <trkpt lat="38.733756666666665" lon="-9.14613">
        <ele>104.77255070849452</ele>
        <time>2024-09-07T19:02:57.161Z</time>
      </trkpt>
      <trkpt lat="38.73363" lon="-9.146121666666666">
        <ele>115.27273521147765</ele>
        <time>2024-09-07T19:03:15.175Z</time>
      </trkpt>
      <trkpt lat="38.73368833333333" lon="-9.146185000000001">
        <ele>111.27277355019181</ele>
        <time>2024-09-07T19:03:23.145Z</time>
      </trkpt>
      <trkpt lat="38.73359333333334" lon="-9.145975">
        <ele>107.57252525631007</ele>
        <time>2024-09-07T19:03:38.155Z</time>
      </trkpt>
      <trkpt lat="38.733635" lon="-9.145603333333334">
        <ele>99.3716932560036</ele>
        <time>2024-09-07T19:04:28.161Z</time>
      </trkpt>
      <trkpt lat="38.73369833333334" lon="-9.145406666666666">
        <ele>99.57123779138493</ele>
        <time>2024-09-07T19:04:50.158Z</time>
      </trkpt>
      <trkpt lat="38.73374666666667" lon="-9.145471666666667">
        <ele>97.17123118161955</ele>
        <time>2024-09-07T19:04:59.164Z</time>
      </trkpt>
      <trkpt lat="38.73370833333333" lon="-9.145615">
        <ele>97.57159245201265</ele>
        <time>2024-09-07T19:05:10.139Z</time>
      </trkpt>
      <trkpt lat="38.73385666666666" lon="-9.145663333333333">
        <ele>96.37143417427566</ele>
        <time>2024-09-07T19:05:31.164Z</time>
      </trkpt>
      <trkpt lat="38.733896666666666" lon="-9.14559">
        <ele>96.77125836698625</ele>
        <time>2024-09-07T19:05:48.158Z</time>
      </trkpt>
      <trkpt lat="38.73406" lon="-9.144161666666667">
        <ele>96.87125302874213</ele>
        <time>2024-09-07T19:07:48.181Z</time>
      </trkpt>
      <trkpt lat="38.73421" lon="-9.144176666666668">
        <ele>97.76815657670898</ele>
        <time>2024-09-07T19:07:49.174Z</time>
      </trkpt>
      <trkpt lat="38.73398833333333" lon="-9.144053333333334">
        <ele>99.1680665539357</ele>
        <time>2024-09-07T19:08:06.182Z</time>
      </trkpt>
      <trkpt lat="38.733849279931974" lon="-9.144156104899338">
        <ele>94.8344496301389</ele>
        <time>2024-09-07T19:09:43.395Z</time>
      </trkpt>
      <trkpt lat="38.73387158068758" lon="-9.144051638756622">
        <ele>95.37046611374352</ele>
        <time>2024-09-07T19:10:23.964Z</time>
      </trkpt>
      <trkpt lat="38.733887005251034" lon="-9.144156091964021">
        <ele>95.11265883869501</ele>
        <time>2024-09-07T19:10:44.661Z</time>
      </trkpt>
      <trkpt lat="38.73369833333334" lon="-9.144021666666667">
        <ele>94.13092957446415</ele>
        <time>2024-09-07T19:11:38.529Z</time>
      </trkpt>
      <trkpt lat="38.73335833333333" lon="-9.144116666666667">
        <ele>92.16918005888084</ele>
        <time>2024-09-07T19:39:36.937Z</time>
      </trkpt>
      <trkpt lat="38.73253" lon="-9.14276">
        <ele>87.26780651561124</ele>
        <time>2024-09-07T19:41:53.942Z</time>
      </trkpt>
      <trkpt lat="38.73173833333333" lon="-9.141253333333333">
        <ele>69.26607755437183</ele>
        <time>2024-09-07T19:44:01.948Z</time>
      </trkpt>
      <trkpt lat="38.731923333333334" lon="-9.140981666666667">
        <ele>71.66526476393913</ele>
        <time>2024-09-07T19:44:44.941Z</time>
      </trkpt>
      <trkpt lat="38.73193166666667" lon="-9.140795">
        <ele>73.66488308530232</ele>
        <time>2024-09-07T19:44:53.912Z</time>
      </trkpt>
      <trkpt lat="38.73179833333334" lon="-9.140633333333334">
        <ele>72.16474837204034</ele>
        <time>2024-09-07T19:45:11.965Z</time>
      </trkpt>
      <trkpt lat="38.73168" lon="-9.139498333333334">
        <ele>67.5626588512331</ele>
        <time>2024-09-07T19:46:42.954Z</time>
      </trkpt>
      <trkpt lat="38.73162333333333" lon="-9.139461666666667">
        <ele>67.26269630280954</ele>
        <time>2024-09-07T19:46:47.948Z</time>
      </trkpt>
      <trkpt lat="38.73155333333333" lon="-9.139055">
        <ele>73.96201536027927</ele>
        <time>2024-09-07T19:47:21.962Z</time>
      </trkpt>
      <trkpt lat="38.73126833333333" lon="-9.134603333333333">
        <ele>57.1535801161253</ele>
        <time>2024-09-07T19:52:31.945Z</time>
      </trkpt>
      <trkpt lat="38.731030000000004" lon="-9.134445">
        <ele>68.95363344122427</ele>
        <time>2024-09-07T19:53:01.958Z</time>
      </trkpt>
      <trkpt lat="38.73115666666667" lon="-9.134314999999999">
        <ele>70.95317636208648</ele>
        <time>2024-09-07T19:53:46.945Z</time>
      </trkpt>
      <trkpt lat="38.731094999999996" lon="-9.134151666666666">
        <ele>66.152947566356</ele>
        <time>2024-09-07T19:53:58.957Z</time>
      </trkpt>
      <trkpt lat="38.731094999999996" lon="-9.13363">
        <ele>65.45190660767858</ele>
        <time>2024-09-07T19:54:33.908Z</time>
      </trkpt>
      <trkpt lat="38.73106" lon="-9.133678333333334">
        <ele>67.25203346182116</ele>
        <time>2024-09-07T19:54:47.938Z</time>
      </trkpt>
      <trkpt lat="38.731035" lon="-9.133513333333333">
        <ele>72.35176270002853</ele>
        <time>2024-09-07T19:55:10.958Z</time>
      </trkpt>
      <trkpt lat="38.731210000000004" lon="-9.133280000000001">
        <ele>96.55102929651585</ele>
        <time>2024-09-07T19:55:28.960Z</time>
      </trkpt>
      <trkpt lat="38.73117166666667" lon="-9.13313">
        <ele>90.65079299069383</ele>
        <time>2024-09-07T19:55:48.904Z</time>
      </trkpt>
      <trkpt lat="38.73132833333333" lon="-9.13359">
        <ele>96.75142604283272</ele>
        <time>2024-09-07T19:56:16.899Z</time>
      </trkpt>
      <trkpt lat="38.73129666666667" lon="-9.133635">
        <ele>98.75154880089144</ele>
        <time>2024-09-07T19:56:19.934Z</time>
      </trkpt>
      <trkpt lat="38.72983166666667" lon="-9.133700000000001">
        <ele>79.25401408409266</ele>
        <time>2024-09-07T19:57:48.899Z</time>
      </trkpt>
      <trkpt lat="38.72977" lon="-9.133771666666666">
        <ele>75.35424082697023</ele>
        <time>2024-09-07T19:58:03.928Z</time>
      </trkpt>
      <trkpt lat="38.729461666666666" lon="-9.133569999999999">
        <ele>70.55433594042516</ele>
        <time>2024-09-07T19:58:48.954Z</time>
      </trkpt>
      <trkpt lat="38.72946" lon="-9.133248333333334">
        <ele>70.35370424672152</ele>
        <time>2024-09-07T19:59:14.905Z</time>
      </trkpt>
      <trkpt lat="38.72882833333333" lon="-9.133131666666666">
        <ele>74.65447925772905</ele>
        <time>2024-09-07T20:00:27.916Z</time>
      </trkpt>
      <trkpt lat="38.729310000000005" lon="-9.133088333333335">
        <ele>81.4535854362471</ele>
        <time>2024-09-07T20:01:42.919Z</time>
      </trkpt>
      <trkpt lat="38.72935833333334" lon="-9.132968333333334">
        <ele>84.05329553614084</ele>
        <time>2024-09-07T20:01:56.915Z</time>
      </trkpt>
      <trkpt lat="38.729236666666665" lon="-9.132996666666665">
        <ele>84.25352876966596</ele>
        <time>2024-09-07T20:02:10.922Z</time>
      </trkpt>
      <trkpt lat="38.72891166666667" lon="-9.132778333333333">
        <ele>87.15362003743331</ele>
        <time>2024-09-07T20:02:37.939Z</time>
      </trkpt>
      <trkpt lat="38.728645" lon="-9.13271">
        <ele>85.75387799124704</ele>
        <time>2024-09-07T20:03:01.958Z</time>
      </trkpt>
      <trkpt lat="38.72857666666666" lon="-9.132851666666665">
        <ele>92.05426785768654</ele>
        <time>2024-09-07T20:03:17.916Z</time>
      </trkpt>
      <trkpt lat="38.728460000000005" lon="-9.132876666666668">
        <ele>94.85449598437182</ele>
        <time>2024-09-07T20:03:29.918Z</time>
      </trkpt>
      <trkpt lat="38.728458333333336" lon="-9.133005">
        <ele>87.85477469115975</ele>
        <time>2024-09-07T20:04:07.926Z</time>
      </trkpt>
      <trkpt lat="38.72814" lon="-9.133666666666667">
        <ele>67.95655447074802</ele>
        <time>2024-09-07T20:05:50.938Z</time>
      </trkpt>
      <trkpt lat="38.728163333333335" lon="-9.133871666666666">
        <ele>61.65693024495472</ele>
        <time>2024-09-07T20:06:08.922Z</time>
      </trkpt>
      <trkpt lat="38.728255" lon="-9.134006666666666">
        <ele>59.157087881746065</ele>
        <time>2024-09-07T20:06:22.931Z</time>
      </trkpt>
      <trkpt lat="38.72821666666667" lon="-9.134108333333334">
        <ele>63.457344258703735</ele>
        <time>2024-09-07T20:06:32.932Z</time>
      </trkpt>
      <trkpt lat="38.728275000000004" lon="-9.134578333333334">
        <ele>58.958200607563185</ele>
        <time>2024-09-07T20:07:41.934Z</time>
      </trkpt>
      <trkpt lat="38.72815833333333" lon="-9.134708333333332">
        <ele>54.15864164957165</ele>
        <time>2024-09-07T20:07:52.922Z</time>
      </trkpt>
      <trkpt lat="38.72443" lon="-9.135111666666667">
        <ele>48.86532302461923</ele>
        <time>2024-09-07T20:13:18.915Z</time>
      </trkpt>
      <trkpt lat="38.724133333333334" lon="-9.135025">
        <ele>50.765607911896616</ele>
        <time>2024-09-07T20:13:52.934Z</time>
      </trkpt>
      <trkpt lat="38.72399666666667" lon="-9.135183333333334">
        <ele>53.36614324913499</ele>
        <time>2024-09-07T20:14:05.938Z</time>
      </trkpt>
      <trkpt lat="38.723351666666666" lon="-9.135176666666666">
        <ele>51.76716086550713</ele>
        <time>2024-09-07T20:14:55.928Z</time>
      </trkpt>
      <trkpt lat="38.723330000000004" lon="-9.135286666666667">
        <ele>58.16742768404147</ele>
        <time>2024-09-07T20:15:08.922Z</time>
      </trkpt>
      <trkpt lat="38.72323333333333" lon="-9.135235">
        <ele>60.767461170855746</ele>
        <time>2024-09-07T20:15:15.929Z</time>
      </trkpt>
      <trkpt lat="38.722253333333335" lon="-9.135401666666667">
        <ele>62.36933362613831</ele>
        <time>2024-09-07T20:16:43.912Z</time>
      </trkpt>
      <trkpt lat="38.72117" lon="-9.135443333333335">
        <ele>55.87115254085034</ele>
        <time>2024-09-07T20:21:43.134Z</time>
      </trkpt>
      <trkpt lat="38.721165" lon="-9.135646666666666">
        <ele>37.18580752772868</ele>
        <time>2024-09-07T20:22:51.139Z</time>
      </trkpt>
      <trkpt lat="38.721491666666665" lon="-9.135576666666667">
        <ele>44.070969813201984</ele>
        <time>2024-09-07T20:23:37.707Z</time>
      </trkpt>
      <trkpt lat="38.72145166666667" lon="-9.135581666666667">
        <ele>45.67098638829626</ele>
        <time>2024-09-07T20:23:40.692Z</time>
      </trkpt>
      <trkpt lat="38.72150166666667" lon="-9.135338333333333">
        <ele>55.87057689500739</ele>
        <time>2024-09-07T20:24:05.679Z</time>
      </trkpt>
      <trkpt lat="38.721268333333335" lon="-9.135455">
        <ele>63.4710016199234</ele>
        <time>2024-09-07T20:24:20.698Z</time>
      </trkpt>
      <trkpt lat="38.720211666666664" lon="-9.135566666666668">
        <ele>37.67289932916054</ele>
        <time>2024-09-07T20:25:41.658Z</time>
      </trkpt>
      <trkpt lat="38.720193333333334" lon="-9.135485">
        <ele>37.67281213250433</ele>
        <time>2024-09-07T20:25:49.664Z</time>
      </trkpt>
      <trkpt lat="38.71707166666667" lon="-9.135858333333335">
        <ele>32.17847629882014</ele>
        <time>2024-09-07T20:30:28.681Z</time>
      </trkpt>
      <trkpt lat="38.71696833333333" lon="-9.13562">
        <ele>31.878187067801477</ele>
        <time>2024-09-07T20:30:42.708Z</time>
      </trkpt>
      <trkpt lat="38.71673" lon="-9.13574">
        <ele>30.97878704996127</ele>
        <time>2024-09-07T20:31:01.702Z</time>
      </trkpt>
      <trkpt lat="38.71678333333333" lon="-9.136045">
        <ele>24.87932772380318</ele>
        <time>2024-09-07T20:31:20.704Z</time>
      </trkpt>
      <trkpt lat="38.71671666666667" lon="-9.136238333333333">
        <ele>26.679827426967414</ele>
        <time>2024-09-07T20:31:33.708Z</time>
      </trkpt>
      <trkpt lat="38.71658" lon="-9.136115">
        <ele>27.17983422469419</ele>
        <time>2024-09-07T20:31:49.698Z</time>
      </trkpt>
      <trkpt lat="38.716405" lon="-9.136113333333332">
        <ele>27.880078265318303</ele>
        <time>2024-09-07T20:32:01.689Z</time>
      </trkpt>
      <trkpt lat="38.716141666666665" lon="-9.13631">
        <ele>25.680905725190442</ele>
        <time>2024-09-07T20:32:31.704Z</time>
      </trkpt>
      <trkpt lat="38.716188333333335" lon="-9.136386666666668">
        <ele>24.78098749480008</ele>
        <time>2024-09-07T20:32:41.655Z</time>
      </trkpt>
      <trkpt lat="38.71571333333333" lon="-9.13658">
        <ele>24.282121470261757</ele>
        <time>2024-09-07T20:33:34.681Z</time>
      </trkpt>
      <trkpt lat="38.715695" lon="-9.136773333333334">
        <ele>24.482585514741487</ele>
        <time>2024-09-07T20:34:42.573Z</time>
      </trkpt>
      <trkpt lat="38.7147488017915" lon="-9.137473564659047">
        <ele>26.682764392377898</ele>
        <time>2024-09-07T20:42:50.730Z</time>
      </trkpt>
      <trkpt lat="38.71413662235727" lon="-9.137347311845758">
        <ele>21.691010020513254</ele>
        <time>2024-09-07T20:47:27.755Z</time>
      </trkpt>
      <trkpt lat="38.71399694937804" lon="-9.137588375151381">
        <ele>16.893516816432584</ele>
        <time>2024-09-07T20:49:06.923Z</time>
      </trkpt>
      <trkpt lat="38.71348612689934" lon="-9.137487247999502">
        <ele>21.010909002330365</ele>
        <time>2024-09-07T20:53:06.370Z</time>
      </trkpt>
      <trkpt lat="38.713876511887094" lon="-9.138227072951764">
        <ele>17.75769840520813</ele>
        <time>2024-09-07T20:58:34.873Z</time>
      </trkpt>
      <trkpt lat="38.71324940304976" lon="-9.138051431057079">
        <ele>20.672821446091262</ele>
        <time>2024-09-07T21:03:36.392Z</time>
      </trkpt>
      <trkpt lat="38.712855" lon="-9.139705">
        <ele>26.938222025896252</ele>
        <time>2024-09-07T21:17:43.515Z</time>
      </trkpt>
      <trkpt lat="38.712983333333334" lon="-9.139909999999999">
        <ele>26.893334872120718</ele>
        <time>2024-09-07T21:18:41.620Z</time>
      </trkpt>
      <trkpt lat="38.71340333333333" lon="-9.14002">
        <ele>45.39287990712964</ele>
        <time>2024-09-07T21:20:02.846Z</time>
      </trkpt>
      <trkpt lat="38.713359999999994" lon="-9.140108333333334">
        <ele>60.89289289223879</ele>
        <time>2024-09-07T21:20:04.856Z</time>
      </trkpt>
      <trkpt lat="38.713438333333336" lon="-9.140065">
        <ele>47.5931064478058</ele>
        <time>2024-09-07T21:20:07.854Z</time>
      </trkpt>
      <trkpt lat="38.713636666666666" lon="-9.140165">
        <ele>41.3928174048329</ele>
        <time>2024-09-07T21:20:53.824Z</time>
      </trkpt>
      <trkpt lat="38.71354833333333" lon="-9.140778333333333">
        <ele>25.194201403187392</ele>
        <time>2024-09-07T21:22:01.863Z</time>
      </trkpt>
      <trkpt lat="38.71387166666667" lon="-9.141070000000001">
        <ele>27.194285588237875</ele>
        <time>2024-09-07T21:22:49.830Z</time>
      </trkpt>
      <trkpt lat="38.71350666666667" lon="-9.140811666666668">
        <ele>26.794343733841252</ele>
        <time>2024-09-07T21:23:29.840Z</time>
      </trkpt>
      <trkpt lat="38.713364999999996" lon="-9.140891666666667">
        <ele>34.194724464732424</ele>
        <time>2024-09-07T21:24:11.843Z</time>
      </trkpt>
      <trkpt lat="38.713496666666664" lon="-9.141098333333334">
        <ele>35.294895074552876</ele>
        <time>2024-09-07T21:24:51.883Z</time>
      </trkpt>
      <trkpt lat="38.71344333333333" lon="-9.141168333333333">
        <ele>35.99513958108014</ele>
        <time>2024-09-07T21:25:01.866Z</time>
      </trkpt>
      <trkpt lat="38.71352" lon="-9.1414">
        <ele>43.895508759450635</ele>
        <time>2024-09-07T21:25:33.850Z</time>
      </trkpt>
      <trkpt lat="38.713544999999996" lon="-9.141986666666666">
        <ele>45.896646346051526</ele>
        <time>2024-09-07T21:26:25.839Z</time>
      </trkpt>
      <trkpt lat="38.713454999999996" lon="-9.142095000000001">
        <ele>49.597045381267776</ele>
        <time>2024-09-07T21:26:40.856Z</time>
      </trkpt>
      <trkpt lat="38.71348" lon="-9.142173333333334">
        <ele>49.99715861691987</ele>
        <time>2024-09-07T21:26:45.854Z</time>
      </trkpt>
      <trkpt lat="38.71328666666667" lon="-9.142303333333333">
        <ele>49.39773807110693</ele>
        <time>2024-09-07T21:27:23.860Z</time>
      </trkpt>
      <trkpt lat="38.71327833333333" lon="-9.142455">
        <ele>52.4980592070077</ele>
        <time>2024-09-07T21:27:37.869Z</time>
      </trkpt>
      <trkpt lat="38.713076666666666" lon="-9.142838333333334">
        <ele>66.3991671811636</ele>
        <time>2024-09-07T21:28:18.836Z</time>
      </trkpt>
      <trkpt lat="38.71312666666667" lon="-9.14332">
        <ele>74.40007081633874</ele>
        <time>2024-09-07T21:28:58.876Z</time>
      </trkpt>
      <trkpt lat="38.713235000000005" lon="-9.143336666666666">
        <ele>74.39997546753365</ele>
        <time>2024-09-07T21:29:10.827Z</time>
      </trkpt>
      <trkpt lat="38.713575" lon="-9.143708333333333">
        <ele>77.60014914893317</ele>
        <time>2024-09-07T21:29:58.843Z</time>
      </trkpt>
      <trkpt lat="38.714216666666665" lon="-9.144074999999999">
        <ele>89.29988502623857</ele>
        <time>2024-09-07T21:31:00.849Z</time>
      </trkpt>
      <trkpt lat="38.71451666666667" lon="-9.14406">
        <ele>76.79937554902386</ele>
        <time>2024-09-07T21:31:24.850Z</time>
      </trkpt>
      <trkpt lat="38.714715" lon="-9.143935">
        <ele>73.49878395694148</ele>
        <time>2024-09-07T21:31:53.816Z</time>
      </trkpt>
      <trkpt lat="38.71484833333333" lon="-9.144048333333334">
        <ele>75.99879709719913</ele>
        <time>2024-09-07T21:32:19.820Z</time>
      </trkpt>
      <trkpt lat="38.714953333333334" lon="-9.143988333333334">
        <ele>77.0985332937077</ele>
        <time>2024-09-07T21:32:28.820Z</time>
      </trkpt>
      <trkpt lat="38.71501333333333" lon="-9.144068333333333">
        <ele>78.69856437635028</ele>
        <time>2024-09-07T21:32:38.830Z</time>
      </trkpt>
      <trkpt lat="38.715109999999996" lon="-9.144091666666666">
        <ele>78.3984455388678</ele>
        <time>2024-09-07T21:34:59.821Z</time>
      </trkpt>
      <trkpt lat="38.714956666666666" lon="-9.144001666666666">
        <ele>78.79853500426454</ele>
        <time>2024-09-07T21:35:13.829Z</time>
      </trkpt>
      <trkpt lat="38.714955" lon="-9.143935">
        <ele>78.59840620974671</ele>
        <time>2024-09-07T21:35:26.860Z</time>
      </trkpt>
      <trkpt lat="38.71505" lon="-9.14399">
        <ele>77.19834923643398</ele>
        <time>2024-09-07T21:35:46.866Z</time>
      </trkpt>
      <trkpt lat="38.71495" lon="-9.143886666666667">
        <ele>76.4983211046231</ele>
        <time>2024-09-07T21:36:00.823Z</time>
      </trkpt>
      <trkpt lat="38.715" lon="-9.143795">
        <ele>78.4980522136398</ele>
        <time>2024-09-07T21:36:13.906Z</time>
      </trkpt>
      <trkpt lat="38.71490666666667" lon="-9.14391">
        <ele>79.29839256474672</ele>
        <time>2024-09-07T21:36:37.817Z</time>
      </trkpt>
      <trkpt lat="38.71475833333333" lon="-9.143818333333334">
        <ele>78.59848377306716</ele>
        <time>2024-09-07T21:37:05.847Z</time>
      </trkpt>
      <trkpt lat="38.71498666666666" lon="-9.143703333333333">
        <ele>70.797882570085</ele>
        <time>2024-09-07T21:37:34.847Z</time>
      </trkpt>
      <trkpt lat="38.71489166666667" lon="-9.143626666666668">
        <ele>71.19787660315873</ele>
        <time>2024-09-07T21:37:51.833Z</time>
      </trkpt>
      <trkpt lat="38.71475" lon="-9.14372">
        <ele>65.5982671081825</ele>
        <time>2024-09-07T21:38:30.876Z</time>
      </trkpt>
      <trkpt lat="38.71478333333334" lon="-9.143641666666667">
        <ele>63.598130498226396</ele>
        <time>2024-09-07T21:38:36.870Z</time>
      </trkpt>
      <trkpt lat="38.71586" lon="-9.143155">
        <ele>40.895376215087865</ele>
        <time>2024-09-07T21:40:35.841Z</time>
      </trkpt>
      <trkpt lat="38.716091666666664" lon="-9.142981666666666">
        <ele>33.59463294754178</ele>
        <time>2024-09-07T21:41:08.856Z</time>
      </trkpt>
      <trkpt lat="38.716256666666666" lon="-9.142655">
        <ele>22.893702187099528</ele>
        <time>2024-09-07T21:41:44.872Z</time>
      </trkpt>
      <trkpt lat="38.71618333333333" lon="-9.142553333333332">
        <ele>21.893591726445848</ele>
        <time>2024-09-07T21:41:51.875Z</time>
      </trkpt>
      <trkpt lat="38.71598166666667" lon="-9.142513333333333">
        <ele>19.49383431540896</ele>
        <time>2024-09-07T21:42:06.853Z</time>
      </trkpt>
      <trkpt lat="38.715109999999996" lon="-9.141726666666667">
        <ele>12.39364255720919</ele>
        <time>2024-09-07T21:43:47.824Z</time>
      </trkpt>
      <trkpt lat="38.71511833333333" lon="-9.141481666666666">
        <ele>29.993112768944123</ele>
        <time>2024-09-07T21:44:04.840Z</time>
      </trkpt>
      <trkpt lat="38.715015" lon="-9.141383333333332">
        <ele>32.69308980353076</ele>
        <time>2024-09-07T21:44:30.817Z</time>
      </trkpt>
      <trkpt lat="38.71505333333334" lon="-9.141478333333334">
        <ele>35.99321125506575</ele>
        <time>2024-09-07T21:45:00.820Z</time>
      </trkpt>
      <trkpt lat="38.71507833333333" lon="-9.141398333333333">
        <ele>33.993017119572926</ele>
        <time>2024-09-07T21:45:29.834Z</time>
      </trkpt>
      <trkpt lat="38.715111666666665" lon="-9.141533333333333">
        <ele>31.393242637068766</ele>
        <time>2024-09-07T21:45:43.837Z</time>
      </trkpt>
      <trkpt lat="38.715113333333335" lon="-9.141268333333333">
        <ele>26.99269942678572</ele>
        <time>2024-09-07T21:46:09.847Z</time>
      </trkpt>
      <trkpt lat="38.715115" lon="-9.141366666666666">
        <ele>25.592856229449666</ele>
        <time>2024-09-07T21:46:40.854Z</time>
      </trkpt>
      <trkpt lat="38.71505" lon="-9.141503333333333">
        <ele>27.493185978238756</ele>
        <time>2024-09-07T21:46:54.852Z</time>
      </trkpt>
      <trkpt lat="38.71521666666667" lon="-9.14193">
        <ele>24.49380349348081</ele>
        <time>2024-09-07T21:52:42.860Z</time>
      </trkpt>
      <trkpt lat="38.715270000000004" lon="-9.14181">
        <ele>28.693597602060777</ele>
        <time>2024-09-07T21:52:50.860Z</time>
      </trkpt>
      <trkpt lat="38.715333333333334" lon="-9.141816666666667">
        <ele>30.893464112677293</ele>
        <time>2024-09-07T21:52:58.830Z</time>
      </trkpt>
      <trkpt lat="38.71731166666667" lon="-9.143656666666667">
        <ele>38.09401976579237</ele>
        <time>2024-09-07T21:56:19.867Z</time>
      </trkpt>
      <trkpt lat="38.71869" lon="-9.144703333333332">
        <ele>59.59392676283926</ele>
        <time>2024-09-07T21:58:40.862Z</time>
      </trkpt>
      <trkpt lat="38.71919333333334" lon="-9.145331666666667">
        <ele>48.994379876822805</ele>
        <time>2024-09-07T21:59:31.870Z</time>
      </trkpt>
      <trkpt lat="38.71936" lon="-9.145346666666667">
        <ele>47.89414636797871</ele>
        <time>2024-09-07T21:59:41.866Z</time>
      </trkpt>
      <trkpt lat="38.71954" lon="-9.145635">
        <ele>41.79443373529948</ele>
        <time>2024-09-07T22:00:01.856Z</time>
      </trkpt>
      <trkpt lat="38.71977166666667" lon="-9.145385000000001">
        <ele>40.59359212303982</ele>
        <time>2024-09-07T22:00:27.853Z</time>
      </trkpt>
      <trkpt lat="38.719923333333334" lon="-9.145411666666666">
        <ele>37.59338219820268</ele>
        <time>2024-09-07T22:00:40.849Z</time>
      </trkpt>
      <trkpt lat="38.72038" lon="-9.145836666666666">
        <ele>35.69348934847248</ele>
        <time>2024-09-07T22:01:27.864Z</time>
      </trkpt>
      <trkpt lat="38.720445000000005" lon="-9.145990000000001">
        <ele>38.193692228807755</ele>
        <time>2024-09-07T22:01:41.866Z</time>
      </trkpt>
      <trkpt lat="38.72184333333333" lon="-9.147163333333333">
        <ele>38.59381026870319</ele>
        <time>2024-09-07T22:04:14.863Z</time>
      </trkpt>
      <trkpt lat="38.72200833333333" lon="-9.146933333333333">
        <ele>41.29311072492902</ele>
        <time>2024-09-07T22:04:28.864Z</time>
      </trkpt>
      <trkpt lat="38.722226666666664" lon="-9.146848333333333">
        <ele>47.49255815764087</ele>
        <time>2024-09-07T22:04:47.860Z</time>
      </trkpt>
      <trkpt lat="38.72222333333333" lon="-9.147163333333333">
        <ele>49.39318911258898</ele>
        <time>2024-09-07T22:05:12.860Z</time>
      </trkpt>
      <trkpt lat="38.72264500000001" lon="-9.147548333333333">
        <ele>51.89328803671082</ele>
        <time>2024-09-07T22:05:56.856Z</time>
      </trkpt>
      <trkpt lat="38.72286333333333" lon="-9.147305">
        <ele>53.29248526412274</ele>
        <time>2024-09-07T22:06:18.856Z</time>
      </trkpt>
      <trkpt lat="38.723436666666665" lon="-9.147856666666666">
        <ele>50.49263166364501</ele>
        <time>2024-09-07T22:07:16.873Z</time>
      </trkpt>
      <trkpt lat="38.72354833333333" lon="-9.147863333333333">
        <ele>54.49247096332252</ele>
        <time>2024-09-07T22:07:27.841Z</time>
      </trkpt>
      <trkpt lat="38.72485833333334" lon="-9.149055">
        <ele>61.79275448683724</ele>
        <time>2024-09-07T22:10:01.850Z</time>
      </trkpt>
      <trkpt lat="38.72520333333333" lon="-9.148936666666666">
        <ele>64.99195312981581</ele>
        <time>2024-09-07T22:10:31.864Z</time>
      </trkpt>
      <trkpt lat="38.72528166666667" lon="-9.148653333333334">
        <ele>60.19130612188472</ele>
        <time>2024-09-07T22:10:48.873Z</time>
      </trkpt>
      <trkpt lat="38.72541833333333" lon="-9.148453333333332">
        <ele>60.19061896426469</ele>
        <time>2024-09-07T22:11:04.826Z</time>
      </trkpt>
      <trkpt lat="38.72557333333334" lon="-9.148373333333332">
        <ele>68.79024763181064</ele>
        <time>2024-09-07T22:11:33.830Z</time>
      </trkpt>
      <trkpt lat="38.72606833333334" lon="-9.147773333333333">
        <ele>49.58824683149375</ele>
        <time>2024-09-07T22:12:36.864Z</time>
      </trkpt>
      <trkpt lat="38.726455" lon="-9.147266666666667">
        <ele>50.78656200943827</ele>
        <time>2024-09-07T22:13:21.820Z</time>
      </trkpt>
      <trkpt lat="38.72717166666666" lon="-9.146245">
        <ele>53.58341224116796</ele>
        <time>2024-09-07T22:15:49.840Z</time>
      </trkpt>
      <trkpt lat="38.727491666666666" lon="-9.146301666666666">
        <ele>70.38296308058409</ele>
        <time>2024-09-07T22:16:19.831Z</time>
      </trkpt>
      <trkpt lat="38.72795333333333" lon="-9.146858333333334">
        <ele>79.68332270039673</ele>
        <time>2024-09-07T22:17:13.856Z</time>
      </trkpt>
      <trkpt lat="38.72813333333333" lon="-9.147263333333333">
        <ele>75.58382950679233</ele>
        <time>2024-09-07T22:17:40.875Z</time>
      </trkpt>
      <trkpt lat="38.72796666666667" lon="-9.147763333333334">
        <ele>67.48504065388175</ele>
        <time>2024-09-07T22:18:34.827Z</time>
      </trkpt>
      <trkpt lat="38.72827333333333" lon="-9.147993333333334">
        <ele>66.68509112509881</ele>
        <time>2024-09-07T22:19:13.834Z</time>
      </trkpt>
      <trkpt lat="38.72836666666667" lon="-9.147883333333334">
        <ele>72.48472909791397</ele>
        <time>2024-09-07T22:19:35.859Z</time>
      </trkpt>
      <trkpt lat="38.728435" lon="-9.148031666666666">
        <ele>72.08487078502814</ele>
        <time>2024-09-07T22:19:42.816Z</time>
      </trkpt>
      <trkpt lat="38.72862" lon="-9.148103333333333">
        <ele>72.08490209283569</ele>
        <time>2024-09-07T22:19:48.863Z</time>
      </trkpt>
      <trkpt lat="38.72864333333334" lon="-9.148296666666665">
        <ele>71.28502818330966</ele>
        <time>2024-09-07T22:19:50.877Z</time>
      </trkpt>
      <trkpt lat="38.728719999999996" lon="-9.148225">
        <ele>71.38493578444498</ele>
        <time>2024-09-07T22:19:52.830Z</time>
      </trkpt>
      <trkpt lat="38.72868666666667" lon="-9.14831">
        <ele>72.1849783621933</ele>
        <time>2024-09-07T22:19:56.850Z</time>
      </trkpt>
      <trkpt lat="38.72874" lon="-9.14846">
        <ele>66.5852699622234</ele>
        <time>2024-09-07T22:20:15.873Z</time>
      </trkpt>
      <trkpt lat="38.72933" lon="-9.148758333333335">
        <ele>67.88492129967884</ele>
        <time>2024-09-07T22:21:15.827Z</time>
      </trkpt>
      <trkpt lat="38.729526666666665" lon="-9.148635">
        <ele>74.68438172908101</ele>
        <time>2024-09-07T22:21:34.864Z</time>
      </trkpt>
      <trkpt lat="38.72965666666666" lon="-9.148643333333332">
        <ele>80.08416906528788</ele>
        <time>2024-09-07T22:21:49.866Z</time>
      </trkpt>
      <trkpt lat="38.73047666666666" lon="-9.148176666666666">
        <ele>102.88193742222612</ele>
        <time>2024-09-07T22:23:14.854Z</time>
      </trkpt>
      <trkpt lat="38.731141666666666" lon="-9.147771666666667">
        <ele>93.6800351201764</ele>
        <time>2024-09-07T22:24:07.863Z</time>
      </trkpt>
      <trkpt lat="38.73120666666667" lon="-9.147911666666666">
        <ele>88.08018476057</ele>
        <time>2024-09-07T22:24:22.879Z</time>
      </trkpt>
      <trkpt lat="38.73126" lon="-9.147865">
        <ele>85.78003713734975</ele>
        <time>2024-09-07T22:24:30.817Z</time>
      </trkpt>
      <trkpt lat="38.731701666666666" lon="-9.148841666666668">
        <ele>81.88104062014175</ele>
        <time>2024-09-08T00:40:53.735Z</time>
      </trkpt>
      <trkpt lat="38.73166833333333" lon="-9.148734999999999">
        <ele>76.88109502570373</ele>
        <time>2024-09-08T00:40:57.764Z</time>
      </trkpt>
      <trkpt lat="38.731555" lon="-9.148698333333334">
        <ele>84.88119299057908</ele>
        <time>2024-09-08T00:41:08.860Z</time>
      </trkpt>
      <trkpt lat="38.73151666666667" lon="-9.148458333333334">
        <ele>72.48082721354726</ele>
        <time>2024-09-08T00:41:24.857Z</time>
      </trkpt>
      <trkpt lat="38.731408333333334" lon="-9.148349999999999">
        <ele>78.68074483604968</ele>
        <time>2024-09-08T00:41:33.852Z</time>
      </trkpt>
      <trkpt lat="38.73121666666667" lon="-9.147823333333333">
        <ele>80.179996427719</ele>
        <time>2024-09-08T00:42:15.853Z</time>
      </trkpt>
      <trkpt lat="38.73122" lon="-9.147651666666667">
        <ele>80.27967360710721</ele>
        <time>2024-09-08T00:42:31.869Z</time>
      </trkpt>
      <trkpt lat="38.73083" lon="-9.146801666666667">
        <ele>86.27856537872131</ele>
        <time>2024-09-08T00:43:36.856Z</time>
      </trkpt>
      <trkpt lat="38.73056333333333" lon="-9.147001666666666">
        <ele>83.07938610617774</ele>
        <time>2024-09-08T00:43:56.867Z</time>
      </trkpt>
      <trkpt lat="38.72931666666667" lon="-9.14781">
        <ele>79.78299182446474</ele>
        <time>2024-09-08T00:46:02.843Z</time>
      </trkpt>
      <trkpt lat="38.72898333333333" lon="-9.147924999999999">
        <ele>80.18377150644847</ele>
        <time>2024-09-08T00:46:34.856Z</time>
      </trkpt>
      <trkpt lat="38.728665" lon="-9.148188333333334">
        <ele>75.08482073808426</ele>
        <time>2024-09-08T00:47:17.850Z</time>
      </trkpt>
      <trkpt lat="38.728165" lon="-9.148356666666666">
        <ele>79.28596716689012</ele>
        <time>2024-09-08T00:48:05.856Z</time>
      </trkpt>
      <trkpt lat="38.727999999999994" lon="-9.148616666666667">
        <ele>86.88677995330153</ele>
        <time>2024-09-08T00:48:56.860Z</time>
      </trkpt>
      <trkpt lat="38.72821833333333" lon="-9.148538333333333">
        <ele>87.58628159844956</ele>
        <time>2024-09-08T00:50:21.853Z</time>
      </trkpt>
      <trkpt lat="38.728181666666664" lon="-9.148666666666665">
        <ele>99.08656300085364</ele>
        <time>2024-09-08T00:51:09.843Z</time>
      </trkpt>
      <trkpt lat="38.72805166666667" lon="-9.148461666666666">
        <ele>102.68641879375434</ele>
        <time>2024-09-08T00:53:23.856Z</time>
      </trkpt>
      <trkpt lat="38.72823666666667" lon="-9.148426666666667">
        <ele>93.88601239676453</ele>
        <time>2024-09-08T00:53:51.857Z</time>
      </trkpt>
      <trkpt lat="38.72831" lon="-9.148316666666666">
        <ele>86.78570117674037</ele>
        <time>2024-09-08T00:54:01.867Z</time>
      </trkpt>
      <trkpt lat="38.729593333333334" lon="-9.147549999999999">
        <ele>76.38209379098461</ele>
        <time>2024-09-08T00:56:11.853Z</time>
      </trkpt>
      <trkpt lat="38.72997" lon="-9.147373333333332">
        <ele>74.88113922253413</ele>
        <time>2024-09-08T00:56:49.857Z</time>
      </trkpt>
      <trkpt lat="38.730045000000004" lon="-9.14747">
        <ele>76.28116084214935</ele>
        <time>2024-09-08T00:56:59.856Z</time>
      </trkpt>
      <trkpt lat="38.73004" lon="-9.147671666666668">
        <ele>74.88158074403177</ele>
        <time>2024-09-08T00:57:16.856Z</time>
      </trkpt>
      <trkpt lat="38.73013" lon="-9.147586666666665">
        <ele>75.88128136710651</ele>
        <time>2024-09-08T00:58:15.853Z</time>
      </trkpt>
      <trkpt lat="38.730035" lon="-9.147643333333333">
        <ele>74.78154426313878</ele>
        <time>2024-09-08T00:59:41.853Z</time>
      </trkpt>
      <trkpt lat="38.73007666666667" lon="-9.147603333333333">
        <ele>74.78153953221371</ele>
        <time>2024-09-08T01:00:14.846Z</time>
      </trkpt>
      <trkpt lat="38.729955000000004" lon="-9.147388333333334">
        <ele>74.28118656938545</ele>
        <time>2024-09-08T01:00:35.864Z</time>
      </trkpt>
      <trkpt lat="38.729845" lon="-9.147331666666666">
        <ele>75.78119725607135</ele>
        <time>2024-09-08T01:00:46.853Z</time>
      </trkpt>
      <trkpt lat="38.728275000000004" lon="-9.148351666666667">
        <ele>68.58577685690668</ele>
        <time>2024-09-08T01:03:30.856Z</time>
      </trkpt>
      <trkpt lat="38.72817" lon="-9.148385">
        <ele>71.78602453250127</ele>
        <time>2024-09-08T01:03:43.824Z</time>
      </trkpt>
      <trkpt lat="38.72796833333334" lon="-9.148291666666667">
        <ele>110.88619969681314</ele>
        <time>2024-09-08T01:03:54.843Z</time>
      </trkpt>
      <trkpt lat="38.728026666666665" lon="-9.14838">
        <ele>117.88625497913584</ele>
        <time>2024-09-08T01:04:17.859Z</time>
      </trkpt>
      <trkpt lat="38.728044999999995" lon="-9.148273333333332">
        <ele>104.2860144593452</ele>
        <time>2024-09-08T01:04:35.846Z</time>
      </trkpt>
      <trkpt lat="38.72802" lon="-9.148385">
        <ele>103.78601574841852</ele>
        <time>2024-09-08T01:05:04.857Z</time>
      </trkpt>
      <trkpt lat="38.72911166666667" lon="-9.147715">
        <ele>75.68324104097215</ele>
        <time>2024-09-08T01:07:00.854Z</time>
      </trkpt>
      <trkpt lat="38.72866" lon="-9.146468333333333">
        <ele>80.28143308726472</ele>
        <time>2024-09-08T01:08:35.843Z</time>
      </trkpt>
      <trkpt lat="38.72824833333333" lon="-9.146656666666667">
        <ele>68.08242540795334</ele>
        <time>2024-09-08T01:09:11.860Z</time>
      </trkpt>
      <trkpt lat="38.72817" lon="-9.146778333333334">
        <ele>66.48281600073824</ele>
        <time>2024-09-08T01:09:28.856Z</time>
      </trkpt>
      <trkpt lat="38.72805833333334" lon="-9.146703333333333">
        <ele>69.48284563710021</ele>
        <time>2024-09-08T01:09:46.853Z</time>
      </trkpt>
      <trkpt lat="38.727885" lon="-9.146786666666666">
        <ele>75.18328236509188</ele>
        <time>2024-09-08T01:10:06.853Z</time>
      </trkpt>
      <trkpt lat="38.72775" lon="-9.146596666666666">
        <ele>73.98315002476716</ele>
        <time>2024-09-08T01:10:26.854Z</time>
      </trkpt>
      <trkpt lat="38.72752166666667" lon="-9.146493333333332">
        <ele>73.38330410784134</ele>
        <time>2024-09-08T01:10:49.853Z</time>
      </trkpt>
      <trkpt lat="38.72746333333334" lon="-9.146341666666666">
        <ele>72.68308340117474</ele>
        <time>2024-09-08T01:10:59.856Z</time>
      </trkpt>
      <trkpt lat="38.727491666666666" lon="-9.146166666666666">
        <ele>73.68271510787486</ele>
        <time>2024-09-08T01:11:09.856Z</time>
      </trkpt>
      <trkpt lat="38.727365" lon="-9.145936666666667">
        <ele>70.88244524325458</ele>
        <time>2024-09-08T01:11:32.455Z</time>
      </trkpt>
      <trkpt lat="38.72763909329339" lon="-9.145726154670712">
        <ele>72.26700861830962</ele>
        <time>2024-09-08T01:12:05.333Z</time>
      </trkpt>
      <trkpt lat="38.727807566740836" lon="-9.145935245124093">
        <ele>73.37376798051545</ele>
        <time>2024-09-08T01:12:29.462Z</time>
      </trkpt>
      <trkpt lat="38.727660727154245" lon="-9.145717507408477">
        <ele>72.54493689358517</ele>
        <time>2024-09-08T01:13:38.173Z</time>
      </trkpt>
      <trkpt lat="38.72797666666667" lon="-9.145333333333333">
        <ele>69.38027801297764</ele>
        <time>2024-09-08T02:34:47.575Z</time>
      </trkpt>
      <trkpt lat="38.728035" lon="-9.145064999999999">
        <ele>66.77962945230857</ele>
        <time>2024-09-08T02:35:05.556Z</time>
      </trkpt>
      <trkpt lat="38.72817" lon="-9.145015">
        <ele>67.27932725705367</ele>
        <time>2024-09-08T02:35:16.582Z</time>
      </trkpt>
      <trkpt lat="38.72844666666666" lon="-9.144308333333333">
        <ele>61.977495826442755</ele>
        <time>2024-09-08T02:36:17.592Z</time>
      </trkpt>
      <trkpt lat="38.72875" lon="-9.144116666666667">
        <ele>64.97659599999858</ele>
        <time>2024-09-08T02:36:42.586Z</time>
      </trkpt>
      <trkpt lat="38.728995000000005" lon="-9.144295">
        <ele>74.87653211349888</ele>
        <time>2024-09-08T02:37:04.563Z</time>
      </trkpt>
      <trkpt lat="38.72929166666667" lon="-9.143835">
        <ele>83.07517635803063</ele>
        <time>2024-09-08T02:37:49.575Z</time>
      </trkpt>
      <trkpt lat="38.729441666666666" lon="-9.143714999999998">
        <ele>83.77467103900713</ele>
        <time>2024-09-08T02:38:04.565Z</time>
      </trkpt>
      <trkpt lat="38.730133333333335" lon="-9.144406666666667">
        <ele>80.87491140047429</ele>
        <time>2024-09-08T02:39:17.559Z</time>
      </trkpt>
      <trkpt lat="38.73026" lon="-9.14483">
        <ele>88.6755382769318</ele>
        <time>2024-09-08T02:39:47.558Z</time>
      </trkpt>
      <trkpt lat="38.73018666666667" lon="-9.144883333333333">
        <ele>88.7757602379368</ele>
        <time>2024-09-08T02:39:58.536Z</time>
      </trkpt>
      <trkpt lat="38.73018166666667" lon="-9.145105000000001">
        <ele>87.27621815551198</ele>
        <time>2024-09-08T02:40:16.592Z</time>
      </trkpt>
      <trkpt lat="38.73036166666667" lon="-9.145371666666668">
        <ele>85.67647507661076</ele>
        <time>2024-09-08T02:40:32.579Z</time>
      </trkpt>
      <trkpt lat="38.73027833333333" lon="-9.145430000000001">
        <ele>90.77670317711201</ele>
        <time>2024-09-08T02:40:40.582Z</time>
      </trkpt>
      <trkpt lat="38.730381666666666" lon="-9.14559">
        <ele>90.57686210130193</ele>
        <time>2024-09-08T02:40:49.575Z</time>
      </trkpt>
      <trkpt lat="38.730378333333334" lon="-9.145833333333334">
        <ele>81.97736298770721</ele>
        <time>2024-09-08T02:41:05.579Z</time>
      </trkpt>
      <trkpt lat="38.730693333333335" lon="-9.14685">
        <ele>86.37888449132012</ele>
        <time>2024-09-08T02:43:20.591Z</time>
      </trkpt>
      <trkpt lat="38.730896666666666" lon="-9.147248333333332">
        <ele>77.97936167524422</ele>
        <time>2024-09-08T02:43:56.582Z</time>
      </trkpt>
      <trkpt lat="38.7309" lon="-9.147131666666667">
        <ele>78.77910998117639</ele>
        <time>2024-09-08T02:44:55.556Z</time>
      </trkpt>
      <trkpt lat="38.731138333333334" lon="-9.147870000000001">
        <ele>89.98019188666322</ele>
        <time>2024-09-08T02:45:54.550Z</time>
      </trkpt>
      <trkpt lat="38.73129666666667" lon="-9.147885">
        <ele>91.27999862723996</ele>
        <time>2024-09-08T02:46:38.386Z</time>
      </trkpt>
      <trkpt lat="38.73145338676062" lon="-9.14833724101814">
        <ele>84.77393114437976</ele>
        <time>2024-09-08T02:48:25.393Z</time>
      </trkpt>
      <trkpt lat="38.73149615036294" lon="-9.148175938046279">
        <ele>85.28001610645045</ele>
        <time>2024-09-08T02:48:42.861Z</time>
      </trkpt>
    </trkseg>
  </trk>
</gpx>
