<?xml version="1.0" encoding="UTF-8"?>
<gpx version="1.1" creator="Export" xmlns="http://www.topografix.com/GPX/1/1" xmlns:xsi="http://www.w3.org/2001/XMLSchema-instance" xsi:schemaLocation="http://www.topografix.com/GPX/1/1 http://www.topografix.com/GPX/1/1/gpx.xsd http://www.garmin.com/xmlschemas/GpxExtensions/v3 http://www.garmin.com/xmlschemas/GpxExtensionsv3.xsd http://www.garmin.com/xmlschemas/TrackPointExtension/v1 http://www.garmin.com/xmlschemas/TrackPointExtensionv1.xsd http://www.garmin.com/xmlschemas/PowerExtension/v1 http://www.garmin.com/xmlschemas/PowerExtensionv1.xsd http://www.topografix.com/GPX/gpx_style/0/2 http://www.topografix.com/GPX/gpx_style/0/2/gpx_style.xsd" xmlns:gpxtpx="http://www.garmin.com/xmlschemas/TrackPointExtension/v1" xmlns:gpxx="http://www.garmin.com/xmlschemas/GpxExtensions/v3" xmlns:gpxpx="http://www.garmin.com/xmlschemas/PowerExtension/v1" xmlns:gpx_style="http://www.topografix.com/GPX/gpx_style/0/2">
  <metadata>
    <name>activity_168_2024-08-25</name>
    <author>
      <name>gpx.studio</name>
      <link href="https://gpx.studio"/>
    </author>
  </metadata>
  <wpt lat="51.221091" lon="4.400313">
    <ele>16.414136576710945</ele>
    <name>Bar Rococo</name>
    <sym>Gas Station</sym>
  </wpt>
  <trk>
    <name>activity_168_2024-08-25</name>
    <trkseg>
      <trkpt lat="51.22043833333334" lon="4.400345">
        <ele>28.80638742660299</ele>
        <time>2024-08-25T21:12:47.752Z</time>
      </trkpt>
      <trkpt lat="51.220491666666675" lon="4.40035">
        <ele>27.406442816036616</ele>
        <time>2024-08-25T21:12:49.750Z</time>
      </trkpt>
      <trkpt lat="51.220415" lon="4.400376666666667">
        <ele>21.806484167133945</ele>
        <time>2024-08-25T21:12:52.589Z</time>
      </trkpt>
      <trkpt lat="51.220436666666664" lon="4.400193333333333">
        <ele>22.206351018395672</ele>
        <time>2024-08-25T21:13:00.578Z</time>
      </trkpt>
      <trkpt lat="51.22050833333333" lon="4.400136666666667">
        <ele>28.406244646812922</ele>
        <time>2024-08-25T21:13:05.576Z</time>
      </trkpt>
      <trkpt lat="51.22045166666667" lon="4.400173333333333">
        <ele>26.206281892083766</ele>
        <time>2024-08-25T21:13:08.569Z</time>
      </trkpt>
      <trkpt lat="51.22045833333333" lon="4.40012">
        <ele>30.106238031919332</ele>
        <time>2024-08-25T21:13:15.576Z</time>
      </trkpt>
      <trkpt lat="51.220589999999994" lon="4.400173333333333">
        <ele>18.906241941351396</ele>
        <time>2024-08-25T21:13:38.572Z</time>
      </trkpt>
      <trkpt lat="51.220578333333336" lon="4.400363333333333">
        <ele>22.50644157918495</ele>
        <time>2024-08-25T21:13:55.578Z</time>
      </trkpt>
      <trkpt lat="51.22116166666667" lon="4.400181666666667">
        <ele>13.20605759283793</ele>
        <time>2024-08-25T21:22:10.845Z</time>
      </trkpt>
      <trkpt lat="51.221266666666665" lon="4.40037">
        <ele>17.14809036031419</ele>
        <time>2024-08-25T21:24:22.442Z</time>
      </trkpt>
      <trkpt lat="51.22123333333334" lon="4.40015">
        <ele>17.051738879824576</ele>
        <time>2024-08-25T21:24:46.538Z</time>
      </trkpt>
      <trkpt lat="51.22130666666667" lon="4.400076666666666">
        <ele>17</ele>
        <time>2024-08-25T22:44:36.974Z</time>
      </trkpt>
      <trkpt lat="51.22141166666667" lon="4.400215">
        <ele>16.717796083520298</ele>
        <time>2024-08-25T22:44:54.126Z</time>
      </trkpt>
      <trkpt lat="51.22118666666667" lon="4.400173333333333">
        <ele>21.406041754856048</ele>
        <time>2024-08-25T23:12:52.129Z</time>
      </trkpt>
      <trkpt lat="51.221000000000004" lon="4.399843333333333">
        <ele>14.791212785151098</ele>
        <time>2024-08-25T23:14:25.459Z</time>
      </trkpt>
      <trkpt lat="51.220945" lon="4.399263333333334">
        <ele>11.705169640724947</ele>
        <time>2024-08-25T23:17:21.831Z</time>
      </trkpt>
      <trkpt lat="51.220761666666675" lon="4.399135">
        <ele>8.705087183665405</ele>
        <time>2024-08-25T23:18:01.841Z</time>
      </trkpt>
      <trkpt lat="51.22083166666666" lon="4.399103333333333">
        <ele>9.105037033745454</ele>
        <time>2024-08-25T23:18:15.339Z</time>
      </trkpt>
      <trkpt lat="51.22101333333333" lon="4.399231666666666">
        <ele>12.846235741256718</ele>
        <time>2024-08-25T23:18:52.194Z</time>
      </trkpt>
      <trkpt lat="51.22097" lon="4.399123333333334">
        <ele>6.505028094478398</ele>
        <time>2024-08-25T23:20:34.828Z</time>
      </trkpt>
      <trkpt lat="51.22105499999999" lon="4.398736666666666">
        <ele>11.20460647855299</ele>
        <time>2024-08-25T23:21:01.838Z</time>
      </trkpt>
      <trkpt lat="51.220895000000006" lon="4.398678333333334">
        <ele>16.00456574695935</ele>
        <time>2024-08-25T23:21:17.831Z</time>
      </trkpt>
      <trkpt lat="51.22087" lon="4.398781666666666">
        <ele>17.204679100806956</ele>
        <time>2024-08-25T23:21:30.844Z</time>
      </trkpt>
      <trkpt lat="51.22103666666667" lon="4.398225">
        <ele>11.804044891221793</ele>
        <time>2024-08-25T23:22:52.852Z</time>
      </trkpt>
      <trkpt lat="51.22114333333334" lon="4.397391666666667">
        <ele>11.103130301539288</ele>
        <time>2024-08-25T23:24:18.878Z</time>
      </trkpt>
      <trkpt lat="51.22110333333333" lon="4.397986666666667">
        <ele>17.3037576823491</ele>
        <time>2024-08-25T23:25:05.858Z</time>
      </trkpt>
      <trkpt lat="51.22109999999999" lon="4.397883333333334">
        <ele>16.703659508956527</ele>
        <time>2024-08-25T23:25:24.842Z</time>
      </trkpt>
      <trkpt lat="51.22108" lon="4.39797">
        <ele>15.80375031467139</ele>
        <time>2024-08-25T23:25:38.824Z</time>
      </trkpt>
      <trkpt lat="51.221030000000006" lon="4.39784">
        <ele>21.60364543940684</ele>
        <time>2024-08-25T23:26:24.854Z</time>
      </trkpt>
      <trkpt lat="51.22105166666667" lon="4.398070000000001">
        <ele>16.90384905781213</ele>
        <time>2024-08-25T23:26:41.825Z</time>
      </trkpt>
      <trkpt lat="51.22082166666667" lon="4.398868333333334">
        <ele>11.104786271838492</ele>
        <time>2024-08-25T23:27:39.818Z</time>
      </trkpt>
      <trkpt lat="51.22096499999999" lon="4.39895">
        <ele>10.904824629344915</ele>
        <time>2024-08-25T23:28:07.046Z</time>
      </trkpt>
      <trkpt lat="51.22096666666666" lon="4.39919">
        <ele>12.541386093665176</ele>
        <time>2024-08-25T23:28:33.941Z</time>
      </trkpt>
      <trkpt lat="51.22106999999999" lon="4.399585">
        <ele>12.405451599046742</ele>
        <time>2024-08-25T23:29:10.837Z</time>
      </trkpt>
      <trkpt lat="51.22112333333333" lon="4.39973">
        <ele>11.405585270022115</ele>
        <time>2024-08-25T23:29:23.837Z</time>
      </trkpt>
      <trkpt lat="51.22128833333333" lon="4.399870000000001">
        <ele>10.40567731415333</ele>
        <time>2024-08-25T23:29:40.868Z</time>
      </trkpt>
      <trkpt lat="51.22135" lon="4.400103333333333">
        <ele>10.605913823012571</ele>
        <time>2024-08-25T23:29:57.852Z</time>
      </trkpt>
      <trkpt lat="51.22123166666667" lon="4.400698333333334">
        <ele>10.106556577318862</ele>
        <time>2024-08-25T23:30:39.842Z</time>
      </trkpt>
      <trkpt lat="51.22135333333334" lon="4.400729999999999">
        <ele>11.806569536037173</ele>
        <time>2024-08-25T23:30:53.858Z</time>
      </trkpt>
      <trkpt lat="51.221315000000004" lon="4.4009833333333335">
        <ele>17.406837448698496</ele>
        <time>2024-08-25T23:31:14.868Z</time>
      </trkpt>
      <trkpt lat="51.221180000000004" lon="4.401646666666666">
        <ele>14.20757268246303</ele>
        <time>2024-08-25T23:32:02.865Z</time>
      </trkpt>
      <trkpt lat="51.221125" lon="4.40179">
        <ele>4.607763623479421</ele>
        <time>2024-08-25T23:32:27.867Z</time>
      </trkpt>
      <trkpt lat="51.22111833333334" lon="4.401643333333333">
        <ele>5.707603004445225</ele>
        <time>2024-08-25T23:32:54.861Z</time>
      </trkpt>
      <trkpt lat="51.22116333333334" lon="4.401660000000001">
        <ele>5.207640795567691</ele>
        <time>2024-08-25T23:33:03.870Z</time>
      </trkpt>
      <trkpt lat="51.22109166666667" lon="4.401525">
        <ele>5.7074942564683795</ele>
        <time>2024-08-25T23:33:10.865Z</time>
      </trkpt>
      <trkpt lat="51.22111833333334" lon="4.401610000000001">
        <ele>6.007534788265119</ele>
        <time>2024-08-25T23:33:12.834Z</time>
      </trkpt>
      <trkpt lat="51.221043333333334" lon="4.401823333333334">
        <ele>8.907808221823828</ele>
        <time>2024-08-25T23:33:36.835Z</time>
      </trkpt>
      <trkpt lat="51.22111666666667" lon="4.4024833333333335">
        <ele>6.208486137937946</ele>
        <time>2024-08-25T23:34:23.873Z</time>
      </trkpt>
      <trkpt lat="51.22105666666666" lon="4.402635">
        <ele>7.80867201266517</ele>
        <time>2024-08-25T23:34:38.868Z</time>
      </trkpt>
      <trkpt lat="51.22084499999999" lon="4.40261">
        <ele>6.5087188861617165</ele>
        <time>2024-08-25T23:34:58.860Z</time>
      </trkpt>
      <trkpt lat="51.22082333333333" lon="4.402781666666667">
        <ele>7.10890301926414</ele>
        <time>2024-08-25T23:35:08.829Z</time>
      </trkpt>
      <trkpt lat="51.22064833333334" lon="4.40261">
        <ele>15.608788756179003</ele>
        <time>2024-08-25T23:35:34.867Z</time>
      </trkpt>
      <trkpt lat="51.220218333333335" lon="4.402686666666667">
        <ele>11.809008738755367</ele>
        <time>2024-08-25T23:36:31.877Z</time>
      </trkpt>
      <trkpt lat="51.22016833333334" lon="4.402608333333333">
        <ele>11.809009835872267</ele>
        <time>2024-08-25T23:36:50.874Z</time>
      </trkpt>
      <trkpt lat="51.219834999999996" lon="4.4027650000000005">
        <ele>15.309207778575782</ele>
        <time>2024-08-25T23:37:26.870Z</time>
      </trkpt>
      <trkpt lat="51.21964666666666" lon="4.402715">
        <ele>18.609228695187227</ele>
        <time>2024-08-25T23:37:45.865Z</time>
      </trkpt>
      <trkpt lat="51.21951000000001" lon="4.402831666666667">
        <ele>22.609367515899066</ele>
        <time>2024-08-25T23:37:57.864Z</time>
      </trkpt>
      <trkpt lat="51.21904166666666" lon="4.4042">
        <ele>16.610996087315584</ele>
        <time>2024-08-25T23:39:44.865Z</time>
      </trkpt>
      <trkpt lat="51.21895333333334" lon="4.404221666666667">
        <ele>15.911030181524808</ele>
        <time>2024-08-25T23:39:53.861Z</time>
      </trkpt>
      <trkpt lat="51.21890833333334" lon="4.4044300000000005">
        <ele>11.911255865515564</ele>
        <time>2024-08-25T23:40:04.871Z</time>
      </trkpt>
      <trkpt lat="51.21868166666666" lon="4.404615000000001">
        <ele>7.911540890602055</ele>
        <time>2024-08-25T23:40:35.865Z</time>
      </trkpt>
      <trkpt lat="51.218664999999994" lon="4.404848333333334">
        <ele>5.211779758773297</ele>
        <time>2024-08-25T23:40:47.858Z</time>
      </trkpt>
      <trkpt lat="51.21855000000001" lon="4.405016666666667">
        <ele>8.712005272255041</ele>
        <time>2024-08-25T23:41:04.881Z</time>
      </trkpt>
      <trkpt lat="51.21852666666667" lon="4.405895">
        <ele>7.412934974953728</ele>
        <time>2024-08-25T23:41:46.865Z</time>
      </trkpt>
      <trkpt lat="51.21848333333334" lon="4.406015">
        <ele>6.513088335810977</ele>
        <time>2024-08-25T23:41:56.874Z</time>
      </trkpt>
      <trkpt lat="51.21843333333333" lon="4.406000000000001">
        <ele>6.513090062272667</ele>
        <time>2024-08-25T23:42:11.873Z</time>
      </trkpt>
      <trkpt lat="51.21836666666666" lon="4.40636">
        <ele>11.213484198677286</ele>
        <time>2024-08-25T23:42:46.855Z</time>
      </trkpt>
      <trkpt lat="51.218385000000005" lon="4.406678333333333">
        <ele>12.813805899277781</ele>
        <time>2024-08-25T23:43:04.873Z</time>
      </trkpt>
      <trkpt lat="51.21832666666666" lon="4.406965">
        <ele>13.014126557012688</ele>
        <time>2024-08-25T23:43:25.854Z</time>
      </trkpt>
      <trkpt lat="51.21836" lon="4.407876666666667">
        <ele>11.315082863546039</ele>
        <time>2024-08-25T23:44:16.860Z</time>
      </trkpt>
      <trkpt lat="51.21827499999999" lon="4.408206666666667">
        <ele>9.615456632313226</ele>
        <time>2024-08-25T23:44:39.873Z</time>
      </trkpt>
      <trkpt lat="51.21822333333333" lon="4.408791666666667">
        <ele>9.316100116811619</ele>
        <time>2024-08-25T23:45:15.864Z</time>
      </trkpt>
      <trkpt lat="51.218046666666666" lon="4.408875">
        <ele>8.516254475709957</ele>
        <time>2024-08-25T23:45:35.831Z</time>
      </trkpt>
      <trkpt lat="51.21801000000001" lon="4.4090066666666665">
        <ele>9.316408641406674</ele>
        <time>2024-08-25T23:45:44.828Z</time>
      </trkpt>
      <trkpt lat="51.21794833333333" lon="4.408988333333334">
        <ele>9.916409276380612</ele>
        <time>2024-08-25T23:45:52.829Z</time>
      </trkpt>
      <trkpt lat="51.21806" lon="4.409063333333333">
        <ele>12.916452150378909</ele>
        <time>2024-08-25T23:46:10.851Z</time>
      </trkpt>
      <trkpt lat="51.21808833333333" lon="4.409273333333333">
        <ele>11.216650303023933</ele>
        <time>2024-08-25T23:46:22.864Z</time>
      </trkpt>
      <trkpt lat="51.21804333333333" lon="4.411371666666667">
        <ele>15.118889043351267</ele>
        <time>2024-08-25T23:48:57.837Z</time>
      </trkpt>
      <trkpt lat="51.21813166666667" lon="4.411453333333333">
        <ele>16.918955900804598</ele>
        <time>2024-08-25T23:49:07.822Z</time>
      </trkpt>
      <trkpt lat="51.21831666666667" lon="4.412328333333334">
        <ele>13.719843340453899</ele>
        <time>2024-08-25T23:50:20.825Z</time>
      </trkpt>
      <trkpt lat="51.21835333333333" lon="4.412886666666666">
        <ele>13.22040335153563</ele>
        <time>2024-08-25T23:51:03.824Z</time>
      </trkpt>
      <trkpt lat="51.21812333333334" lon="4.41423">
        <ele>9.621916479871274</ele>
        <time>2024-08-25T23:52:36.867Z</time>
      </trkpt>
      <trkpt lat="51.21819666666667" lon="4.414656666666667">
        <ele>14.222355082497948</ele>
        <time>2024-08-25T23:53:05.861Z</time>
      </trkpt>
      <trkpt lat="51.21809" lon="4.415063333333333">
        <ele>13.922790167259151</ele>
        <time>2024-08-25T23:53:30.835Z</time>
      </trkpt>
      <trkpt lat="51.218116666666674" lon="4.415450000000001">
        <ele>15.223204285452958</ele>
        <time>2024-08-25T23:53:52.857Z</time>
      </trkpt>
      <trkpt lat="51.21794" lon="4.416406666666666">
        <ele>5.624291782047955</ele>
        <time>2024-08-25T23:54:58.874Z</time>
      </trkpt>
      <trkpt lat="51.21787333333334" lon="4.416423333333333">
        <ele>7.124345310307916</ele>
        <time>2024-08-25T23:55:10.832Z</time>
      </trkpt>
      <trkpt lat="51.217921666666676" lon="4.416426666666666">
        <ele>12.324337308807735</ele>
        <time>2024-08-25T23:55:19.861Z</time>
      </trkpt>
      <trkpt lat="51.21789999999999" lon="4.416643333333334">
        <ele>9.42455553964006</ele>
        <time>2024-08-25T23:56:04.868Z</time>
      </trkpt>
      <trkpt lat="51.21801333333333" lon="4.416696666666667">
        <ele>11.92459114656372</ele>
        <time>2024-08-25T23:56:14.857Z</time>
      </trkpt>
      <trkpt lat="51.21786166666667" lon="4.41702">
        <ele>16.024939441888947</ele>
        <time>2024-08-25T23:56:31.867Z</time>
      </trkpt>
      <trkpt lat="51.2177" lon="4.41873">
        <ele>10.02684179922543</ele>
        <time>2024-08-25T23:57:56.873Z</time>
      </trkpt>
      <trkpt lat="51.217535" lon="4.419393333333333">
        <ele>12.12760213116156</ele>
        <time>2024-08-25T23:58:29.868Z</time>
      </trkpt>
      <trkpt lat="51.217535" lon="4.4198916666666666">
        <ele>9.328144057306545</ele>
        <time>2024-08-25T23:58:54.861Z</time>
      </trkpt>
      <trkpt lat="51.217458333333326" lon="4.420201666666667">
        <ele>8.92848455448219</ele>
        <time>2024-08-25T23:59:08.854Z</time>
      </trkpt>
      <trkpt lat="51.21710500000001" lon="4.4205950000000005">
        <ele>15.229037965454168</ele>
        <time>2024-08-25T23:59:39.870Z</time>
      </trkpt>
      <trkpt lat="51.216945" lon="4.420611666666667">
        <ele>19.629116768225607</ele>
        <time>2024-08-25T23:59:53.867Z</time>
      </trkpt>
      <trkpt lat="51.216829999999995" lon="4.420546666666667">
        <ele>24.62907853873248</ele>
        <time>2024-08-26T00:00:06.871Z</time>
      </trkpt>
      <trkpt lat="51.216775000000005" lon="4.420368333333333">
        <ele>25.52892336381352</ele>
        <time>2024-08-26T00:00:13.864Z</time>
      </trkpt>
      <trkpt lat="51.216648333333325" lon="4.420419999999999">
        <ele>13.429003504301974</ele>
        <time>2024-08-26T00:01:00.864Z</time>
      </trkpt>
      <trkpt lat="51.21659833333333" lon="4.420365">
        <ele>14.828976193073622</ele>
        <time>2024-08-26T00:01:06.873Z</time>
      </trkpt>
      <trkpt lat="51.21683500000001" lon="4.42017">
        <ele>15.428691421859128</ele>
        <time>2024-08-26T00:01:30.857Z</time>
      </trkpt>
      <trkpt lat="51.21720666666667" lon="4.420125">
        <ele>20.02852782971153</ele>
        <time>2024-08-26T00:02:11.845Z</time>
      </trkpt>
      <trkpt lat="51.21735833333334" lon="4.420251666666667">
        <ele>22.22860565151923</ele>
        <time>2024-08-26T00:02:32.855Z</time>
      </trkpt>
      <trkpt lat="51.217283333333334" lon="4.420416666666667">
        <ele>18.428800218373027</ele>
        <time>2024-08-26T00:02:44.402Z</time>
      </trkpt>
      <trkpt lat="51.21754666666667" lon="4.420553333333333">
        <ele>11.349279310420151</ele>
        <time>2024-08-26T00:03:09.441Z</time>
      </trkpt>
      <trkpt lat="51.217620000000004" lon="4.420798333333334">
        <ele>12.52909551917434</ele>
        <time>2024-08-26T00:13:37.082Z</time>
      </trkpt>
      <trkpt lat="51.21752333333334" lon="4.420911666666667">
        <ele>11.829255641902733</ele>
        <time>2024-08-26T00:14:01.088Z</time>
      </trkpt>
      <trkpt lat="51.217575000000004" lon="4.42111">
        <ele>7.629438851607169</ele>
        <time>2024-08-26T00:14:19.081Z</time>
      </trkpt>
      <trkpt lat="51.217686666666665" lon="4.42132">
        <ele>7.0296349301817</ele>
        <time>2024-08-26T00:14:38.068Z</time>
      </trkpt>
      <trkpt lat="51.217841666666665" lon="4.421385">
        <ele>7.9296598258766835</ele>
        <time>2024-08-26T00:14:53.055Z</time>
      </trkpt>
      <trkpt lat="51.21782833333334" lon="4.421548333333333">
        <ele>12.929839873625333</ele>
        <time>2024-08-26T00:15:08.042Z</time>
      </trkpt>
      <trkpt lat="51.21804999999999" lon="4.421523333333334">
        <ele>12.929750190484086</ele>
        <time>2024-08-26T00:15:37.052Z</time>
      </trkpt>
      <trkpt lat="51.21812833333333" lon="4.4216066666666665">
        <ele>11.929807616212521</ele>
        <time>2024-08-26T00:15:47.038Z</time>
      </trkpt>
      <trkpt lat="51.21865833333333" lon="4.421670000000001">
        <ele>15.129710465272211</ele>
        <time>2024-08-26T00:16:34.076Z</time>
      </trkpt>
      <trkpt lat="51.21860333333334" lon="4.4215816666666665">
        <ele>14.329661474837877</ele>
        <time>2024-08-26T00:16:43.046Z</time>
      </trkpt>
      <trkpt lat="51.21883166666667" lon="4.421616666666667">
        <ele>17.329618124056033</ele>
        <time>2024-08-26T00:17:19.085Z</time>
      </trkpt>
      <trkpt lat="51.21888166666666" lon="4.421741666666667">
        <ele>18.729716452161448</ele>
        <time>2024-08-26T00:17:28.088Z</time>
      </trkpt>
      <trkpt lat="51.21877833333333" lon="4.421643333333334">
        <ele>17.129654013426894</ele>
        <time>2024-08-26T00:17:38.078Z</time>
      </trkpt>
      <trkpt lat="51.21877166666666" lon="4.421458333333334">
        <ele>15.529466915482132</ele>
        <time>2024-08-26T00:17:46.078Z</time>
      </trkpt>
      <trkpt lat="51.21883166666667" lon="4.421296666666667">
        <ele>12.629267380091726</ele>
        <time>2024-08-26T00:18:02.127Z</time>
      </trkpt>
      <trkpt lat="51.21850833333333" lon="4.421165">
        <ele>13.192897926924092</ele>
        <time>2024-08-26T00:18:15.678Z</time>
      </trkpt>
      <trkpt lat="51.21895833333333" lon="4.42124">
        <ele>22.32843596807048</ele>
        <time>2024-08-26T00:19:30.487Z</time>
      </trkpt>
      <trkpt lat="51.218803333333334" lon="4.421101666666667">
        <ele>20.429057106194676</ele>
        <time>2024-08-26T00:21:02.860Z</time>
      </trkpt>
      <trkpt lat="51.21833" lon="4.421058333333334">
        <ele>7.5291528078731815</ele>
        <time>2024-08-26T00:21:43.860Z</time>
      </trkpt>
      <trkpt lat="51.218315" lon="4.42083">
        <ele>6.22894205017014</ele>
        <time>2024-08-26T00:21:55.669Z</time>
      </trkpt>
      <trkpt lat="51.21835166666666" lon="4.420471666666667">
        <ele>7.028529845533775</ele>
        <time>2024-08-26T00:22:20.679Z</time>
      </trkpt>
      <trkpt lat="51.21814333333334" lon="4.420336666666667">
        <ele>5.928450965876479</ele>
        <time>2024-08-26T00:22:47.688Z</time>
      </trkpt>
      <trkpt lat="51.218070000000004" lon="4.420421666666667">
        <ele>4.828549536505548</ele>
        <time>2024-08-26T00:22:56.679Z</time>
      </trkpt>
      <trkpt lat="51.218248333333335" lon="4.419076666666667">
        <ele>4.527081360313687</ele>
        <time>2024-08-26T00:24:25.682Z</time>
      </trkpt>
      <trkpt lat="51.21846166666666" lon="4.4185083333333335">
        <ele>5.126386951790771</ele>
        <time>2024-08-26T00:25:14.681Z</time>
      </trkpt>
      <trkpt lat="51.218453333333336" lon="4.418175000000001">
        <ele>10.026053479379136</ele>
        <time>2024-08-26T00:25:41.683Z</time>
      </trkpt>
      <trkpt lat="51.218576666666664" lon="4.41791">
        <ele>18.625711257277757</ele>
        <time>2024-08-26T00:26:10.695Z</time>
      </trkpt>
      <trkpt lat="51.218355" lon="4.417878333333333">
        <ele>24.42574758606178</ele>
        <time>2024-08-26T00:26:32.649Z</time>
      </trkpt>
      <trkpt lat="51.21837833333334" lon="4.41817">
        <ele>31.326027486528254</ele>
        <time>2024-08-26T00:26:45.659Z</time>
      </trkpt>
      <trkpt lat="51.21830333333334" lon="4.418356666666667">
        <ele>23.526273788075436</ele>
        <time>2024-08-26T00:27:00.692Z</time>
      </trkpt>
      <trkpt lat="51.21844166666666" lon="4.418361666666667">
        <ele>35.62624075603005</ele>
        <time>2024-08-26T00:27:56.695Z</time>
      </trkpt>
      <trkpt lat="51.21841166666666" lon="4.418388333333334">
        <ele>27.726362519825287</ele>
        <time>2024-08-26T00:29:22.656Z</time>
      </trkpt>
      <trkpt lat="51.218293333333335" lon="4.418621666666667">
        <ele>12.026550386869388</ele>
        <time>2024-08-26T00:29:39.688Z</time>
      </trkpt>
      <trkpt lat="51.21821666666666" lon="4.41927">
        <ele>18.227265477297372</ele>
        <time>2024-08-26T00:30:15.671Z</time>
      </trkpt>
      <trkpt lat="51.21929166666667" lon="4.41949">
        <ele>24.3271924452623</ele>
        <time>2024-08-26T00:31:54.695Z</time>
      </trkpt>
      <trkpt lat="51.219338333333326" lon="4.419438333333333">
        <ele>19.02710536437838</ele>
        <time>2024-08-26T00:32:04.685Z</time>
      </trkpt>
      <trkpt lat="51.21937166666667" lon="4.419575">
        <ele>17.527226559574295</ele>
        <time>2024-08-26T00:32:18.699Z</time>
      </trkpt>
      <trkpt lat="51.21932166666667" lon="4.419643333333334">
        <ele>17.927316356454696</ele>
        <time>2024-08-26T00:32:41.681Z</time>
      </trkpt>
      <trkpt lat="51.21933166666666" lon="4.419735">
        <ele>18.12741780041342</ele>
        <time>2024-08-26T00:32:48.662Z</time>
      </trkpt>
      <trkpt lat="51.21928166666667" lon="4.419745000000001">
        <ele>18.227441933050606</ele>
        <time>2024-08-26T00:32:51.695Z</time>
      </trkpt>
      <trkpt lat="51.21912333333333" lon="4.419373333333334">
        <ele>18.52711803073145</ele>
        <time>2024-08-26T00:33:01.689Z</time>
      </trkpt>
      <trkpt lat="51.21913333333334" lon="4.419433333333333">
        <ele>18.627142291979723</ele>
        <time>2024-08-26T00:33:03.682Z</time>
      </trkpt>
      <trkpt lat="51.21918833333334" lon="4.419506666666666">
        <ele>18.42721890105347</ele>
        <time>2024-08-26T00:33:24.679Z</time>
      </trkpt>
      <trkpt lat="51.21932833333334" lon="4.419598333333334">
        <ele>17.527267952622786</ele>
        <time>2024-08-26T00:33:38.696Z</time>
      </trkpt>
      <trkpt lat="51.219345000000004" lon="4.419648333333333">
        <ele>17.227306371530226</ele>
        <time>2024-08-26T00:33:42.668Z</time>
      </trkpt>
      <trkpt lat="51.219294999999995" lon="4.419575">
        <ele>16.227208842866887</ele>
        <time>2024-08-26T00:33:53.669Z</time>
      </trkpt>
      <trkpt lat="51.219255000000004" lon="4.419700000000001">
        <ele>14.22739371975392</ele>
        <time>2024-08-26T00:34:05.686Z</time>
      </trkpt>
      <trkpt lat="51.21930666666667" lon="4.419741666666667">
        <ele>14.127429235063552</ele>
        <time>2024-08-26T00:34:06.728Z</time>
      </trkpt>
      <trkpt lat="51.219335" lon="4.419501666666666">
        <ele>11.900000000001455</ele>
        <time>2024-08-26T00:34:09.482Z</time>
      </trkpt>
      <trkpt lat="51.22134833333333" lon="4.419931666666667">
        <ele>3.6269907741341143</ele>
        <time>2024-08-26T00:37:46.665Z</time>
      </trkpt>
      <trkpt lat="51.22157166666666" lon="4.420281666666667">
        <ele>2.427285224494902</ele>
        <time>2024-08-26T00:38:09.681Z</time>
      </trkpt>
      <trkpt lat="51.22146166666666" lon="4.420723333333333">
        <ele>3.7277904997304745</ele>
        <time>2024-08-26T00:38:31.695Z</time>
      </trkpt>
      <trkpt lat="51.22142" lon="4.421251666666667">
        <ele>7.728386507094342</ele>
        <time>2024-08-26T00:39:11.692Z</time>
      </trkpt>
      <trkpt lat="51.221201666666666" lon="4.421396666666666">
        <ele>3.8285830654170283</ele>
        <time>2024-08-26T00:39:34.660Z</time>
      </trkpt>
      <trkpt lat="51.21996333333333" lon="4.421998333333334">
        <ele>7.929647109394935</ele>
        <time>2024-08-26T00:41:49.645Z</time>
      </trkpt>
      <trkpt lat="51.21964166666667" lon="4.42178">
        <ele>4.829516910089488</ele>
        <time>2024-08-26T00:42:19.706Z</time>
      </trkpt>
      <trkpt lat="51.219165000000004" lon="4.421688333333334">
        <ele>-6.670432202480434</ele>
        <time>2024-08-26T00:43:12.712Z</time>
      </trkpt>
      <trkpt lat="51.219118333333334" lon="4.421760000000001">
        <ele>-6.770341281792923</ele>
        <time>2024-08-26T00:43:20.645Z</time>
      </trkpt>
      <trkpt lat="51.2191667498133" lon="4.419616348649441">
        <ele>12.142317984548795</ele>
        <time>2024-08-26T00:48:29.473Z</time>
      </trkpt>
      <trkpt lat="51.21866384421651" lon="4.41947336304608">
        <ele>11.013775931809647</ele>
        <time>2024-08-26T00:49:48.164Z</time>
      </trkpt>
      <trkpt lat="51.21816817137136" lon="4.419402121418699">
        <ele>8.397624588502916</ele>
        <time>2024-08-26T00:51:07.316Z</time>
      </trkpt>
      <trkpt lat="51.218035373181095" lon="4.420536517238503">
        <ele>7.665475541633194</ele>
        <time>2024-08-26T00:53:02.280Z</time>
      </trkpt>
      <trkpt lat="51.21915406485644" lon="4.420637487531138">
        <ele>15.24832522423673</ele>
        <time>2024-08-26T00:56:23.241Z</time>
      </trkpt>
      <trkpt lat="51.21960333333333" lon="4.41765">
        <ele>9.23529599998232</ele>
        <time>2024-08-26T01:02:07.858Z</time>
      </trkpt>
      <trkpt lat="51.219699999999996" lon="4.4175699999999996">
        <ele>5.425009943115171</ele>
        <time>2024-08-26T02:26:26.669Z</time>
      </trkpt>
      <trkpt lat="51.219771666666674" lon="4.417368333333333">
        <ele>6.324768781538722</ele>
        <time>2024-08-26T02:26:33.658Z</time>
      </trkpt>
      <trkpt lat="51.21986333333333" lon="4.416588333333333">
        <ele>5.523881704072117</ele>
        <time>2024-08-26T02:27:15.688Z</time>
      </trkpt>
      <trkpt lat="51.22051666666666" lon="4.416873333333333">
        <ele>16.32398123465132</ele>
        <time>2024-08-26T02:28:23.694Z</time>
      </trkpt>
      <trkpt lat="51.22051333333334" lon="4.416803333333333">
        <ele>17.4239094155079</ele>
        <time>2024-08-26T02:28:39.662Z</time>
      </trkpt>
      <trkpt lat="51.22055999999999" lon="4.416823333333334">
        <ele>19.623913415298198</ele>
        <time>2024-08-26T02:28:48.688Z</time>
      </trkpt>
      <trkpt lat="51.220491666666675" lon="4.416598333333334">
        <ele>19.72369289329069</ele>
        <time>2024-08-26T02:29:06.676Z</time>
      </trkpt>
      <trkpt lat="51.22037" lon="4.416731666666666">
        <ele>10.923869262865573</ele>
        <time>2024-08-26T02:29:21.675Z</time>
      </trkpt>
      <trkpt lat="51.220208333333325" lon="4.416686666666666">
        <ele>7.923879156632374</ele>
        <time>2024-08-26T02:29:40.675Z</time>
      </trkpt>
      <trkpt lat="51.219938333333324" lon="4.416695000000001">
        <ele>5.323977463524827</ele>
        <time>2024-08-26T02:30:20.695Z</time>
      </trkpt>
      <trkpt lat="51.21987166666666" lon="4.417603333333333">
        <ele>7.724949397931169</ele>
        <time>2024-08-26T02:31:04.688Z</time>
      </trkpt>
      <trkpt lat="51.21978333333333" lon="4.417796666666666">
        <ele>10.125189689960877</ele>
        <time>2024-08-26T02:31:19.704Z</time>
      </trkpt>
      <trkpt lat="51.219653333333326" lon="4.418431666666667">
        <ele>10.92589109738919</ele>
        <time>2024-08-26T02:31:45.692Z</time>
      </trkpt>
      <trkpt lat="51.21950833333334" lon="4.418698333333333">
        <ele>6.326237442051415</ele>
        <time>2024-08-26T02:32:05.682Z</time>
      </trkpt>
      <trkpt lat="51.21936000000001" lon="4.419543333333333">
        <ele>0.727186885828786</ele>
        <time>2024-08-26T02:32:53.691Z</time>
      </trkpt>
      <trkpt lat="51.218979999999995" lon="4.421165">
        <ele>5.629046005973855</ele>
        <time>2024-08-26T02:34:20.688Z</time>
      </trkpt>
      <trkpt lat="51.21839166666667" lon="4.421130000000001">
        <ele>2.6292106397886883</ele>
        <time>2024-08-26T02:34:49.679Z</time>
      </trkpt>
      <trkpt lat="51.218064999999996" lon="4.421035">
        <ele>2.9292211827515757</ele>
        <time>2024-08-26T02:35:14.692Z</time>
      </trkpt>
      <trkpt lat="51.21780666666667" lon="4.421168333333333">
        <ele>7.029425405154456</ele>
        <time>2024-08-26T02:35:32.691Z</time>
      </trkpt>
      <trkpt lat="51.217635" lon="4.421171666666667">
        <ele>12.229494397892957</ele>
        <time>2024-08-26T02:35:46.689Z</time>
      </trkpt>
      <trkpt lat="51.217504999999996" lon="4.420858333333333">
        <ele>13.329216291360467</ele>
        <time>2024-08-26T02:36:02.692Z</time>
      </trkpt>
      <trkpt lat="51.217470000000006" lon="4.420598333333333">
        <ele>9.028950502965039</ele>
        <time>2024-08-26T02:36:15.691Z</time>
      </trkpt>
      <trkpt lat="51.21728666666666" lon="4.420590000000001">
        <ele>3.2289810408458095</ele>
        <time>2024-08-26T02:36:32.695Z</time>
      </trkpt>
      <trkpt lat="51.21715000000001" lon="4.420708333333334">
        <ele>-0.9708439296315348</ele>
        <time>2024-08-26T02:36:49.695Z</time>
      </trkpt>
      <trkpt lat="51.21716833333333" lon="4.420373333333333">
        <ele>0.22882086587856776</ele>
        <time>2024-08-26T02:37:01.695Z</time>
      </trkpt>
      <trkpt lat="51.217121666666664" lon="4.420223333333333">
        <ele>2.328654777942795</ele>
        <time>2024-08-26T02:37:07.692Z</time>
      </trkpt>
      <trkpt lat="51.217005" lon="4.4201733333333335">
        <ele>6.528629075175239</ele>
        <time>2024-08-26T02:37:18.688Z</time>
      </trkpt>
      <trkpt lat="51.21691166666666" lon="4.420165">
        <ele>8.228647498216318</ele>
        <time>2024-08-26T02:37:26.678Z</time>
      </trkpt>
      <trkpt lat="51.21671666666666" lon="4.420306666666666">
        <ele>11.32886316519965</ele>
        <time>2024-08-26T02:37:54.689Z</time>
      </trkpt>
      <trkpt lat="51.21662500000001" lon="4.420583333333334">
        <ele>9.329145748139318</ele>
        <time>2024-08-26T02:38:05.696Z</time>
      </trkpt>
      <trkpt lat="51.21661166666666" lon="4.420818333333333">
        <ele>5.529400063867207</ele>
        <time>2024-08-26T02:38:12.698Z</time>
      </trkpt>
      <trkpt lat="51.216831666666664" lon="4.42082">
        <ele>24.32937729983638</ele>
        <time>2024-08-26T02:39:23.698Z</time>
      </trkpt>
      <trkpt lat="51.21690666666667" lon="4.420548333333333">
        <ele>26.329078388870812</ele>
        <time>2024-08-26T02:39:36.692Z</time>
      </trkpt>
      <trkpt lat="51.216975000000005" lon="4.4206433333333335">
        <ele>26.52906252886246</ele>
        <time>2024-08-26T02:39:41.688Z</time>
      </trkpt>
      <trkpt lat="51.21692666666666" lon="4.420816666666667">
        <ele>28.529337375045316</ele>
        <time>2024-08-26T02:39:58.692Z</time>
      </trkpt>
      <trkpt lat="51.21681166666667" lon="4.42087">
        <ele>28.929439029274654</ele>
        <time>2024-08-26T02:40:34.688Z</time>
      </trkpt>
      <trkpt lat="51.216845" lon="4.421091666666666">
        <ele>29.02964136338649</ele>
        <time>2024-08-26T02:41:08.692Z</time>
      </trkpt>
      <trkpt lat="51.21691333333333" lon="4.420791666666667">
        <ele>26.429482721927528</ele>
        <time>2024-08-26T02:42:07.695Z</time>
      </trkpt>
      <trkpt lat="51.216828333333325" lon="4.4207616666666665">
        <ele>23.629317555284842</ele>
        <time>2024-08-26T02:42:27.699Z</time>
      </trkpt>
      <trkpt lat="51.216915" lon="4.420813333333333">
        <ele>24.129339292132705</ele>
        <time>2024-08-26T02:42:45.695Z</time>
      </trkpt>
      <trkpt lat="51.21684666666667" lon="4.420943333333333">
        <ele>24.429505522115548</ele>
        <time>2024-08-26T02:43:11.685Z</time>
      </trkpt>
      <trkpt lat="51.216885000000005" lon="4.420745">
        <ele>25.129283513536457</ele>
        <time>2024-08-26T02:43:41.672Z</time>
      </trkpt>
      <trkpt lat="51.21670833333333" lon="4.420808333333333">
        <ele>23.529397599851713</ele>
        <time>2024-08-26T02:44:08.682Z</time>
      </trkpt>
      <trkpt lat="51.21662500000001" lon="4.420743333333333">
        <ele>22.12936959934514</ele>
        <time>2024-08-26T02:44:20.682Z</time>
      </trkpt>
      <trkpt lat="51.216705000000005" lon="4.420801666666667">
        <ele>19.829388283543338</ele>
        <time>2024-08-26T02:44:42.688Z</time>
      </trkpt>
      <trkpt lat="51.216516666666664" lon="4.420843333333334">
        <ele>26.82951228514449</ele>
        <time>2024-08-26T02:47:16.679Z</time>
      </trkpt>
      <trkpt lat="51.216685000000005" lon="4.420841666666666">
        <ele>25.329459591225422</ele>
        <time>2024-08-26T02:50:06.688Z</time>
      </trkpt>
      <trkpt lat="51.21662166666667" lon="4.420558333333333">
        <ele>24.629167486517368</ele>
        <time>2024-08-26T02:50:33.688Z</time>
      </trkpt>
      <trkpt lat="51.21659666666666" lon="4.420694999999999">
        <ele>24.6293097428173</ele>
        <time>2024-08-26T02:50:45.692Z</time>
      </trkpt>
      <trkpt lat="51.21651" lon="4.420655">
        <ele>21.3293021106985</ele>
        <time>2024-08-26T02:51:00.685Z</time>
      </trkpt>
      <trkpt lat="51.21637666666667" lon="4.420758333333334">
        <ele>25.629441691213025</ele>
        <time>2024-08-26T02:51:19.691Z</time>
      </trkpt>
      <trkpt lat="51.21599333333334" lon="4.42072">
        <ele>29.029535750523422</ele>
        <time>2024-08-26T02:51:48.691Z</time>
      </trkpt>
      <trkpt lat="51.216015" lon="4.420875">
        <ele>27.929688123271333</ele>
        <time>2024-08-26T02:52:04.708Z</time>
      </trkpt>
      <trkpt lat="51.21606499999999" lon="4.420856666666666">
        <ele>28.52967489332432</ele>
        <time>2024-08-26T02:52:25.685Z</time>
      </trkpt>
      <trkpt lat="51.21584166666666" lon="4.421008333333333">
        <ele>27.429882804632832</ele>
        <time>2024-08-26T02:52:36.692Z</time>
      </trkpt>
      <trkpt lat="51.21597166666667" lon="4.42083">
        <ele>27.62982239995376</ele>
        <time>2024-08-26T02:52:55.689Z</time>
      </trkpt>
      <trkpt lat="51.216010000000004" lon="4.420663333333334">
        <ele>28.429458597184777</ele>
        <time>2024-08-26T02:53:07.511Z</time>
      </trkpt>
    </trkseg>
  </trk>
</gpx>
