<?xml version="1.0" encoding="UTF-8"?>
<gpx version="1.1" creator="Export" xmlns="http://www.topografix.com/GPX/1/1" xmlns:xsi="http://www.w3.org/2001/XMLSchema-instance" xsi:schemaLocation="http://www.topografix.com/GPX/1/1 http://www.topografix.com/GPX/1/1/gpx.xsd http://www.garmin.com/xmlschemas/GpxExtensions/v3 http://www.garmin.com/xmlschemas/GpxExtensionsv3.xsd http://www.garmin.com/xmlschemas/TrackPointExtension/v1 http://www.garmin.com/xmlschemas/TrackPointExtensionv1.xsd http://www.garmin.com/xmlschemas/PowerExtension/v1 http://www.garmin.com/xmlschemas/PowerExtensionv1.xsd http://www.topografix.com/GPX/gpx_style/0/2 http://www.topografix.com/GPX/gpx_style/0/2/gpx_style.xsd" xmlns:gpxtpx="http://www.garmin.com/xmlschemas/TrackPointExtension/v1" xmlns:gpxx="http://www.garmin.com/xmlschemas/GpxExtensions/v3" xmlns:gpxpx="http://www.garmin.com/xmlschemas/PowerExtension/v1" xmlns:gpx_style="http://www.topografix.com/GPX/gpx_style/0/2">
  <metadata>
    <name>activity_166_2024-08-25</name>
    <author>
      <name>gpx.studio</name>
      <link href="https://gpx.studio"/>
    </author>
  </metadata>
  <trk>
    <name>activity_166_2024-08-25</name>
    <trkseg>
      <trkpt lat="52.080942186740344" lon="4.322878265539117">
        <ele>11.104204762070001</ele>
        <time>2024-08-25T09:35:28.287Z</time>
      </trkpt>
      <trkpt lat="52.08185693012845" lon="4.321701762951562">
        <ele>-1.6139118125655991</ele>
        <time>2024-08-25T09:37:43.227Z</time>
      </trkpt>
      <trkpt lat="52.081220714732325" lon="4.3201735044193015">
        <ele>3.0832169266175633</ele>
        <time>2024-08-25T09:39:55.293Z</time>
      </trkpt>
      <trkpt lat="52.083126752529466" lon="4.317766780215749">
        <ele>0.9824278047780719</ele>
        <time>2024-08-25T09:44:44.219Z</time>
      </trkpt>
      <trkpt lat="52.08205666666666" lon="4.31501">
        <ele>8.09515769630737</ele>
        <time>2024-08-25T09:48:44.189Z</time>
      </trkpt>
      <trkpt lat="52.082251666666664" lon="4.314655">
        <ele>1.5359394021040487</ele>
        <time>2024-08-25T09:49:27.838Z</time>
      </trkpt>
      <trkpt lat="52.08232833333333" lon="4.314595">
        <ele>4.935901072516913</ele>
        <time>2024-08-25T09:49:31.815Z</time>
      </trkpt>
      <trkpt lat="52.08253333333334" lon="4.3145983333333335">
        <ele>12.135913921151918</ele>
        <time>2024-08-25T09:50:03.816Z</time>
      </trkpt>
      <trkpt lat="52.08260833333334" lon="4.314498333333333">
        <ele>13.835866383836553</ele>
        <time>2024-08-25T09:50:20.812Z</time>
      </trkpt>
      <trkpt lat="52.082523333333334" lon="4.3143199999999995">
        <ele>9.435694423598456</ele>
        <time>2024-08-25T09:50:33.806Z</time>
      </trkpt>
      <trkpt lat="52.08222333333333" lon="4.314546666666667">
        <ele>2.0358230802547013</ele>
        <time>2024-08-25T09:51:01.809Z</time>
      </trkpt>
      <trkpt lat="52.082183333333326" lon="4.314475">
        <ele>2.935747337640059</ele>
        <time>2024-08-25T09:51:11.805Z</time>
      </trkpt>
      <trkpt lat="52.08224" lon="4.314276666666667">
        <ele>2.1355788333037964</ele>
        <time>2024-08-25T09:51:28.825Z</time>
      </trkpt>
      <trkpt lat="52.08300333333333" lon="4.313536666666667">
        <ele>13.335048726255486</ele>
        <time>2024-08-25T09:53:21.815Z</time>
      </trkpt>
      <trkpt lat="52.08307333333334" lon="4.313345">
        <ele>9.334895859493848</ele>
        <time>2024-08-25T09:53:48.808Z</time>
      </trkpt>
      <trkpt lat="52.082570000000004" lon="4.3138716666666665">
        <ele>9.735270280614252</ele>
        <time>2024-08-25T09:55:01.815Z</time>
      </trkpt>
      <trkpt lat="52.082485" lon="4.313833333333333">
        <ele>8.635260667313183</ele>
        <time>2024-08-25T09:55:47.812Z</time>
      </trkpt>
      <trkpt lat="52.082145000000004" lon="4.314229999999999">
        <ele>3.8355071226202</ele>
        <time>2024-08-25T09:56:37.825Z</time>
      </trkpt>
      <trkpt lat="52.082004999999995" lon="4.314096666666667">
        <ele>2.135373660127698</ele>
        <time>2024-08-25T09:56:53.831Z</time>
      </trkpt>
      <trkpt lat="52.081945" lon="4.313771666666667">
        <ele>-0.7649330860779813</ele>
        <time>2024-08-25T09:57:17.821Z</time>
      </trkpt>
      <trkpt lat="52.081860000000006" lon="4.313711666666666">
        <ele>3.9349794792544373</ele>
        <time>2024-08-25T09:57:34.806Z</time>
      </trkpt>
      <trkpt lat="52.08191" lon="4.31367">
        <ele>5.834948449085282</ele>
        <time>2024-08-25T09:57:43.804Z</time>
      </trkpt>
      <trkpt lat="52.08204333333333" lon="4.3138749999999995">
        <ele>5.235165455064859</ele>
        <time>2024-08-25T09:58:05.824Z</time>
      </trkpt>
      <trkpt lat="52.082198333333324" lon="4.313773333333333">
        <ele>6.735109635106362</ele>
        <time>2024-08-25T09:58:25.821Z</time>
      </trkpt>
      <trkpt lat="52.082288333333324" lon="4.313623333333334">
        <ele>8.634990853830466</ele>
        <time>2024-08-25T09:58:41.818Z</time>
      </trkpt>
      <trkpt lat="52.082375" lon="4.313666666666666">
        <ele>13.235037458533526</ele>
        <time>2024-08-25T09:59:07.806Z</time>
      </trkpt>
      <trkpt lat="52.082568333333334" lon="4.3134749999999995">
        <ele>14.134919451297378</ele>
        <time>2024-08-25T09:59:37.806Z</time>
      </trkpt>
      <trkpt lat="52.082423333333324" lon="4.313106666666667">
        <ele>12.534539053897042</ele>
        <time>2024-08-25T10:00:04.851Z</time>
      </trkpt>
      <trkpt lat="52.08244833333333" lon="4.312931666666667">
        <ele>11.03438013106966</ele>
        <time>2024-08-25T10:00:26.841Z</time>
      </trkpt>
      <trkpt lat="52.082568333333334" lon="4.313136666666667">
        <ele>14.334571180707997</ele>
        <time>2024-08-25T10:00:44.818Z</time>
      </trkpt>
      <trkpt lat="52.08252666666667" lon="4.313256666666666">
        <ele>15.23468172632699</ele>
        <time>2024-08-25T10:00:57.821Z</time>
      </trkpt>
      <trkpt lat="52.08220166666667" lon="4.313493333333333">
        <ele>1.5348388482574506</ele>
        <time>2024-08-25T10:01:31.831Z</time>
      </trkpt>
      <trkpt lat="52.08212333333333" lon="4.313423333333334">
        <ele>1.53484669915143</ele>
        <time>2024-08-25T10:02:20.808Z</time>
      </trkpt>
      <trkpt lat="52.082145000000004" lon="4.313393333333334">
        <ele>8.034758592750414</ele>
        <time>2024-08-25T10:05:34.834Z</time>
      </trkpt>
      <trkpt lat="52.082139999999995" lon="4.313528333333333">
        <ele>9.534797607591138</ele>
        <time>2024-08-25T10:06:02.841Z</time>
      </trkpt>
      <trkpt lat="52.08189666666667" lon="4.3137566666666665">
        <ele>1.1350184921749573</ele>
        <time>2024-08-25T10:06:42.828Z</time>
      </trkpt>
      <trkpt lat="52.08168166666666" lon="4.3136833333333335">
        <ele>5.934924221202898</ele>
        <time>2024-08-25T10:07:10.844Z</time>
      </trkpt>
      <trkpt lat="52.081374999999994" lon="4.313446666666667">
        <ele>4.734636026693352</ele>
        <time>2024-08-25T10:07:53.847Z</time>
      </trkpt>
      <trkpt lat="52.08116499999999" lon="4.3136149999999995">
        <ele>7.434740947257225</ele>
        <time>2024-08-25T10:08:20.827Z</time>
      </trkpt>
      <trkpt lat="52.08121500000001" lon="4.31356">
        <ele>7.034716577895324</ele>
        <time>2024-08-25T10:08:44.844Z</time>
      </trkpt>
      <trkpt lat="52.081224999999996" lon="4.313426666666667">
        <ele>2.4346012830809514</ele>
        <time>2024-08-25T10:09:08.851Z</time>
      </trkpt>
      <trkpt lat="52.081140000000005" lon="4.313011666666667">
        <ele>1.534199136015232</ele>
        <time>2024-08-25T10:09:38.850Z</time>
      </trkpt>
      <trkpt lat="52.08103166666667" lon="4.3130733333333335">
        <ele>-0.365783755873899</ele>
        <time>2024-08-25T10:10:23.809Z</time>
      </trkpt>
      <trkpt lat="52.08108000000001" lon="4.312991666666666">
        <ele>1.334161453206903</ele>
        <time>2024-08-25T10:10:39.811Z</time>
      </trkpt>
      <trkpt lat="52.080995" lon="4.31285">
        <ele>2.2340073754678613</ele>
        <time>2024-08-25T10:12:13.838Z</time>
      </trkpt>
      <trkpt lat="52.081001666666666" lon="4.312775">
        <ele>2.933947578592793</ele>
        <time>2024-08-25T10:12:20.848Z</time>
      </trkpt>
      <trkpt lat="52.08091833333333" lon="4.312658333333333">
        <ele>1.7338276736044662</ele>
        <time>2024-08-25T10:12:35.845Z</time>
      </trkpt>
      <trkpt lat="52.080870000000004" lon="4.312706666666667">
        <ele>2.5338443464514313</ele>
        <time>2024-08-25T10:12:49.805Z</time>
      </trkpt>
      <trkpt lat="52.08095" lon="4.312661666666667">
        <ele>0.4338201866124578</ele>
        <time>2024-08-25T10:13:12.821Z</time>
      </trkpt>
      <trkpt lat="52.08087666666667" lon="4.312538333333333">
        <ele>1.9337488491695467</ele>
        <time>2024-08-25T10:13:45.808Z</time>
      </trkpt>
      <trkpt lat="52.08092333333334" lon="4.312451666666666">
        <ele>2.433623616373751</ele>
        <time>2024-08-25T10:14:00.808Z</time>
      </trkpt>
      <trkpt lat="52.08086" lon="4.31238">
        <ele>1.23355142586923</ele>
        <time>2024-08-25T10:14:12.808Z</time>
      </trkpt>
      <trkpt lat="52.08057" lon="4.311573333333333">
        <ele>0.9327429028709133</ele>
        <time>2024-08-25T10:15:36.828Z</time>
      </trkpt>
      <trkpt lat="52.08045833333334" lon="4.311615000000001">
        <ele>2.632751829608914</ele>
        <time>2024-08-25T10:15:55.815Z</time>
      </trkpt>
      <trkpt lat="52.08052166666666" lon="4.3115">
        <ele>2.3326683105996224</ele>
        <time>2024-08-25T10:16:27.824Z</time>
      </trkpt>
      <trkpt lat="52.08020166666667" lon="4.31064">
        <ele>1.8317887773795576</ele>
        <time>2024-08-25T10:18:00.829Z</time>
      </trkpt>
      <trkpt lat="52.08023333333334" lon="4.310561666666667">
        <ele>1.6317448608856324</ele>
        <time>2024-08-25T10:18:06.816Z</time>
      </trkpt>
      <trkpt lat="52.080165" lon="4.310431666666667">
        <ele>6.031602516080547</ele>
        <time>2024-08-25T10:18:28.838Z</time>
      </trkpt>
      <trkpt lat="52.080075" lon="4.310568333333333">
        <ele>2.5317082839011036</ele>
        <time>2024-08-25T10:18:53.834Z</time>
      </trkpt>
      <trkpt lat="52.08029333333334" lon="4.311093333333333">
        <ele>3.532229347672782</ele>
        <time>2024-08-25T10:20:08.827Z</time>
      </trkpt>
      <trkpt lat="52.080283333333334" lon="4.311188333333333">
        <ele>3.4323184161205234</ele>
        <time>2024-08-25T10:20:20.827Z</time>
      </trkpt>
      <trkpt lat="52.080326666666664" lon="4.311173333333333">
        <ele>7.332314357120161</ele>
        <time>2024-08-25T10:20:43.834Z</time>
      </trkpt>
      <trkpt lat="52.08047499999999" lon="4.311455">
        <ele>2.132605682586032</ele>
        <time>2024-08-25T10:21:16.828Z</time>
      </trkpt>
      <trkpt lat="52.08073833333333" lon="4.312155000000001">
        <ele>5.833290947273895</ele>
        <time>2024-08-25T10:22:34.839Z</time>
      </trkpt>
      <trkpt lat="52.08072333333333" lon="4.31223">
        <ele>3.9333661399230877</ele>
        <time>2024-08-25T10:22:51.806Z</time>
      </trkpt>
      <trkpt lat="52.08079833333333" lon="4.312443333333333">
        <ele>8.433575430243977</ele>
        <time>2024-08-25T10:23:16.805Z</time>
      </trkpt>
      <trkpt lat="52.080975" lon="4.312825">
        <ele>3.433974025609764</ele>
        <time>2024-08-25T10:23:55.812Z</time>
      </trkpt>
      <trkpt lat="52.08103833333333" lon="4.312805">
        <ele>4.13396963655164</ele>
        <time>2024-08-25T10:24:10.837Z</time>
      </trkpt>
      <trkpt lat="52.081093333333335" lon="4.312881666666667">
        <ele>4.034042874543729</ele>
        <time>2024-08-25T10:24:17.837Z</time>
      </trkpt>
      <trkpt lat="52.08135000000001" lon="4.31375">
        <ele>5.434885570682745</ele>
        <time>2024-08-25T10:25:17.847Z</time>
      </trkpt>
      <trkpt lat="52.08110666666666" lon="4.313956666666667">
        <ele>5.735043900166318</ele>
        <time>2024-08-25T10:25:43.838Z</time>
      </trkpt>
      <trkpt lat="52.08103333333334" lon="4.313935">
        <ele>1.9350174566191214</ele>
        <time>2024-08-25T10:26:42.808Z</time>
      </trkpt>
      <trkpt lat="52.080960000000005" lon="4.31416">
        <ele>8.235195987041443</ele>
        <time>2024-08-25T10:27:11.838Z</time>
      </trkpt>
      <trkpt lat="52.08076833333333" lon="4.3142249999999995">
        <ele>8.235225033623252</ele>
        <time>2024-08-25T10:27:38.834Z</time>
      </trkpt>
      <trkpt lat="52.08021833333334" lon="4.314725">
        <ele>31.335569608504485</ele>
        <time>2024-08-25T10:28:45.806Z</time>
      </trkpt>
      <trkpt lat="52.08009666666667" lon="4.314488333333333">
        <ele>18.535346720325236</ele>
        <time>2024-08-25T10:29:49.812Z</time>
      </trkpt>
      <trkpt lat="52.080090000000006" lon="4.3147649999999995">
        <ele>7.535569683378405</ele>
        <time>2024-08-25T10:30:23.821Z</time>
      </trkpt>
      <trkpt lat="52.08017666666667" lon="4.314856666666667">
        <ele>3.835670741554921</ele>
        <time>2024-08-25T10:30:44.844Z</time>
      </trkpt>
      <trkpt lat="52.08033666666667" lon="4.315611666666666">
        <ele>9.036409690628517</ele>
        <time>2024-08-25T10:31:42.802Z</time>
      </trkpt>
      <trkpt lat="52.079915" lon="4.31607">
        <ele>4.536743745702623</ele>
        <time>2024-08-25T10:32:41.828Z</time>
      </trkpt>
      <trkpt lat="52.07988833333334" lon="4.315986666666666">
        <ele>5.0366726881250585</ele>
        <time>2024-08-25T10:32:49.804Z</time>
      </trkpt>
      <trkpt lat="52.079795" lon="4.315965">
        <ele>7.936634774483238</ele>
        <time>2024-08-25T10:33:02.805Z</time>
      </trkpt>
      <trkpt lat="52.07980666666667" lon="4.315883333333333">
        <ele>9.636562250349257</ele>
        <time>2024-08-25T10:33:16.802Z</time>
      </trkpt>
      <trkpt lat="52.07982333333333" lon="4.31601">
        <ele>8.63667780909963</ele>
        <time>2024-08-25T10:33:34.825Z</time>
      </trkpt>
      <trkpt lat="52.07978833333333" lon="4.316085">
        <ele>10.136710141699567</ele>
        <time>2024-08-25T10:33:53.832Z</time>
      </trkpt>
      <trkpt lat="52.07986833333333" lon="4.316228333333333">
        <ele>7.1368778922414435</ele>
        <time>2024-08-25T10:34:08.837Z</time>
      </trkpt>
      <trkpt lat="52.07981333333334" lon="4.316303333333334">
        <ele>6.33692711163846</ele>
        <time>2024-08-25T10:34:27.795Z</time>
      </trkpt>
      <trkpt lat="52.07985833333334" lon="4.316298333333333">
        <ele>5.736941158475673</ele>
        <time>2024-08-25T10:34:51.858Z</time>
      </trkpt>
      <trkpt lat="52.079906666666666" lon="4.3165466666666665">
        <ele>9.737180989941422</ele>
        <time>2024-08-25T10:35:15.829Z</time>
      </trkpt>
      <trkpt lat="52.07965666666667" lon="4.316675">
        <ele>8.437252009922645</ele>
        <time>2024-08-25T10:36:31.801Z</time>
      </trkpt>
      <trkpt lat="52.079326666666674" lon="4.315766666666667">
        <ele>6.536366619176583</ele>
        <time>2024-08-25T10:37:48.838Z</time>
      </trkpt>
      <trkpt lat="52.078851666666665" lon="4.314773333333333">
        <ele>3.7353463577600152</ele>
        <time>2024-08-25T10:39:13.835Z</time>
      </trkpt>
      <trkpt lat="52.07881333333333" lon="4.314501666666667">
        <ele>9.43507741820644</ele>
        <time>2024-08-25T10:39:49.838Z</time>
      </trkpt>
      <trkpt lat="52.07859666666666" lon="4.313938333333334">
        <ele>6.234528464220112</ele>
        <time>2024-08-25T10:40:30.844Z</time>
      </trkpt>
      <trkpt lat="52.078395" lon="4.313886666666666">
        <ele>6.434423389083719</ele>
        <time>2024-08-25T10:40:46.812Z</time>
      </trkpt>
      <trkpt lat="52.078401666666664" lon="4.313818333333333">
        <ele>9.234365343217966</ele>
        <time>2024-08-25T10:40:54.806Z</time>
      </trkpt>
      <trkpt lat="52.078215" lon="4.314128333333333">
        <ele>18.934614726157335</ele>
        <time>2024-08-25T10:41:50.822Z</time>
      </trkpt>
      <trkpt lat="52.07826" lon="4.314163333333334">
        <ele>18.83460745337073</ele>
        <time>2024-08-25T10:42:04.801Z</time>
      </trkpt>
      <trkpt lat="52.07821666666667" lon="4.314233333333333">
        <ele>16.63469803417395</ele>
        <time>2024-08-25T10:42:15.829Z</time>
      </trkpt>
      <trkpt lat="52.078245" lon="4.314273333333333">
        <ele>13.034711516040858</ele>
        <time>2024-08-25T10:42:43.844Z</time>
      </trkpt>
      <trkpt lat="52.07816166666667" lon="4.314369999999999">
        <ele>16.534818422427314</ele>
        <time>2024-08-25T10:43:01.805Z</time>
      </trkpt>
      <trkpt lat="52.07805333333334" lon="4.314383333333334">
        <ele>15.634816152344634</ele>
        <time>2024-08-25T10:43:23.798Z</time>
      </trkpt>
      <trkpt lat="52.07808333333334" lon="4.31439">
        <ele>18.53481464955182</ele>
        <time>2024-08-25T10:43:30.815Z</time>
      </trkpt>
      <trkpt lat="52.077904999999994" lon="4.314676666666667">
        <ele>21.33504553251702</ele>
        <time>2024-08-25T10:43:58.801Z</time>
      </trkpt>
      <trkpt lat="52.077936666666666" lon="4.314683333333333">
        <ele>21.035052936734203</ele>
        <time>2024-08-25T10:44:05.828Z</time>
      </trkpt>
      <trkpt lat="52.07770666666667" lon="4.314988333333333">
        <ele>20.335291651068708</ele>
        <time>2024-08-25T10:44:52.804Z</time>
      </trkpt>
      <trkpt lat="52.07775333333334" lon="4.315418333333333">
        <ele>20.035678236809602</ele>
        <time>2024-08-25T10:45:23.818Z</time>
      </trkpt>
      <trkpt lat="52.07763" lon="4.315466666666667">
        <ele>13.93572380432557</ele>
        <time>2024-08-25T10:45:44.811Z</time>
      </trkpt>
      <trkpt lat="52.077619999999996" lon="4.315571666666667">
        <ele>12.635801418085364</ele>
        <time>2024-08-25T10:45:56.802Z</time>
      </trkpt>
      <trkpt lat="52.07755999999999" lon="4.315603333333333">
        <ele>7.835821913424368</ele>
        <time>2024-08-25T10:46:09.815Z</time>
      </trkpt>
      <trkpt lat="52.077556666666666" lon="4.315466666666667">
        <ele>3.9357132098811647</ele>
        <time>2024-08-25T10:46:22.808Z</time>
      </trkpt>
      <trkpt lat="52.07754" lon="4.315518333333333">
        <ele>3.635729561585343</ele>
        <time>2024-08-25T10:46:30.831Z</time>
      </trkpt>
      <trkpt lat="52.077625000000005" lon="4.31549">
        <ele>4.035742382730767</ele>
        <time>2024-08-25T10:46:41.814Z</time>
      </trkpt>
      <trkpt lat="52.07757333333334" lon="4.315626666666666">
        <ele>13.835745261564426</ele>
        <time>2024-08-25T10:47:38.831Z</time>
      </trkpt>
      <trkpt lat="52.077394999999996" lon="4.315706666666667">
        <ele>7.635885271515129</ele>
        <time>2024-08-25T10:48:21.837Z</time>
      </trkpt>
      <trkpt lat="52.07695666666667" lon="4.316556666666667">
        <ele>-1.963411616468619</ele>
        <time>2024-08-25T10:49:40.819Z</time>
      </trkpt>
      <trkpt lat="52.076968333333326" lon="4.316608333333334">
        <ele>0.3366318920038651</ele>
        <time>2024-08-25T10:49:48.854Z</time>
      </trkpt>
      <trkpt lat="52.076801666666675" lon="4.316723333333333">
        <ele>8.936706940250708</ele>
        <time>2024-08-25T10:50:29.815Z</time>
      </trkpt>
      <trkpt lat="52.076678333333334" lon="4.317065">
        <ele>6.636983595965546</ele>
        <time>2024-08-25T10:50:59.834Z</time>
      </trkpt>
      <trkpt lat="52.07659166666667" lon="4.317146666666667">
        <ele>5.837048444210929</ele>
        <time>2024-08-25T10:51:10.815Z</time>
      </trkpt>
      <trkpt lat="52.076305000000005" lon="4.317775">
        <ele>0.3375695482193066</ele>
        <time>2024-08-25T10:52:05.839Z</time>
      </trkpt>
      <trkpt lat="52.076330000000006" lon="4.31788">
        <ele>-0.8623787524491462</ele>
        <time>2024-08-25T10:52:17.806Z</time>
      </trkpt>
      <trkpt lat="52.07625666666666" lon="4.317911666666666">
        <ele>0.13768323264282145</ele>
        <time>2024-08-25T10:52:29.835Z</time>
      </trkpt>
      <trkpt lat="52.07612000000001" lon="4.318291666666667">
        <ele>4.637970768026328</ele>
        <time>2024-08-25T10:52:44.854Z</time>
      </trkpt>
      <trkpt lat="52.07595166666667" lon="4.3184483333333334">
        <ele>2.9381050672245905</ele>
        <time>2024-08-25T10:53:04.799Z</time>
      </trkpt>
      <trkpt lat="52.07588666666667" lon="4.318386666666667">
        <ele>2.8380484219503472</ele>
        <time>2024-08-25T10:53:16.835Z</time>
      </trkpt>
      <trkpt lat="52.075888333333324" lon="4.318433333333333">
        <ele>3.738082498361159</ele>
        <time>2024-08-25T10:53:21.829Z</time>
      </trkpt>
      <trkpt lat="52.07583833333333" lon="4.318315">
        <ele>8.837975363239117</ele>
        <time>2024-08-25T10:53:35.816Z</time>
      </trkpt>
      <trkpt lat="52.07572333333333" lon="4.318403333333333">
        <ele>10.938025734321535</ele>
        <time>2024-08-25T10:53:48.844Z</time>
      </trkpt>
      <trkpt lat="52.07567166666666" lon="4.318666666666667">
        <ele>16.33824662577436</ele>
        <time>2024-08-25T10:54:12.819Z</time>
      </trkpt>
      <trkpt lat="52.07549666666667" lon="4.318971666666667">
        <ele>21.43848480021161</ele>
        <time>2024-08-25T10:54:45.839Z</time>
      </trkpt>
      <trkpt lat="52.075516666666665" lon="4.319076666666667">
        <ele>22.93858804032898</ele>
        <time>2024-08-25T10:54:54.847Z</time>
      </trkpt>
      <trkpt lat="52.07517166666666" lon="4.319736666666667">
        <ele>9.639102717825622</ele>
        <time>2024-08-25T10:56:05.579Z</time>
      </trkpt>
      <trkpt lat="52.07496427475212" lon="4.3196222251538074">
        <ele>2.9453787043693183</ele>
        <time>2024-08-25T10:56:35.129Z</time>
      </trkpt>
      <trkpt lat="52.075019999999995" lon="4.319593333333333">
        <ele>2.8170966918125373</ele>
        <time>2024-08-25T10:56:42.896Z</time>
      </trkpt>
      <trkpt lat="52.07489333333333" lon="4.319165">
        <ele>5.738568643696141</ele>
        <time>2024-08-25T11:21:52.723Z</time>
      </trkpt>
      <trkpt lat="52.07487833333333" lon="4.318991666666666">
        <ele>6.038400850183578</ele>
        <time>2024-08-25T11:22:03.742Z</time>
      </trkpt>
      <trkpt lat="52.07492333333333" lon="4.319013333333333">
        <ele>6.338423663286974</ele>
        <time>2024-08-25T11:22:16.743Z</time>
      </trkpt>
      <trkpt lat="52.07482333333334" lon="4.319100000000001">
        <ele>6.3384591733682</ele>
        <time>2024-08-25T11:22:34.697Z</time>
      </trkpt>
      <trkpt lat="52.07483333333333" lon="4.319153333333333">
        <ele>5.438509138118789</ele>
        <time>2024-08-25T11:22:45.693Z</time>
      </trkpt>
      <trkpt lat="52.07476" lon="4.318961666666667">
        <ele>8.938344381156803</ele>
        <time>2024-08-25T11:23:04.716Z</time>
      </trkpt>
      <trkpt lat="52.07483333333333" lon="4.318956666666667">
        <ele>8.13834871640671</ele>
        <time>2024-08-25T11:23:14.710Z</time>
      </trkpt>
      <trkpt lat="52.07495666666667" lon="4.319135">
        <ele>3.0385261101052023</ele>
        <time>2024-08-25T11:23:43.733Z</time>
      </trkpt>
      <trkpt lat="52.07496166666667" lon="4.31956">
        <ele>10.638931550980566</ele>
        <time>2024-08-25T11:24:35.703Z</time>
      </trkpt>
      <trkpt lat="52.07498833333334" lon="4.319693333333333">
        <ele>7.93905849510751</ele>
        <time>2024-08-25T11:24:51.700Z</time>
      </trkpt>
      <trkpt lat="52.07503166666667" lon="4.319673333333333">
        <ele>7.239050809367818</ele>
        <time>2024-08-25T11:24:57.704Z</time>
      </trkpt>
      <trkpt lat="52.07505" lon="4.319748333333334">
        <ele>6.539120163367848</ele>
        <time>2024-08-25T11:25:10.733Z</time>
      </trkpt>
      <trkpt lat="52.075015" lon="4.319838333333333">
        <ele>4.939172195881078</ele>
        <time>2024-08-25T11:25:32.713Z</time>
      </trkpt>
      <trkpt lat="52.075070000000004" lon="4.320471666666666">
        <ele>8.539776097228582</ele>
        <time>2024-08-25T11:26:19.722Z</time>
      </trkpt>
      <trkpt lat="52.075185" lon="4.3205800000000005">
        <ele>14.639900601167021</ele>
        <time>2024-08-25T11:26:44.716Z</time>
      </trkpt>
      <trkpt lat="52.07530666666666" lon="4.320831666666667">
        <ele>9.940178389423174</ele>
        <time>2024-08-25T11:27:07.700Z</time>
      </trkpt>
      <trkpt lat="52.07535500000001" lon="4.32096">
        <ele>9.640299917424734</ele>
        <time>2024-08-25T11:27:23.703Z</time>
      </trkpt>
      <trkpt lat="52.07535166666666" lon="4.321123333333333">
        <ele>7.640445058437798</ele>
        <time>2024-08-25T11:27:47.700Z</time>
      </trkpt>
      <trkpt lat="52.07557499999999" lon="4.321271666666666">
        <ele>5.440631946705999</ele>
        <time>2024-08-25T11:28:32.739Z</time>
      </trkpt>
      <trkpt lat="52.07603000000001" lon="4.322125">
        <ele>1.041502284187672</ele>
        <time>2024-08-25T11:29:49.743Z</time>
      </trkpt>
      <trkpt lat="52.07614333333333" lon="4.322161666666667">
        <ele>1.2415684379092227</ele>
        <time>2024-08-25T11:30:01.703Z</time>
      </trkpt>
      <trkpt lat="52.07622" lon="4.322068333333333">
        <ele>5.141507731495956</ele>
        <time>2024-08-25T11:30:09.703Z</time>
      </trkpt>
      <trkpt lat="52.07612833333333" lon="4.322221666666667">
        <ele>12.041604834004637</ele>
        <time>2024-08-25T11:30:26.706Z</time>
      </trkpt>
      <trkpt lat="52.07616666666666" lon="4.322331666666667">
        <ele>11.84171742047554</ele>
        <time>2024-08-25T11:30:36.710Z</time>
      </trkpt>
      <trkpt lat="52.076351666666675" lon="4.322633333333333">
        <ele>4.442038168408196</ele>
        <time>2024-08-25T11:31:06.749Z</time>
      </trkpt>
      <trkpt lat="52.076473333333325" lon="4.322673333333333">
        <ele>0.642099936130677</ele>
        <time>2024-08-25T11:31:20.760Z</time>
      </trkpt>
      <trkpt lat="52.07662333333333" lon="4.3229516666666665">
        <ele>-6.157621146146994</ele>
        <time>2024-08-25T11:31:39.740Z</time>
      </trkpt>
      <trkpt lat="52.07664833333333" lon="4.32312">
        <ele>-4.2574551478472245</ele>
        <time>2024-08-25T11:31:56.734Z</time>
      </trkpt>
      <trkpt lat="52.076854999999995" lon="4.323348333333333">
        <ele>-1.6571969902664279</ele>
        <time>2024-08-25T11:32:26.753Z</time>
      </trkpt>
      <trkpt lat="52.07709333333334" lon="4.323868333333333">
        <ele>0.5433299367883322</ele>
        <time>2024-08-25T11:33:12.713Z</time>
      </trkpt>
      <trkpt lat="52.07725000000001" lon="4.324096666666667">
        <ele>5.643550082369721</ele>
        <time>2024-08-25T11:33:33.704Z</time>
      </trkpt>
      <trkpt lat="52.077175000000004" lon="4.324191666666667">
        <ele>11.843625123930998</ele>
        <time>2024-08-25T11:34:03.700Z</time>
      </trkpt>
      <trkpt lat="52.077169999999995" lon="4.32414">
        <ele>12.24360523272371</ele>
        <time>2024-08-25T11:34:18.703Z</time>
      </trkpt>
      <trkpt lat="52.077108333333335" lon="4.324161666666667">
        <ele>7.74361002602506</ele>
        <time>2024-08-25T11:34:32.699Z</time>
      </trkpt>
      <trkpt lat="52.07719" lon="4.3241950000000005">
        <ele>7.143648423010319</ele>
        <time>2024-08-25T11:34:50.723Z</time>
      </trkpt>
      <trkpt lat="52.07745333333334" lon="4.324676666666666">
        <ele>2.544151399741864</ele>
        <time>2024-08-25T11:35:39.752Z</time>
      </trkpt>
      <trkpt lat="52.07751833333334" lon="4.324701666666667">
        <ele>4.6441921600350895</ele>
        <time>2024-08-25T11:35:49.703Z</time>
      </trkpt>
      <trkpt lat="52.07745499999999" lon="4.324705">
        <ele>7.8441749055287815</ele>
        <time>2024-08-25T11:35:57.700Z</time>
      </trkpt>
      <trkpt lat="52.07739333333334" lon="4.324818333333334">
        <ele>10.344271131438418</ele>
        <time>2024-08-25T11:36:09.703Z</time>
      </trkpt>
      <trkpt lat="52.07745499999999" lon="4.324725">
        <ele>11.644203552244711</ele>
        <time>2024-08-25T11:36:30.743Z</time>
      </trkpt>
      <trkpt lat="52.07758333333333" lon="4.324708333333334">
        <ele>9.24421351793469</ele>
        <time>2024-08-25T11:36:47.743Z</time>
      </trkpt>
      <trkpt lat="52.07817333333334" lon="4.323946666666667">
        <ele>9.44363060195014</ele>
        <time>2024-08-25T11:38:00.723Z</time>
      </trkpt>
      <trkpt lat="52.078536666666665" lon="4.323645">
        <ele>15.843422651188696</ele>
        <time>2024-08-25T11:38:43.701Z</time>
      </trkpt>
      <trkpt lat="52.07865833333334" lon="4.323386666666667">
        <ele>14.043226736420323</ele>
        <time>2024-08-25T11:39:01.704Z</time>
      </trkpt>
      <trkpt lat="52.07879666666666" lon="4.32323">
        <ele>11.143111306384242</ele>
        <time>2024-08-25T11:39:18.699Z</time>
      </trkpt>
      <trkpt lat="52.078853333333335" lon="4.323038333333333">
        <ele>10.04294974951425</ele>
        <time>2024-08-25T11:39:46.707Z</time>
      </trkpt>
      <trkpt lat="52.079073333333326" lon="4.322883333333333">
        <ele>3.442856524018268</ele>
        <time>2024-08-25T11:40:01.703Z</time>
      </trkpt>
      <trkpt lat="52.07964333333333" lon="4.322185">
        <ele>-1.25766786452224</ele>
        <time>2024-08-25T11:41:06.743Z</time>
      </trkpt>
      <trkpt lat="52.07968833333333" lon="4.321853333333333">
        <ele>61.44204000898461</ele>
        <time>2024-08-25T11:46:22.697Z</time>
      </trkpt>
      <trkpt lat="52.07959833333333" lon="4.321666666666667">
        <ele>59.24185387235078</ele>
        <time>2024-08-25T11:46:30.707Z</time>
      </trkpt>
      <trkpt lat="52.079546666666666" lon="4.321841666666667">
        <ele>55.94196771901623</ele>
        <time>2024-08-25T11:46:42.753Z</time>
      </trkpt>
      <trkpt lat="52.07960833333333" lon="4.321928333333333">
        <ele>46.24206204211676</ele>
        <time>2024-08-25T11:46:50.740Z</time>
      </trkpt>
      <trkpt lat="52.079898333333325" lon="4.322925">
        <ele>34.94303522896594</ele>
        <time>2024-08-25T11:48:26.753Z</time>
      </trkpt>
      <trkpt lat="52.08015666666667" lon="4.323331666666666">
        <ele>36.143469668081494</ele>
        <time>2024-08-25T11:48:47.708Z</time>
      </trkpt>
      <trkpt lat="52.0802994630117" lon="4.3234241846441535">
        <ele>14.454383154169701</ele>
        <time>2024-08-25T11:49:27.440Z</time>
      </trkpt>
      <trkpt lat="52.08036833333334" lon="4.323144999999999">
        <ele>18.172348387095834</ele>
        <time>2024-08-25T11:50:15.232Z</time>
      </trkpt>
      <trkpt lat="52.080568630266725" lon="4.323013223045336">
        <ele>15.165558111249158</ele>
        <time>2024-08-25T11:50:33.799Z</time>
      </trkpt>
      <trkpt lat="52.081415" lon="4.323153333333334">
        <ele>8.394914496690546</ele>
        <time>2024-08-25T11:51:46.910Z</time>
      </trkpt>
      <trkpt lat="52.08179207451181" lon="4.323947004251835">
        <ele>8.598007335677785</ele>
        <time>2024-08-25T11:52:28.227Z</time>
      </trkpt>
      <trkpt lat="52.0816042722258" lon="4.324537718271586">
        <ele>8.922560386266817</ele>
        <time>2024-08-25T11:52:37.461Z</time>
      </trkpt>
      <trkpt lat="52.08059109977302" lon="4.32478009896073">
        <ele>6.057127982843874</ele>
        <time>2024-08-25T11:54:40.058Z</time>
      </trkpt>
    </trkseg>
  </trk>
</gpx>
