<?xml version="1.0" encoding="UTF-8"?>
<gpx version="1.1" creator="Export" xmlns="http://www.topografix.com/GPX/1/1" xmlns:xsi="http://www.w3.org/2001/XMLSchema-instance" xsi:schemaLocation="http://www.topografix.com/GPX/1/1 http://www.topografix.com/GPX/1/1/gpx.xsd http://www.garmin.com/xmlschemas/GpxExtensions/v3 http://www.garmin.com/xmlschemas/GpxExtensionsv3.xsd http://www.garmin.com/xmlschemas/TrackPointExtension/v1 http://www.garmin.com/xmlschemas/TrackPointExtensionv1.xsd http://www.garmin.com/xmlschemas/PowerExtension/v1 http://www.garmin.com/xmlschemas/PowerExtensionv1.xsd http://www.topografix.com/GPX/gpx_style/0/2 http://www.topografix.com/GPX/gpx_style/0/2/gpx_style.xsd" xmlns:gpxtpx="http://www.garmin.com/xmlschemas/TrackPointExtension/v1" xmlns:gpxx="http://www.garmin.com/xmlschemas/GpxExtensions/v3" xmlns:gpxpx="http://www.garmin.com/xmlschemas/PowerExtension/v1" xmlns:gpx_style="http://www.topografix.com/GPX/gpx_style/0/2">
  <metadata>
    <name>activity_167_2024-08-25</name>
    <author>
      <name>gpx.studio</name>
      <link href="https://gpx.studio"/>
    </author>
  </metadata>
  <wpt lat="51.920806" lon="4.477725">
    <ele>21.44238459449324</ele>
    <name>Sugo Pizza</name>
    <sym>Restaurant</sym>
  </wpt>
  <wpt lat="51.920046" lon="4.486633">
    <ele>3.9063162310993893</ele>
    <name>Street Market</name>
    <sym>Restaurant</sym>
  </wpt>
  <wpt lat="51.921373" lon="4.484239">
    <ele>6.607265743520501</ele>
    <name>Music festival thingi</name>
    <sym>Park</sym>
  </wpt>
  <trk>
    <name>activity_167_2024-08-25</name>
    <trkseg>
      <trkpt lat="51.92349881090013" lon="4.470206936871136">
        <ele>6.914267146867891</ele>
        <time>2024-08-25T12:56:37.784Z</time>
      </trkpt>
      <trkpt lat="51.92120833333333" lon="4.471376666666667">
        <ele>4.972586998065749</ele>
        <time>2024-08-25T13:01:06.546Z</time>
      </trkpt>
      <trkpt lat="51.921150000000004" lon="4.47126">
        <ele>4.552669521405292</ele>
        <time>2024-08-25T13:02:31.566Z</time>
      </trkpt>
      <trkpt lat="51.92115833333334" lon="4.471105">
        <ele>1.4525092405653837</ele>
        <time>2024-08-25T13:02:52.595Z</time>
      </trkpt>
      <trkpt lat="51.92108833333334" lon="4.471123333333334">
        <ele>3.5524977628891676</ele>
        <time>2024-08-25T13:13:25.582Z</time>
      </trkpt>
      <trkpt lat="51.92093" lon="4.470913333333333">
        <ele>1.4522473306498185</ele>
        <time>2024-08-25T13:14:06.585Z</time>
      </trkpt>
      <trkpt lat="51.92087166666667" lon="4.470661666666667">
        <ele>-1.9480542569475503</ele>
        <time>2024-08-25T13:14:24.602Z</time>
      </trkpt>
      <trkpt lat="51.92088333333333" lon="4.4704033333333335">
        <ele>-6.648348810217243</ele>
        <time>2024-08-25T13:14:41.591Z</time>
      </trkpt>
      <trkpt lat="51.92064833333334" lon="4.469451666666667">
        <ele>-2.6494995270937665</ele>
        <time>2024-08-25T13:15:52.575Z</time>
      </trkpt>
      <trkpt lat="51.920615" lon="4.469503333333334">
        <ele>-1.2494639494754907</ele>
        <time>2024-08-25T13:15:57.585Z</time>
      </trkpt>
      <trkpt lat="51.92068833333333" lon="4.470055">
        <ele>2.351187470078422</ele>
        <time>2024-08-25T13:16:38.615Z</time>
      </trkpt>
      <trkpt lat="51.92096333333334" lon="4.470988333333334">
        <ele>4.05232109827076</ele>
        <time>2024-08-25T13:17:53.556Z</time>
      </trkpt>
      <trkpt lat="51.921171666666666" lon="4.47134">
        <ele>5.6527668380020515</ele>
        <time>2024-08-25T13:18:22.562Z</time>
      </trkpt>
      <trkpt lat="51.92126499999999" lon="4.471666666666667">
        <ele>7.1531387169247935</ele>
        <time>2024-08-25T13:18:39.578Z</time>
      </trkpt>
      <trkpt lat="51.921435" lon="4.471861666666666">
        <ele>7.053388446660513</ele>
        <time>2024-08-25T13:19:02.572Z</time>
      </trkpt>
      <trkpt lat="51.92153499999999" lon="4.472371666666667">
        <ele>6.553992449630542</ele>
        <time>2024-08-25T13:19:31.576Z</time>
      </trkpt>
      <trkpt lat="51.921510000000005" lon="4.472585">
        <ele>6.15426602394794</ele>
        <time>2024-08-25T13:19:42.615Z</time>
      </trkpt>
      <trkpt lat="51.92161833333333" lon="4.473341666666667">
        <ele>0.355127646016804</ele>
        <time>2024-08-25T13:20:24.608Z</time>
      </trkpt>
      <trkpt lat="51.92156666666666" lon="4.473583333333334">
        <ele>2.75540473202679</ele>
        <time>2024-08-25T13:20:40.561Z</time>
      </trkpt>
      <trkpt lat="51.921611666666664" lon="4.4738">
        <ele>6.355651291488769</ele>
        <time>2024-08-25T13:20:49.569Z</time>
      </trkpt>
      <trkpt lat="51.92157166666666" lon="4.473803333333334">
        <ele>10.255681573778233</ele>
        <time>2024-08-25T13:20:56.565Z</time>
      </trkpt>
      <trkpt lat="51.92157" lon="4.473861666666666">
        <ele>11.85575218266247</ele>
        <time>2024-08-25T13:21:03.611Z</time>
      </trkpt>
      <trkpt lat="51.92174333333334" lon="4.474666666666667">
        <ele>9.556703180597985</ele>
        <time>2024-08-25T13:21:55.565Z</time>
      </trkpt>
      <trkpt lat="51.92185666666666" lon="4.4746983333333334">
        <ele>12.556757126004122</ele>
        <time>2024-08-25T13:22:12.566Z</time>
      </trkpt>
      <trkpt lat="51.92213666666667" lon="4.476193333333333">
        <ele>5.158532458925173</ele>
        <time>2024-08-25T13:23:51.569Z</time>
      </trkpt>
      <trkpt lat="51.92209666666666" lon="4.476261666666667">
        <ele>5.358605931996976</ele>
        <time>2024-08-25T13:24:04.562Z</time>
      </trkpt>
      <trkpt lat="51.92212833333333" lon="4.476388333333333">
        <ele>8.458760663312532</ele>
        <time>2024-08-25T13:24:16.586Z</time>
      </trkpt>
      <trkpt lat="51.922005000000006" lon="4.47635">
        <ele>10.058709169360796</ele>
        <time>2024-08-25T13:24:27.586Z</time>
      </trkpt>
      <trkpt lat="51.92182666666666" lon="4.476418333333333">
        <ele>12.458748028766422</ele>
        <time>2024-08-25T13:24:49.569Z</time>
      </trkpt>
      <trkpt lat="51.92176166666666" lon="4.4763166666666665">
        <ele>14.258626842700025</ele>
        <time>2024-08-25T13:25:08.562Z</time>
      </trkpt>
      <trkpt lat="51.92148166666666" lon="4.476561666666667">
        <ele>16.358858376185616</ele>
        <time>2024-08-25T13:25:52.594Z</time>
      </trkpt>
      <trkpt lat="51.921525" lon="4.476616666666667">
        <ele>16.258906352804587</ele>
        <time>2024-08-25T13:25:59.596Z</time>
      </trkpt>
      <trkpt lat="51.92159166666667" lon="4.476585">
        <ele>17.558912493280516</ele>
        <time>2024-08-25T13:26:06.589Z</time>
      </trkpt>
      <trkpt lat="51.92158833333333" lon="4.476655">
        <ele>18.75897893911131</ele>
        <time>2024-08-25T13:26:10.594Z</time>
      </trkpt>
      <trkpt lat="51.92138" lon="4.476783333333334">
        <ele>25.559055924372764</ele>
        <time>2024-08-25T13:26:42.585Z</time>
      </trkpt>
      <trkpt lat="51.92074133965093" lon="4.4769349365534765">
        <ele>11.026063260000056</ele>
        <time>2024-08-25T13:30:13.772Z</time>
      </trkpt>
      <trkpt lat="51.92087055050507" lon="4.477630457162434">
        <ele>21.823806940205724</ele>
        <time>2024-08-25T13:30:30.211Z</time>
      </trkpt>
      <trkpt lat="51.92146109379536" lon="4.479961615698954">
        <ele>6.4470225231732154</ele>
        <time>2024-08-25T13:31:27.244Z</time>
      </trkpt>
      <trkpt lat="51.92156166666667" lon="4.481251666666666">
        <ele>9.763391525904675</ele>
        <time>2024-08-25T14:15:31.992Z</time>
      </trkpt>
      <trkpt lat="51.92163833333334" lon="4.481351666666667">
        <ele>3.8643971466423324</ele>
        <time>2024-08-25T15:05:34.387Z</time>
      </trkpt>
      <trkpt lat="51.92198833333334" lon="4.482325">
        <ele>3.665586320091599</ele>
        <time>2024-08-25T15:06:41.377Z</time>
      </trkpt>
      <trkpt lat="51.92203333333334" lon="4.482361666666667">
        <ele>3.8656269493314284</ele>
        <time>2024-08-25T15:06:55.387Z</time>
      </trkpt>
      <trkpt lat="51.921995" lon="4.482451666666666">
        <ele>6.265729336923393</ele>
        <time>2024-08-25T15:07:05.387Z</time>
      </trkpt>
      <trkpt lat="51.922140000000006" lon="4.482568333333333">
        <ele>7.465867032239366</ele>
        <time>2024-08-25T15:07:20.384Z</time>
      </trkpt>
      <trkpt lat="51.922185000000006" lon="4.482836666666667">
        <ele>4.366193906234649</ele>
        <time>2024-08-25T15:07:32.897Z</time>
      </trkpt>
      <trkpt lat="51.92172761815155" lon="4.483307225796722">
        <ele>3.3076800386224727</ele>
        <time>2024-08-25T15:08:12.421Z</time>
      </trkpt>
      <trkpt lat="51.92151158698164" lon="4.483663396656908">
        <ele>5.230862634425254</ele>
        <time>2024-08-25T15:08:34.901Z</time>
      </trkpt>
      <trkpt lat="51.92148333333333" lon="4.483653333333334">
        <ele>5.235266320080399</ele>
        <time>2024-08-25T15:08:42.010Z</time>
      </trkpt>
      <trkpt lat="51.92149833333333" lon="4.483876666666666">
        <ele>6.767287245515867</ele>
        <time>2024-08-25T15:09:31.382Z</time>
      </trkpt>
      <trkpt lat="51.92144166666667" lon="4.483949999999999">
        <ele>6.867368529932882</ele>
        <time>2024-08-25T15:09:40.372Z</time>
      </trkpt>
      <trkpt lat="51.92148666666667" lon="4.483885">
        <ele>13.967307581156895</ele>
        <time>2024-08-25T15:10:14.371Z</time>
      </trkpt>
      <trkpt lat="51.921504999999996" lon="4.483921666666666">
        <ele>13.967327484311326</ele>
        <time>2024-08-25T15:10:17.365Z</time>
      </trkpt>
      <trkpt lat="51.92154000000001" lon="4.484170000000001">
        <ele>8.467615244295672</ele>
        <time>2024-08-25T15:10:29.377Z</time>
      </trkpt>
      <trkpt lat="51.921609999999994" lon="4.484335">
        <ele>9.067821016815003</ele>
        <time>2024-08-25T15:10:38.385Z</time>
      </trkpt>
      <trkpt lat="51.921611666666664" lon="4.484506666666666">
        <ele>10.468019641714982</ele>
        <time>2024-08-25T15:10:49.384Z</time>
      </trkpt>
      <trkpt lat="51.921435" lon="4.484673333333333">
        <ele>4.368193919210462</ele>
        <time>2024-08-25T15:11:31.288Z</time>
      </trkpt>
      <trkpt lat="51.921501310497064" lon="4.484980322197828">
        <ele>7.442421096330649</ele>
        <time>2024-08-25T15:12:42.020Z</time>
      </trkpt>
      <trkpt lat="51.92149333333334" lon="4.484685">
        <ele>6.791578556467765</ele>
        <time>2024-08-25T15:13:57.293Z</time>
      </trkpt>
      <trkpt lat="51.92121" lon="4.484826666666667">
        <ele>2.268338470613081</ele>
        <time>2024-08-25T15:24:41.414Z</time>
      </trkpt>
      <trkpt lat="51.921106666666674" lon="4.4847616666666665">
        <ele>7.0682494699250356</ele>
        <time>2024-08-25T15:24:52.407Z</time>
      </trkpt>
      <trkpt lat="51.920735" lon="4.484866666666666">
        <ele>28.06830854255358</ele>
        <time>2024-08-25T15:25:30.410Z</time>
      </trkpt>
      <trkpt lat="51.920743333333334" lon="4.485146666666666">
        <ele>23.168622231067722</ele>
        <time>2024-08-25T15:25:47.401Z</time>
      </trkpt>
      <trkpt lat="51.920856666666666" lon="4.485571666666667">
        <ele>11.169133607200031</ele>
        <time>2024-08-25T15:26:20.416Z</time>
      </trkpt>
      <trkpt lat="51.92079666666667" lon="4.485396666666667">
        <ele>9.868933970432572</ele>
        <time>2024-08-25T15:26:42.408Z</time>
      </trkpt>
      <trkpt lat="51.920518333333334" lon="4.485556666666667">
        <ele>5.369064138652327</ele>
        <time>2024-08-25T15:27:15.417Z</time>
      </trkpt>
      <trkpt lat="51.92039499999999" lon="4.485285">
        <ele>6.168747260129351</ele>
        <time>2024-08-25T15:27:40.381Z</time>
      </trkpt>
      <trkpt lat="51.92036499999999" lon="4.48548">
        <ele>5.968941488743717</ele>
        <time>2024-08-25T15:28:09.401Z</time>
      </trkpt>
      <trkpt lat="51.920260000000006" lon="4.485505">
        <ele>5.568965145176591</ele>
        <time>2024-08-25T15:28:20.393Z</time>
      </trkpt>
      <trkpt lat="51.92021666666666" lon="4.485585">
        <ele>5.569038311554266</ele>
        <time>2024-08-25T15:28:27.388Z</time>
      </trkpt>
      <trkpt lat="51.920285" lon="4.48576">
        <ele>7.369251786702478</ele>
        <time>2024-08-25T15:28:39.404Z</time>
      </trkpt>
      <trkpt lat="51.9203" lon="4.486406666666666">
        <ele>-6.430009354789547</ele>
        <time>2024-08-25T15:31:28.420Z</time>
      </trkpt>
      <trkpt lat="51.92036666666666" lon="4.486705">
        <ele>-19.329679344617187</ele>
        <time>2024-08-25T15:31:42.401Z</time>
      </trkpt>
      <trkpt lat="51.92033" lon="4.4867333333333335">
        <ele>-21.929629548645803</ele>
        <time>2024-08-25T15:31:46.372Z</time>
      </trkpt>
      <trkpt lat="51.920416666666675" lon="4.487036666666667">
        <ele>-26.929276705692654</ele>
        <time>2024-08-25T15:31:58.374Z</time>
      </trkpt>
      <trkpt lat="51.92036666666666" lon="4.487288333333334">
        <ele>-22.928993351201672</ele>
        <time>2024-08-25T15:32:28.038Z</time>
      </trkpt>
      <trkpt lat="51.92033833333333" lon="4.488103333333333">
        <ele>5.737107978668612</ele>
        <time>2024-08-25T15:33:59.619Z</time>
      </trkpt>
      <trkpt lat="51.920426666666664" lon="4.488051666666666">
        <ele>22.171924917679036</ele>
        <time>2024-08-25T15:34:03.404Z</time>
      </trkpt>
      <trkpt lat="51.920385" lon="4.488036666666667">
        <ele>20.771884380469388</ele>
        <time>2024-08-25T15:34:14.394Z</time>
      </trkpt>
      <trkpt lat="51.920383333333334" lon="4.487831666666667">
        <ele>18.87166198107478</ele>
        <time>2024-08-25T15:34:34.378Z</time>
      </trkpt>
      <trkpt lat="51.92031999999999" lon="4.487776666666666">
        <ele>17.771593394694754</ele>
        <time>2024-08-25T15:34:50.384Z</time>
      </trkpt>
      <trkpt lat="51.920361666666665" lon="4.487753333333333">
        <ele>17.271563552361066</ele>
        <time>2024-08-25T15:34:59.371Z</time>
      </trkpt>
      <trkpt lat="51.920323333333336" lon="4.487686666666666">
        <ele>16.37149484849794</ele>
        <time>2024-08-25T15:35:04.374Z</time>
      </trkpt>
      <trkpt lat="51.92040999999999" lon="4.487661666666667">
        <ele>14.671461294634568</ele>
        <time>2024-08-25T15:35:15.368Z</time>
      </trkpt>
      <trkpt lat="51.92032833333333" lon="4.48747">
        <ele>10.571243698358884</ele>
        <time>2024-08-25T15:35:18.381Z</time>
      </trkpt>
      <trkpt lat="51.91991166812707" lon="4.487259444558106">
        <ele>4.900000000001455</ele>
        <time>2024-08-25T15:35:27.533Z</time>
      </trkpt>
      <trkpt lat="51.919695000000004" lon="4.486376666666667">
        <ele>-15.330097551620906</ele>
        <time>2024-08-25T15:36:47.374Z</time>
      </trkpt>
      <trkpt lat="51.91961500000001" lon="4.486325">
        <ele>-14.530180358646533</ele>
        <time>2024-08-25T15:36:52.374Z</time>
      </trkpt>
      <trkpt lat="51.91958666666666" lon="4.486231666666667">
        <ele>-14.530293849795271</ele>
        <time>2024-08-25T15:37:01.378Z</time>
      </trkpt>
      <trkpt lat="51.91974333333333" lon="4.4859816666666665">
        <ele>25.469451800270527</ele>
        <time>2024-08-25T15:39:34.411Z</time>
      </trkpt>
      <trkpt lat="51.91979166666667" lon="4.486305">
        <ele>30.66978514868002</ele>
        <time>2024-08-25T15:44:57.413Z</time>
      </trkpt>
      <trkpt lat="51.91968" lon="4.486403333333333">
        <ele>25.1698882626454</ele>
        <time>2024-08-25T15:45:08.401Z</time>
      </trkpt>
      <trkpt lat="51.91965666666667" lon="4.4866">
        <ele>23.17011889395865</ele>
        <time>2024-08-25T15:45:16.421Z</time>
      </trkpt>
      <trkpt lat="51.91975333333333" lon="4.487223333333334">
        <ele>21.070850374234553</ele>
        <time>2024-08-25T15:45:45.426Z</time>
      </trkpt>
      <trkpt lat="51.91972666666667" lon="4.487346666666666">
        <ele>19.37096209065691</ele>
        <time>2024-08-25T15:45:55.421Z</time>
      </trkpt>
      <trkpt lat="51.91976" lon="4.48813">
        <ele>3.602112903911992</ele>
        <time>2024-08-25T15:47:14.602Z</time>
      </trkpt>
      <trkpt lat="51.919786666666674" lon="4.488183333333334">
        <ele>6.1719482043878955</ele>
        <time>2024-08-25T15:48:03.384Z</time>
      </trkpt>
      <trkpt lat="51.919696666666674" lon="4.488263333333333">
        <ele>4.572032480742621</ele>
        <time>2024-08-25T15:48:13.417Z</time>
      </trkpt>
      <trkpt lat="51.919605000000004" lon="4.4882599999999995">
        <ele>9.772020467494094</ele>
        <time>2024-08-25T15:48:22.407Z</time>
      </trkpt>
      <trkpt lat="51.91942166666666" lon="4.488443333333334">
        <ele>9.672192874112064</ele>
        <time>2024-08-25T15:48:46.417Z</time>
      </trkpt>
      <trkpt lat="51.919358333333335" lon="4.488326666666667">
        <ele>5.572191569207355</ele>
        <time>2024-08-25T15:49:10.380Z</time>
      </trkpt>
      <trkpt lat="51.919223333333335" lon="4.488531666666666">
        <ele>7.172264092628211</ele>
        <time>2024-08-25T15:49:26.427Z</time>
      </trkpt>
      <trkpt lat="51.919095" lon="4.488551666666667">
        <ele>8.772275112512958</ele>
        <time>2024-08-25T15:49:40.417Z</time>
      </trkpt>
      <trkpt lat="51.91891833333334" lon="4.488796666666667">
        <ele>12.172503526254985</ele>
        <time>2024-08-25T15:49:59.397Z</time>
      </trkpt>
      <trkpt lat="51.91894166666666" lon="4.488835">
        <ele>12.872518559521545</ele>
        <time>2024-08-25T15:50:01.374Z</time>
      </trkpt>
      <trkpt lat="51.91889666666666" lon="4.488888333333334">
        <ele>14.072605013078572</ele>
        <time>2024-08-25T15:50:03.372Z</time>
      </trkpt>
      <trkpt lat="51.91892666666666" lon="4.488916666666666">
        <ele>15.872634712854023</ele>
        <time>2024-08-25T15:50:06.375Z</time>
      </trkpt>
      <trkpt lat="51.91888333333333" lon="4.489061666666667">
        <ele>18.67280656066272</ele>
        <time>2024-08-25T15:50:16.367Z</time>
      </trkpt>
      <trkpt lat="51.918015" lon="4.490136666666667">
        <ele>2.7739135918452718</ele>
        <time>2024-08-25T15:52:17.377Z</time>
      </trkpt>
      <trkpt lat="51.91800666666666" lon="4.490211666666666">
        <ele>5.573983592455555</ele>
        <time>2024-08-25T15:52:34.370Z</time>
      </trkpt>
      <trkpt lat="51.917685" lon="4.490641666666666">
        <ele>10.674437369105476</ele>
        <time>2024-08-25T15:53:20.372Z</time>
      </trkpt>
      <trkpt lat="51.91759333333333" lon="4.490691666666667">
        <ele>10.174482188895183</ele>
        <time>2024-08-25T15:53:46.391Z</time>
      </trkpt>
      <trkpt lat="51.917595" lon="4.490798333333333">
        <ele>9.974579616758241</ele>
        <time>2024-08-25T15:54:03.370Z</time>
      </trkpt>
      <trkpt lat="51.91752666666666" lon="4.490836666666667">
        <ele>8.274625480747616</ele>
        <time>2024-08-25T15:54:09.420Z</time>
      </trkpt>
      <trkpt lat="51.91726833333334" lon="4.4912366666666665">
        <ele>7.575048619541484</ele>
        <time>2024-08-25T15:54:54.372Z</time>
      </trkpt>
      <trkpt lat="51.91713166666667" lon="4.491384999999999">
        <ele>7.275191413385073</ele>
        <time>2024-08-25T15:55:29.375Z</time>
      </trkpt>
      <trkpt lat="51.916936666666665" lon="4.4912149999999995">
        <ele>7.374971356587061</ele>
        <time>2024-08-25T15:56:10.385Z</time>
      </trkpt>
      <trkpt lat="51.91700666666667" lon="4.491524999999999">
        <ele>5.975335546332651</ele>
        <time>2024-08-25T15:56:32.371Z</time>
      </trkpt>
      <trkpt lat="51.91692333333334" lon="4.49155">
        <ele>5.675351430104584</ele>
        <time>2024-08-25T15:56:39.377Z</time>
      </trkpt>
      <trkpt lat="51.916835000000006" lon="4.491488333333334">
        <ele>5.675268619839024</ele>
        <time>2024-08-25T15:56:49.372Z</time>
      </trkpt>
      <trkpt lat="51.91687166666667" lon="4.49141">
        <ele>8.775199740481192</ele>
        <time>2024-08-25T15:57:53.384Z</time>
      </trkpt>
      <trkpt lat="51.916798333333325" lon="4.491241666666666">
        <ele>4.675004777642897</ele>
        <time>2024-08-25T15:58:03.381Z</time>
      </trkpt>
      <trkpt lat="51.91610666666667" lon="4.49031">
        <ele>7.273801528167716</ele>
        <time>2024-08-25T15:59:35.385Z</time>
      </trkpt>
      <trkpt lat="51.91610333333333" lon="4.490145">
        <ele>4.973635472033074</ele>
        <time>2024-08-25T16:00:01.368Z</time>
      </trkpt>
      <trkpt lat="51.915980000000005" lon="4.4899233333333335">
        <ele>1.0733460432149258</ele>
        <time>2024-08-25T16:00:22.371Z</time>
      </trkpt>
      <trkpt lat="51.91527166666666" lon="4.488883333333334">
        <ele>-2.627958662924293</ele>
        <time>2024-08-25T16:01:54.368Z</time>
      </trkpt>
      <trkpt lat="51.915198333333336" lon="4.488701666666667">
        <ele>5.271819195039669</ele>
        <time>2024-08-25T16:02:47.382Z</time>
      </trkpt>
      <trkpt lat="51.91517166666666" lon="4.488745">
        <ele>5.27181946355531</ele>
        <time>2024-08-25T16:04:36.404Z</time>
      </trkpt>
      <trkpt lat="51.915018333333336" lon="4.488510000000001">
        <ele>4.671587989390439</ele>
        <time>2024-08-25T16:04:55.377Z</time>
      </trkpt>
      <trkpt lat="51.91486166666667" lon="4.488195">
        <ele>16.971194614513358</ele>
        <time>2024-08-25T16:05:35.381Z</time>
      </trkpt>
      <trkpt lat="51.91444666666666" lon="4.487593333333334">
        <ele>13.470434059381162</ele>
        <time>2024-08-25T16:06:35.368Z</time>
      </trkpt>
      <trkpt lat="51.91436166666667" lon="4.487343333333333">
        <ele>12.470155894333622</ele>
        <time>2024-08-25T16:06:56.387Z</time>
      </trkpt>
      <trkpt lat="51.914186666666666" lon="4.4871583333333325">
        <ele>7.269892659594639</ele>
        <time>2024-08-25T16:07:12.420Z</time>
      </trkpt>
      <trkpt lat="51.914108333333324" lon="4.486955">
        <ele>3.2696417651249163</ele>
        <time>2024-08-25T16:07:28.417Z</time>
      </trkpt>
      <trkpt lat="51.91311333333333" lon="4.48557">
        <ele>0.7679122070085072</ele>
        <time>2024-08-25T16:09:37.394Z</time>
      </trkpt>
      <trkpt lat="51.91255666666666" lon="4.4846">
        <ele>11.666741993470929</ele>
        <time>2024-08-25T16:10:58.387Z</time>
      </trkpt>
      <trkpt lat="51.91243166666666" lon="4.484698333333333">
        <ele>8.466786713462426</ele>
        <time>2024-08-25T16:11:08.374Z</time>
      </trkpt>
      <trkpt lat="51.91237666666666" lon="4.484660000000001">
        <ele>7.2667314810077315</ele>
        <time>2024-08-25T16:11:24.368Z</time>
      </trkpt>
      <trkpt lat="51.91245833333334" lon="4.484458333333333">
        <ele>8.866532380267536</ele>
        <time>2024-08-25T16:11:47.371Z</time>
      </trkpt>
      <trkpt lat="51.91238333333334" lon="4.484291666666667">
        <ele>6.066316047986312</ele>
        <time>2024-08-25T16:12:21.378Z</time>
      </trkpt>
      <trkpt lat="51.91222333333334" lon="4.484445">
        <ele>5.266460288460763</ele>
        <time>2024-08-25T16:12:44.374Z</time>
      </trkpt>
      <trkpt lat="51.91234666666666" lon="4.484041666666667">
        <ele>4.066036195660011</ele>
        <time>2024-08-25T16:13:20.407Z</time>
      </trkpt>
      <trkpt lat="51.91235833333334" lon="4.483421666666667">
        <ele>6.165332530181757</ele>
        <time>2024-08-25T16:13:57.372Z</time>
      </trkpt>
      <trkpt lat="51.91229" lon="4.482986666666666">
        <ele>11.464826549908885</ele>
        <time>2024-08-25T16:15:04.378Z</time>
      </trkpt>
      <trkpt lat="51.91205" lon="4.48302">
        <ele>10.864808883772596</ele>
        <time>2024-08-25T16:15:25.372Z</time>
      </trkpt>
      <trkpt lat="51.911968333333334" lon="4.482818333333333">
        <ele>7.064553356464835</ele>
        <time>2024-08-25T16:15:39.374Z</time>
      </trkpt>
      <trkpt lat="51.911985" lon="4.482766666666667">
        <ele>7.2645319900896155</ele>
        <time>2024-08-25T16:16:08.377Z</time>
      </trkpt>
      <trkpt lat="51.91208833333334" lon="4.482606666666666">
        <ele>7.364342920592975</ele>
        <time>2024-08-25T16:16:24.390Z</time>
      </trkpt>
      <trkpt lat="51.91223166666667" lon="4.4825550000000005">
        <ele>10.064305799160763</ele>
        <time>2024-08-25T16:16:32.370Z</time>
      </trkpt>
      <trkpt lat="51.91239166666666" lon="4.482566666666667">
        <ele>8.964324791438948</ele>
        <time>2024-08-25T16:16:38.401Z</time>
      </trkpt>
      <trkpt lat="51.91258" lon="4.4824600000000006">
        <ele>7.464253337343408</ele>
        <time>2024-08-25T16:16:50.403Z</time>
      </trkpt>
      <trkpt lat="51.91318833333333" lon="4.482358333333334">
        <ele>19.364223704470092</ele>
        <time>2024-08-25T16:17:49.391Z</time>
      </trkpt>
      <trkpt lat="51.91318666666666" lon="4.4822999999999995">
        <ele>20.26415987679499</ele>
        <time>2024-08-25T16:17:55.410Z</time>
      </trkpt>
      <trkpt lat="51.91327833333333" lon="4.482198333333333">
        <ele>22.76406211520184</ele>
        <time>2024-08-25T16:18:08.400Z</time>
      </trkpt>
      <trkpt lat="51.91385166666667" lon="4.482173333333334">
        <ele>7.864114363333655</ele>
        <time>2024-08-25T16:18:52.404Z</time>
      </trkpt>
      <trkpt lat="51.91402" lon="4.482215">
        <ele>2.1641880114800713</ele>
        <time>2024-08-25T16:19:09.371Z</time>
      </trkpt>
      <trkpt lat="51.914" lon="4.4822750000000005">
        <ele>1.3642517516134518</ele>
        <time>2024-08-25T16:19:17.367Z</time>
      </trkpt>
      <trkpt lat="51.91403166666667" lon="4.482346666666667">
        <ele>2.8643304413729</ele>
        <time>2024-08-25T16:19:23.374Z</time>
      </trkpt>
      <trkpt lat="51.91409999999999" lon="4.482363333333334">
        <ele>5.764372849528179</ele>
        <time>2024-08-25T16:19:28.371Z</time>
      </trkpt>
      <trkpt lat="51.91436333333333" lon="4.482349999999999">
        <ele>11.864399527667274</ele>
        <time>2024-08-25T16:19:54.380Z</time>
      </trkpt>
      <trkpt lat="51.914523333333335" lon="4.482271666666667">
        <ele>5.964344624806579</ele>
        <time>2024-08-25T16:20:19.414Z</time>
      </trkpt>
      <trkpt lat="51.91565666666667" lon="4.482216666666667">
        <ele>9.46445414461791</ele>
        <time>2024-08-25T16:22:00.391Z</time>
      </trkpt>
      <trkpt lat="51.91610166666666" lon="4.4822049999999996">
        <ele>3.664511136702423</ele>
        <time>2024-08-25T16:22:43.424Z</time>
      </trkpt>
      <trkpt lat="51.91612" lon="4.4822766666666665">
        <ele>4.164581660910059</ele>
        <time>2024-08-25T16:22:51.378Z</time>
      </trkpt>
      <trkpt lat="51.91681833333334" lon="4.4821816666666665">
        <ele>1.6645969517795365</ele>
        <time>2024-08-25T16:24:06.421Z</time>
      </trkpt>
      <trkpt lat="51.917116666666665" lon="4.482043333333333">
        <ele>8.764495597587647</ele>
        <time>2024-08-25T16:24:36.377Z</time>
      </trkpt>
      <trkpt lat="51.91714166666667" lon="4.482106666666667">
        <ele>10.76456251534362</ele>
        <time>2024-08-25T16:24:52.404Z</time>
      </trkpt>
      <trkpt lat="51.91728833333333" lon="4.482073333333333">
        <ele>11.1645484109957</ele>
        <time>2024-08-25T16:25:04.391Z</time>
      </trkpt>
      <trkpt lat="51.917318333333334" lon="4.4819949999999995">
        <ele>7.864466340395836</ele>
        <time>2024-08-25T16:25:09.362Z</time>
      </trkpt>
      <trkpt lat="51.917793333333336" lon="4.481633333333334">
        <ele>-4.03586936240746</ele>
        <time>2024-08-25T16:26:04.370Z</time>
      </trkpt>
      <trkpt lat="51.91830333333334" lon="4.481443333333333">
        <ele>4.863992130707317</ele>
        <time>2024-08-25T16:26:35.374Z</time>
      </trkpt>
      <trkpt lat="51.91828" lon="4.4813350000000005">
        <ele>4.8638778964467875</ele>
        <time>2024-08-25T16:26:41.397Z</time>
      </trkpt>
      <trkpt lat="51.91831833333334" lon="4.481208333333333">
        <ele>4.863729202249502</ele>
        <time>2024-08-25T16:26:52.385Z</time>
      </trkpt>
      <trkpt lat="51.918623333333336" lon="4.4810083333333335">
        <ele>6.9635348463317115</ele>
        <time>2024-08-25T16:27:30.364Z</time>
      </trkpt>
      <trkpt lat="51.91875166666667" lon="4.4808">
        <ele>5.163322522313905</ele>
        <time>2024-08-25T16:27:51.391Z</time>
      </trkpt>
      <trkpt lat="51.91908" lon="4.4806083333333335">
        <ele>2.2631531876720388</ele>
        <time>2024-08-25T16:28:21.400Z</time>
      </trkpt>
      <trkpt lat="51.919245000000004" lon="4.480621666666667">
        <ele>-0.43680689167787534</ele>
        <time>2024-08-25T16:28:32.382Z</time>
      </trkpt>
      <trkpt lat="51.91919666666666" lon="4.480295">
        <ele>-0.13715774927170798</ele>
        <time>2024-08-25T16:28:48.395Z</time>
      </trkpt>
      <trkpt lat="51.91921166666666" lon="4.4800249999999995">
        <ele>2.0625070134626853</ele>
        <time>2024-08-25T16:29:02.387Z</time>
      </trkpt>
      <trkpt lat="51.919084999999995" lon="4.47989">
        <ele>5.762344989201374</ele>
        <time>2024-08-25T16:29:22.405Z</time>
      </trkpt>
      <trkpt lat="51.918994999999995" lon="4.479571666666667">
        <ele>7.461963060437576</ele>
        <time>2024-08-25T16:29:40.410Z</time>
      </trkpt>
      <trkpt lat="51.918845" lon="4.4793883333333335">
        <ele>4.36171914245547</ele>
        <time>2024-08-25T16:30:00.403Z</time>
      </trkpt>
      <trkpt lat="51.91876333333333" lon="4.479423333333333">
        <ele>0.1617347378228473</ele>
        <time>2024-08-25T16:30:06.417Z</time>
      </trkpt>
      <trkpt lat="51.91862166666667" lon="4.479335000000001">
        <ele>-1.5383827316318701</ele>
        <time>2024-08-25T16:30:23.414Z</time>
      </trkpt>
      <trkpt lat="51.918476666666656" lon="4.479373333333333">
        <ele>6.761635997518937</ele>
        <time>2024-08-25T16:30:33.414Z</time>
      </trkpt>
      <trkpt lat="51.918415" lon="4.47924">
        <ele>4.261477236485696</ele>
        <time>2024-08-25T16:30:40.417Z</time>
      </trkpt>
      <trkpt lat="51.91836166666667" lon="4.478973333333333">
        <ele>-0.23884518436971547</ele>
        <time>2024-08-25T16:30:53.417Z</time>
      </trkpt>
      <trkpt lat="51.91843666666667" lon="4.478856666666667">
        <ele>0.16112392910991247</ele>
        <time>2024-08-25T16:31:24.384Z</time>
      </trkpt>
      <trkpt lat="51.91842499999999" lon="4.478728333333334">
        <ele>0.16090106732646348</ele>
        <time>2024-08-25T16:31:31.424Z</time>
      </trkpt>
      <trkpt lat="51.918353333333336" lon="4.47862">
        <ele>0.9607534481030555</ele>
        <time>2024-08-25T16:31:41.408Z</time>
      </trkpt>
      <trkpt lat="51.91833833333333" lon="4.47849">
        <ele>2.4606239556727516</ele>
        <time>2024-08-25T16:31:49.404Z</time>
      </trkpt>
      <trkpt lat="51.91840833333334" lon="4.478255">
        <ele>3.0603490460053706</ele>
        <time>2024-08-25T16:31:57.418Z</time>
      </trkpt>
      <trkpt lat="51.920745000000004" lon="4.477036666666667">
        <ele>-1.8407002394399683</ele>
        <time>2024-08-25T16:36:15.398Z</time>
      </trkpt>
      <trkpt lat="51.92082833333334" lon="4.477125">
        <ele>-1.2406240810094147</ele>
        <time>2024-08-25T16:36:22.426Z</time>
      </trkpt>
      <trkpt lat="51.920829999999995" lon="4.477368333333334">
        <ele>6.15967164100455</ele>
        <time>2024-08-25T16:36:35.397Z</time>
      </trkpt>
      <trkpt lat="51.92201166666667" lon="4.476483333333333">
        <ele>7.558864057039379</ele>
        <time>2024-08-25T16:40:26.418Z</time>
      </trkpt>
      <trkpt lat="51.92202166666666" lon="4.476326666666667">
        <ele>6.558704790998881</ele>
        <time>2024-08-25T16:40:31.407Z</time>
      </trkpt>
      <trkpt lat="51.92209" lon="4.476201666666666">
        <ele>3.458545507332559</ele>
        <time>2024-08-25T16:40:40.375Z</time>
      </trkpt>
      <trkpt lat="51.92207666666666" lon="4.476118333333333">
        <ele>6.158447335385304</ele>
        <time>2024-08-25T16:40:55.384Z</time>
      </trkpt>
      <trkpt lat="51.922421666666665" lon="4.475996666666666">
        <ele>23.058360256430518</ele>
        <time>2024-08-25T16:41:31.378Z</time>
      </trkpt>
      <trkpt lat="51.92319333333333" lon="4.475553333333334">
        <ele>0.8579718856046696</ele>
        <time>2024-08-25T16:42:41.427Z</time>
      </trkpt>
      <trkpt lat="51.92342166666667" lon="4.475575">
        <ele>-1.5419685154206917</ele>
        <time>2024-08-25T16:42:57.433Z</time>
      </trkpt>
      <trkpt lat="51.92350166666667" lon="4.475371666666666">
        <ele>0.6578043706401431</ele>
        <time>2024-08-25T16:43:10.377Z</time>
      </trkpt>
      <trkpt lat="51.923468333333325" lon="4.4753099999999995">
        <ele>1.4577425883628905</ele>
        <time>2024-08-25T16:43:16.414Z</time>
      </trkpt>
      <trkpt lat="51.92359666666666" lon="4.475129999999999">
        <ele>1.5575565223457772</ele>
        <time>2024-08-25T16:43:24.408Z</time>
      </trkpt>
      <trkpt lat="51.923751666666675" lon="4.475248333333334">
        <ele>5.057690399019819</ele>
        <time>2024-08-25T16:43:36.394Z</time>
      </trkpt>
      <trkpt lat="51.92409333333333" lon="4.475206666666667">
        <ele>10.057708799818187</ele>
        <time>2024-08-25T16:43:46.417Z</time>
      </trkpt>
      <trkpt lat="51.92411333333333" lon="4.47455">
        <ele>5.856979034382597</ele>
        <time>2024-08-25T16:44:24.381Z</time>
      </trkpt>
      <trkpt lat="51.92418666666667" lon="4.474471666666667">
        <ele>4.956887759158974</ele>
        <time>2024-08-25T16:44:30.364Z</time>
      </trkpt>
      <trkpt lat="51.92413333333334" lon="4.474303333333333">
        <ele>4.856671484318113</ele>
        <time>2024-08-25T16:44:41.372Z</time>
      </trkpt>
      <trkpt lat="51.92431833333333" lon="4.474281666666667">
        <ele>8.856667986052074</ele>
        <time>2024-08-25T16:45:02.364Z</time>
      </trkpt>
      <trkpt lat="51.92429666666667" lon="4.474223333333333">
        <ele>8.05661711719192</ele>
        <time>2024-08-25T16:45:08.404Z</time>
      </trkpt>
      <trkpt lat="51.92433833333333" lon="4.474018333333333">
        <ele>10.056370009465418</ele>
        <time>2024-08-25T16:45:21.377Z</time>
      </trkpt>
      <trkpt lat="51.92449499999999" lon="4.473965000000001">
        <ele>10.456337305638336</ele>
        <time>2024-08-25T16:45:39.416Z</time>
      </trkpt>
      <trkpt lat="51.92460333333334" lon="4.473789999999999">
        <ele>8.25614876764255</ele>
        <time>2024-08-25T16:46:11.417Z</time>
      </trkpt>
      <trkpt lat="51.92463666666666" lon="4.473803333333334">
        <ele>6.656165320435825</ele>
        <time>2024-08-25T16:46:16.426Z</time>
      </trkpt>
      <trkpt lat="51.92473833333334" lon="4.474236666666667">
        <ele>19.456666466265347</ele>
        <time>2024-08-25T16:46:32.394Z</time>
      </trkpt>
      <trkpt lat="51.924929999999996" lon="4.474218333333334">
        <ele>25.75669978957052</ele>
        <time>2024-08-25T16:46:46.365Z</time>
      </trkpt>
      <trkpt lat="51.92491666666667" lon="4.474293333333334">
        <ele>18.55677569432161</ele>
        <time>2024-08-25T16:47:05.370Z</time>
      </trkpt>
      <trkpt lat="51.92496666666666" lon="4.474246666666667">
        <ele>17.456736692030432</ele>
        <time>2024-08-25T16:47:17.371Z</time>
      </trkpt>
      <trkpt lat="51.92496333333334" lon="4.474136666666666">
        <ele>18.65661095330573</ele>
        <time>2024-08-25T16:47:26.387Z</time>
      </trkpt>
      <trkpt lat="51.92504999999999" lon="4.474563333333333">
        <ele>17.957060010403858</ele>
        <time>2024-08-25T16:47:39.380Z</time>
      </trkpt>
      <trkpt lat="51.925113333333336" lon="4.4746049999999995">
        <ele>13.857167598800444</ele>
        <time>2024-08-25T16:47:44.377Z</time>
      </trkpt>
      <trkpt lat="51.925165" lon="4.474993333333333">
        <ele>6.157621112096656</ele>
        <time>2024-08-25T16:48:01.378Z</time>
      </trkpt>
      <trkpt lat="51.92521166666667" lon="4.475065">
        <ele>6.55771834051383</ele>
        <time>2024-08-25T16:48:17.377Z</time>
      </trkpt>
      <trkpt lat="51.92517333333333" lon="4.474895">
        <ele>5.957511915980135</ele>
        <time>2024-08-25T16:48:40.372Z</time>
      </trkpt>
      <trkpt lat="51.92517666666666" lon="4.47497">
        <ele>5.55759233561961</ele>
        <time>2024-08-25T16:48:49.367Z</time>
      </trkpt>
      <trkpt lat="51.925138333333344" lon="4.47497">
        <ele>6.85762147034459</ele>
        <time>2024-08-25T16:49:02.367Z</time>
      </trkpt>
      <trkpt lat="51.92510166666666" lon="4.474718333333333">
        <ele>5.657324177332747</ele>
        <time>2024-08-25T16:49:12.364Z</time>
      </trkpt>
      <trkpt lat="51.925165" lon="4.4746983333333334">
        <ele>1.7572865982348844</ele>
        <time>2024-08-25T16:49:31.371Z</time>
      </trkpt>
      <trkpt lat="51.925171666666664" lon="4.4747433333333335">
        <ele>2.157320616145725</ele>
        <time>2024-08-25T16:49:34.372Z</time>
      </trkpt>
      <trkpt lat="51.92512166666667" lon="4.474408333333333">
        <ele>-0.7430324392813432</ele>
        <time>2024-08-25T16:50:00.423Z</time>
      </trkpt>
      <trkpt lat="51.92501000000001" lon="4.474341666666667">
        <ele>-2.1431577991951656</ele>
        <time>2024-08-25T16:50:09.424Z</time>
      </trkpt>
      <trkpt lat="51.924980000000005" lon="4.4740633333333335">
        <ele>-5.443439701266257</ele>
        <time>2024-08-25T16:50:24.424Z</time>
      </trkpt>
      <trkpt lat="51.92501666666667" lon="4.47389">
        <ele>-3.9436724708819355</ele>
        <time>2024-08-25T16:50:32.447Z</time>
      </trkpt>
      <trkpt lat="51.924944999999994" lon="4.473533333333333">
        <ele>1.555926999512863</ele>
        <time>2024-08-25T16:50:50.374Z</time>
      </trkpt>
      <trkpt lat="51.92495166666666" lon="4.473298333333333">
        <ele>2.4556529977674373</ele>
        <time>2024-08-25T16:51:02.382Z</time>
      </trkpt>
      <trkpt lat="51.92487166666667" lon="4.472973333333333">
        <ele>1.8552587493842125</ele>
        <time>2024-08-25T16:51:21.377Z</time>
      </trkpt>
      <trkpt lat="51.92478500000001" lon="4.472836666666667">
        <ele>1.555083138897949</ele>
        <time>2024-08-25T16:51:40.400Z</time>
      </trkpt>
      <trkpt lat="51.92478166666667" lon="4.472575">
        <ele>3.054770467210332</ele>
        <time>2024-08-25T16:51:55.368Z</time>
      </trkpt>
      <trkpt lat="51.92462999999999" lon="4.472346666666667">
        <ele>4.454498456857117</ele>
        <time>2024-08-25T16:52:09.375Z</time>
      </trkpt>
      <trkpt lat="51.924524999999996" lon="4.471748333333333">
        <ele>3.453795770228588</ele>
        <time>2024-08-25T16:52:47.371Z</time>
      </trkpt>
      <trkpt lat="51.92459833333334" lon="4.471681666666667">
        <ele>2.353709627919315</ele>
        <time>2024-08-25T16:52:52.371Z</time>
      </trkpt>
      <trkpt lat="51.92459333333333" lon="4.471581666666666">
        <ele>3.7536067726813513</ele>
        <time>2024-08-25T16:53:03.377Z</time>
      </trkpt>
      <trkpt lat="51.924504999999996" lon="4.471151666666667">
        <ele>1.453072449958384</ele>
        <time>2024-08-25T16:53:29.384Z</time>
      </trkpt>
      <trkpt lat="51.924438333333335" lon="4.471076666666666">
        <ele>7.052981310753218</ele>
        <time>2024-08-25T16:53:41.385Z</time>
      </trkpt>
      <trkpt lat="51.92443166666667" lon="4.470758333333333">
        <ele>10.652635133246605</ele>
        <time>2024-08-25T16:54:00.397Z</time>
      </trkpt>
      <trkpt lat="51.92434166666667" lon="4.470541666666667">
        <ele>12.852343751598568</ele>
        <time>2024-08-25T16:54:30.374Z</time>
      </trkpt>
      <trkpt lat="51.924571666666665" lon="4.470013333333333">
        <ele>-0.4482183205970003</ele>
        <time>2024-08-25T16:57:56.384Z</time>
      </trkpt>
      <trkpt lat="51.92472333333333" lon="4.4700983333333335">
        <ele>-2.5481279180564798</ele>
        <time>2024-08-25T16:58:06.404Z</time>
      </trkpt>
      <trkpt lat="51.92472166666666" lon="4.4702">
        <ele>-2.848030205352231</ele>
        <time>2024-08-25T16:58:10.401Z</time>
      </trkpt>
      <trkpt lat="51.92467666666666" lon="4.470246666666667">
        <ele>-2.9479735800272238</ele>
        <time>2024-08-25T16:58:12.423Z</time>
      </trkpt>
      <trkpt lat="51.92518499999999" lon="4.470193333333333">
        <ele>-2.947923106140621</ele>
        <time>2024-08-25T16:59:15.487Z</time>
      </trkpt>
      <trkpt lat="51.92499101302778" lon="4.469225758424244">
        <ele>5.718813771408638</ele>
        <time>2024-08-25T17:00:33.165Z</time>
      </trkpt>
    </trkseg>
  </trk>
</gpx>
