<?xml version="1.0" encoding="UTF-8"?>
<gpx version="1.1" creator="Export" xmlns="http://www.topografix.com/GPX/1/1" xmlns:xsi="http://www.w3.org/2001/XMLSchema-instance" xsi:schemaLocation="http://www.topografix.com/GPX/1/1 http://www.topografix.com/GPX/1/1/gpx.xsd http://www.garmin.com/xmlschemas/GpxExtensions/v3 http://www.garmin.com/xmlschemas/GpxExtensionsv3.xsd http://www.garmin.com/xmlschemas/TrackPointExtension/v1 http://www.garmin.com/xmlschemas/TrackPointExtensionv1.xsd http://www.garmin.com/xmlschemas/PowerExtension/v1 http://www.garmin.com/xmlschemas/PowerExtensionv1.xsd http://www.topografix.com/GPX/gpx_style/0/2 http://www.topografix.com/GPX/gpx_style/0/2/gpx_style.xsd" xmlns:gpxtpx="http://www.garmin.com/xmlschemas/TrackPointExtension/v1" xmlns:gpxx="http://www.garmin.com/xmlschemas/GpxExtensions/v3" xmlns:gpxpx="http://www.garmin.com/xmlschemas/PowerExtension/v1" xmlns:gpx_style="http://www.topografix.com/GPX/gpx_style/0/2">
  <metadata>
    <name>activity_195_2024-09-09</name>
    <author>
      <name>gpx.studio</name>
      <link href="https://gpx.studio"/>
    </author>
  </metadata>
  <wpt lat="37.392293" lon="-5.994809">
    <ele>19.01547880346558</ele>
    <name>Bombon Boss</name>
    <sym>Restaurant</sym>
  </wpt>
  <wpt lat="37.396684" lon="-5.981464">
    <ele>10.842164863724744</ele>
    <name>Lidl</name>
    <sym>Convenience Store</sym>
  </wpt>
  <wpt lat="37.364929" lon="-5.981007">
    <ele>9.736626454235946</ele>
    <name>Bar Cafeteria L&apos; Orangier</name>
    <sym>Restaurant</sym>
  </wpt>
  <trk>
    <name>activity_195_2024-09-09</name>
    <trkseg>
      <trkpt lat="37.39576693122277" lon="-6.000887910353043">
        <ele>12.108252757392286</ele>
        <time>2024-09-09T05:42:23.372Z</time>
      </trkpt>
      <trkpt lat="37.3958" lon="-6.001061666666668">
        <ele>11.844512177516089</ele>
        <time>2024-09-09T05:42:47.084Z</time>
      </trkpt>
      <trkpt lat="37.39570666666667" lon="-6.001076666666667">
        <ele>18.82948091981364</ele>
        <time>2024-09-09T05:45:04.085Z</time>
      </trkpt>
      <trkpt lat="37.39577166666666" lon="-6.0009983333333325">
        <ele>18.529360840666648</ele>
        <time>2024-09-09T05:45:47.088Z</time>
      </trkpt>
      <trkpt lat="37.39590666666666" lon="-6.000968333333333">
        <ele>19.72913103300686</ele>
        <time>2024-09-09T05:45:56.078Z</time>
      </trkpt>
      <trkpt lat="37.39563166666667" lon="-6.0010449999999995">
        <ele>27.329054954670227</ele>
        <time>2024-09-09T05:46:21.075Z</time>
      </trkpt>
      <trkpt lat="37.39550166666667" lon="-6.000811666666667">
        <ele>25.427413600198584</ele>
        <time>2024-09-09T05:46:37.056Z</time>
      </trkpt>
      <trkpt lat="37.39547166666667" lon="-6.000196666666667">
        <ele>13.823439567672246</ele>
        <time>2024-09-09T05:47:20.101Z</time>
      </trkpt>
      <trkpt lat="37.395554999999995" lon="-6.0000866666666655">
        <ele>12.422889097782253</ele>
        <time>2024-09-09T05:47:59.053Z</time>
      </trkpt>
      <trkpt lat="37.39546666666667" lon="-5.999953333333334">
        <ele>15.326234849220604</ele>
        <time>2024-09-09T05:48:21.091Z</time>
      </trkpt>
      <trkpt lat="37.39549" lon="-5.9998683333333345">
        <ele>13.825806400486307</ele>
        <time>2024-09-09T05:48:37.084Z</time>
      </trkpt>
      <trkpt lat="37.39528166666666" lon="-5.998146666666666">
        <ele>9.916180920282564</ele>
        <time>2024-09-09T05:50:57.055Z</time>
      </trkpt>
      <trkpt lat="37.395223333333334" lon="-5.99802">
        <ele>14.815324241322372</ele>
        <time>2024-09-09T05:51:19.082Z</time>
      </trkpt>
      <trkpt lat="37.39516666666667" lon="-5.997603333333332">
        <ele>9.812982501324235</ele>
        <time>2024-09-09T05:51:53.095Z</time>
      </trkpt>
      <trkpt lat="37.39520166666667" lon="-5.997564999999999">
        <ele>10.512743680435271</ele>
        <time>2024-09-09T05:52:03.062Z</time>
      </trkpt>
      <trkpt lat="37.39517166666667" lon="-5.997533333333333">
        <ele>8.312603377648827</ele>
        <time>2024-09-09T05:52:10.061Z</time>
      </trkpt>
      <trkpt lat="37.39519333333333" lon="-5.997361666666666">
        <ele>10.311734707053283</ele>
        <time>2024-09-09T05:52:21.086Z</time>
      </trkpt>
      <trkpt lat="37.39510166666666" lon="-5.997226666666667">
        <ele>11.510836247490026</ele>
        <time>2024-09-09T05:52:33.088Z</time>
      </trkpt>
      <trkpt lat="37.39498833333334" lon="-5.997199999999999">
        <ele>16.110435134195</ele>
        <time>2024-09-09T05:52:42.092Z</time>
      </trkpt>
      <trkpt lat="37.394895" lon="-5.996948333333334">
        <ele>16.40889972785591</ele>
        <time>2024-09-09T05:53:02.088Z</time>
      </trkpt>
      <trkpt lat="37.39471833333334" lon="-5.996896666666667">
        <ele>18.408291946614412</ele>
        <time>2024-09-09T05:53:19.065Z</time>
      </trkpt>
      <trkpt lat="37.39472833333333" lon="-5.9968483333333324">
        <ele>17.00799042789543</ele>
        <time>2024-09-09T05:53:27.055Z</time>
      </trkpt>
      <trkpt lat="37.39465333333333" lon="-5.996786666666666">
        <ele>17.70756016378852</ele>
        <time>2024-09-09T05:53:39.082Z</time>
      </trkpt>
      <trkpt lat="37.39441" lon="-5.996781666666667">
        <ele>17.20704640712912</ele>
        <time>2024-09-09T05:54:05.065Z</time>
      </trkpt>
      <trkpt lat="37.39427" lon="-5.995985">
        <ele>14.202463044875628</ele>
        <time>2024-09-09T05:55:16.049Z</time>
      </trkpt>
      <trkpt lat="37.39364666666667" lon="-5.996033333333332">
        <ele>23.701538147816215</ele>
        <time>2024-09-09T05:56:20.088Z</time>
      </trkpt>
      <trkpt lat="37.39357" lon="-5.995885">
        <ele>21.00068946363941</ele>
        <time>2024-09-09T05:56:30.078Z</time>
      </trkpt>
      <trkpt lat="37.39353166666667" lon="-5.995605">
        <ele>22.89922448370661</ele>
        <time>2024-09-09T05:56:45.092Z</time>
      </trkpt>
      <trkpt lat="37.39349333333333" lon="-5.995545">
        <ele>23.89875924509854</ele>
        <time>2024-09-09T05:56:51.066Z</time>
      </trkpt>
      <trkpt lat="37.393346666666666" lon="-5.9955799999999995">
        <ele>16.398489734019968</ele>
        <time>2024-09-09T05:57:12.089Z</time>
      </trkpt>
      <trkpt lat="37.39303833333334" lon="-5.995549999999999">
        <ele>14.497784532887998</ele>
        <time>2024-09-09T05:57:48.098Z</time>
      </trkpt>
      <trkpt lat="37.392990000000005" lon="-5.995431666666667">
        <ele>14.497080001265658</ele>
        <time>2024-09-09T05:57:57.099Z</time>
      </trkpt>
      <trkpt lat="37.393045" lon="-5.995238333333333">
        <ele>15.596094377149662</ele>
        <time>2024-09-09T05:58:11.071Z</time>
      </trkpt>
      <trkpt lat="37.392871666666665" lon="-5.995148333333333">
        <ele>17.19528678154031</ele>
        <time>2024-09-09T05:58:28.069Z</time>
      </trkpt>
      <trkpt lat="37.392755" lon="-5.994718333333333">
        <ele>24.192764001925518</ele>
        <time>2024-09-09T05:58:54.085Z</time>
      </trkpt>
      <trkpt lat="37.39271166666666" lon="-5.994718333333333">
        <ele>19.834021328654938</ele>
        <time>2024-09-09T05:59:06.797Z</time>
      </trkpt>
      <trkpt lat="37.39272545744514" lon="-5.992321933159843">
        <ele>18.683753851138253</ele>
        <time>2024-09-09T06:02:03.535Z</time>
      </trkpt>
      <trkpt lat="37.39241815938368" lon="-5.99024475480465">
        <ele>21.755949328567873</ele>
        <time>2024-09-09T06:04:39.314Z</time>
      </trkpt>
      <trkpt lat="37.39284774079903" lon="-5.988585400382561">
        <ele>19.78530777040903</ele>
        <time>2024-09-09T06:06:47.986Z</time>
      </trkpt>
      <trkpt lat="37.39357793122217" lon="-5.985118293344783">
        <ele>14.95997915868691</ele>
        <time>2024-09-09T06:11:12.434Z</time>
      </trkpt>
      <trkpt lat="37.39406821382332" lon="-5.983474359547017">
        <ele>14.850295138336715</ele>
        <time>2024-09-09T06:13:21.892Z</time>
      </trkpt>
      <trkpt lat="37.39189535432766" lon="-5.9785336230980874">
        <ele>9.791495068302126</ele>
        <time>2024-09-09T06:20:18.241Z</time>
      </trkpt>
      <trkpt lat="37.391811670630716" lon="-5.976062451449934">
        <ele>17.54505218120633</ele>
        <time>2024-09-09T06:23:20.599Z</time>
      </trkpt>
      <trkpt lat="37.39183" lon="-5.976263333333333">
        <ele>26.590163090418436</ele>
        <time>2024-09-09T07:10:34.088Z</time>
      </trkpt>
      <trkpt lat="37.391859999999994" lon="-5.976185">
        <ele>17.789736685587634</ele>
        <time>2024-09-09T07:10:38.055Z</time>
      </trkpt>
      <trkpt lat="37.391904999999994" lon="-5.976216666666666">
        <ele>23.789992411394422</ele>
        <time>2024-09-09T07:10:49.058Z</time>
      </trkpt>
      <trkpt lat="37.39192333333334" lon="-5.976586666666666">
        <ele>16.19202619980362</ele>
        <time>2024-09-09T07:11:32.052Z</time>
      </trkpt>
      <trkpt lat="37.391823333333335" lon="-5.976488333333333">
        <ele>14.291332927258054</ele>
        <time>2024-09-09T07:11:52.099Z</time>
      </trkpt>
      <trkpt lat="37.39154333333333" lon="-5.9765283333333326">
        <ele>14.990989076312744</ele>
        <time>2024-09-09T07:12:20.085Z</time>
      </trkpt>
      <trkpt lat="37.391378333333336" lon="-5.976653333333333">
        <ele>16.69134828663706</ele>
        <time>2024-09-09T07:12:40.075Z</time>
      </trkpt>
      <trkpt lat="37.39132" lon="-5.9766433333333335">
        <ele>17.091229882095753</ele>
        <time>2024-09-09T07:12:47.084Z</time>
      </trkpt>
      <trkpt lat="37.391103333333334" lon="-5.976859999999999">
        <ele>15.891935883590698</ele>
        <time>2024-09-09T07:13:32.079Z</time>
      </trkpt>
      <trkpt lat="37.39158333333333" lon="-5.97771">
        <ele>13.29739528924135</ele>
        <time>2024-09-09T07:14:49.084Z</time>
      </trkpt>
      <trkpt lat="37.391376666666666" lon="-5.977996666666667">
        <ele>11.498701982352593</ele>
        <time>2024-09-09T07:15:19.082Z</time>
      </trkpt>
      <trkpt lat="37.391315" lon="-5.978190000000001">
        <ele>11.899615620610653</ele>
        <time>2024-09-09T07:15:34.092Z</time>
      </trkpt>
      <trkpt lat="37.39137166666667" lon="-5.9784733333333335">
        <ele>14.901251793944297</ele>
        <time>2024-09-09T07:15:56.085Z</time>
      </trkpt>
      <trkpt lat="37.391526666666664" lon="-5.9788">
        <ele>14.503386365944394</ele>
        <time>2024-09-09T07:16:26.099Z</time>
      </trkpt>
      <trkpt lat="37.391373333333334" lon="-5.978961666666667">
        <ele>11.004001490579554</ele>
        <time>2024-09-09T07:16:49.085Z</time>
      </trkpt>
      <trkpt lat="37.391373333333334" lon="-5.979003333333333">
        <ele>10.604217137117317</ele>
        <time>2024-09-09T07:16:56.095Z</time>
      </trkpt>
      <trkpt lat="37.39129666666667" lon="-5.978930000000001">
        <ele>11.303700636675423</ele>
        <time>2024-09-09T07:20:33.073Z</time>
      </trkpt>
      <trkpt lat="37.39138333333334" lon="-5.978988333333333">
        <ele>15.704163331143192</ele>
        <time>2024-09-09T07:22:06.094Z</time>
      </trkpt>
      <trkpt lat="37.39125" lon="-5.9788">
        <ele>16.303737626469356</ele>
        <time>2024-09-09T07:39:54.438Z</time>
      </trkpt>
      <trkpt lat="37.39129333333334" lon="-5.978928333333332">
        <ele>17.003570570051863</ele>
        <time>2024-09-09T07:39:56.466Z</time>
      </trkpt>
      <trkpt lat="37.39126833333333" lon="-5.979005000000001">
        <ele>15.404023389269021</ele>
        <time>2024-09-09T07:40:01.096Z</time>
      </trkpt>
      <trkpt lat="37.391325" lon="-5.978949999999999">
        <ele>14.103861866279225</ele>
        <time>2024-09-09T07:40:17.095Z</time>
      </trkpt>
      <trkpt lat="37.39135" lon="-5.978991666666667">
        <ele>17.50388711084996</ele>
        <time>2024-09-09T07:43:19.125Z</time>
      </trkpt>
      <trkpt lat="37.39136" lon="-5.978951666666667">
        <ele>16.30394778182511</ele>
        <time>2024-09-09T07:45:57.049Z</time>
      </trkpt>
      <trkpt lat="37.391333333333336" lon="-5.978928333333332">
        <ele>15.803759130257546</ele>
        <time>2024-09-09T07:46:14.065Z</time>
      </trkpt>
      <trkpt lat="37.39126833333333" lon="-5.979023333333333">
        <ele>16.00414866801797</ele>
        <time>2024-09-09T07:47:37.065Z</time>
      </trkpt>
      <trkpt lat="37.391306666666665" lon="-5.9790399999999995">
        <ele>14.304289425955318</ele>
        <time>2024-09-09T07:48:34.392Z</time>
      </trkpt>
      <trkpt lat="37.391288333333335" lon="-5.979073333333334">
        <ele>15.104371175868351</ele>
        <time>2024-09-09T07:48:36.401Z</time>
      </trkpt>
      <trkpt lat="37.39091666666666" lon="-5.979424999999999">
        <ele>11.705654482760515</ele>
        <time>2024-09-09T07:49:13.069Z</time>
      </trkpt>
      <trkpt lat="37.39080166666667" lon="-5.97959">
        <ele>12.206296973132133</ele>
        <time>2024-09-09T07:49:29.069Z</time>
      </trkpt>
      <trkpt lat="37.39073666666666" lon="-5.979614999999999">
        <ele>11.306349354188747</ele>
        <time>2024-09-09T07:49:35.071Z</time>
      </trkpt>
      <trkpt lat="37.390364999999996" lon="-5.980205000000001">
        <ele>12.308836543597273</ele>
        <time>2024-09-09T07:50:27.058Z</time>
      </trkpt>
      <trkpt lat="37.390258333333335" lon="-5.980153333333334">
        <ele>25.308438711230572</ele>
        <time>2024-09-09T07:50:40.068Z</time>
      </trkpt>
      <trkpt lat="37.390006666666665" lon="-5.9803749999999996">
        <ele>30.509113628149173</ele>
        <time>2024-09-09T07:51:06.075Z</time>
      </trkpt>
      <trkpt lat="37.38979500000001" lon="-5.980684999999999">
        <ele>24.210362012264937</ele>
        <time>2024-09-09T07:51:37.069Z</time>
      </trkpt>
      <trkpt lat="37.38955166666666" lon="-5.98095">
        <ele>27.61138531465454</ele>
        <time>2024-09-09T07:52:03.059Z</time>
      </trkpt>
      <trkpt lat="37.38951833333333" lon="-5.981101666666666">
        <ele>27.21213057695067</ele>
        <time>2024-09-09T07:52:13.059Z</time>
      </trkpt>
      <trkpt lat="37.389376666666664" lon="-5.981256666666667">
        <ele>22.91269850015057</ele>
        <time>2024-09-09T07:52:31.072Z</time>
      </trkpt>
      <trkpt lat="37.38937333333333" lon="-5.981366666666666">
        <ele>19.21327635329714</ele>
        <time>2024-09-09T07:52:38.072Z</time>
      </trkpt>
      <trkpt lat="37.389154999999995" lon="-5.981655000000001">
        <ele>13.014454796026676</ele>
        <time>2024-09-09T07:53:08.069Z</time>
      </trkpt>
      <trkpt lat="37.388353333333335" lon="-5.982375">
        <ele>12.316866085995272</ele>
        <time>2024-09-09T07:54:46.069Z</time>
      </trkpt>
      <trkpt lat="37.388353333333335" lon="-5.982455000000001">
        <ele>11.317245080944957</ele>
        <time>2024-09-09T07:54:52.072Z</time>
      </trkpt>
      <trkpt lat="37.38843" lon="-5.98255">
        <ele>10.217955963821915</ele>
        <time>2024-09-09T07:55:02.069Z</time>
      </trkpt>
      <trkpt lat="37.38844666666667" lon="-5.982638333333334">
        <ele>12.518481835841627</ele>
        <time>2024-09-09T07:55:13.078Z</time>
      </trkpt>
      <trkpt lat="37.38856333333333" lon="-5.982703333333334">
        <ele>19.319090182925216</ele>
        <time>2024-09-09T07:55:32.040Z</time>
      </trkpt>
      <trkpt lat="37.38856333333333" lon="-5.98284">
        <ele>21.719778387922005</ele>
        <time>2024-09-09T07:55:45.051Z</time>
      </trkpt>
      <trkpt lat="37.388686666666665" lon="-5.983118333333334">
        <ele>12.321583360646947</ele>
        <time>2024-09-09T07:56:14.068Z</time>
      </trkpt>
      <trkpt lat="37.38867833333334" lon="-5.9831900000000005">
        <ele>15.121975004697703</ele>
        <time>2024-09-09T07:56:56.058Z</time>
      </trkpt>
      <trkpt lat="37.388511666666666" lon="-5.983336666666666">
        <ele>14.12241625165614</ele>
        <time>2024-09-09T07:57:24.076Z</time>
      </trkpt>
      <trkpt lat="37.38849833333334" lon="-5.983628333333333">
        <ele>15.623954551259814</ele>
        <time>2024-09-09T07:57:50.042Z</time>
      </trkpt>
      <trkpt lat="37.38834833333333" lon="-5.9837816666666654">
        <ele>21.124560627460554</ele>
        <time>2024-09-09T07:58:09.072Z</time>
      </trkpt>
      <trkpt lat="37.38782333333334" lon="-5.984765">
        <ele>13.328930070088774</ele>
        <time>2024-09-09T07:59:47.072Z</time>
      </trkpt>
      <trkpt lat="37.38760166666667" lon="-5.984998333333334">
        <ele>18.529713372709843</ele>
        <time>2024-09-09T08:00:15.068Z</time>
      </trkpt>
      <trkpt lat="37.38748833333333" lon="-5.985043333333334">
        <ele>26.729851020883544</ele>
        <time>2024-09-09T08:00:24.073Z</time>
      </trkpt>
      <trkpt lat="37.38747" lon="-5.985146666666666">
        <ele>29.13033869781767</ele>
        <time>2024-09-09T08:00:31.058Z</time>
      </trkpt>
      <trkpt lat="37.38739333333333" lon="-5.9851849999999995">
        <ele>29.830462443609797</ele>
        <time>2024-09-09T08:00:41.071Z</time>
      </trkpt>
      <trkpt lat="37.38737833333333" lon="-5.985151666666667">
        <ele>28.03033867912867</ele>
        <time>2024-09-09T08:00:43.066Z</time>
      </trkpt>
      <trkpt lat="37.387305" lon="-5.9851833333333335">
        <ele>27.430271262523497</ele>
        <time>2024-09-09T08:00:49.072Z</time>
      </trkpt>
      <trkpt lat="37.387191666666666" lon="-5.985145">
        <ele>22.229861829910767</ele>
        <time>2024-09-09T08:01:00.073Z</time>
      </trkpt>
      <trkpt lat="37.38699833333333" lon="-5.985223333333333">
        <ele>17.029897349410525</ele>
        <time>2024-09-09T08:01:19.072Z</time>
      </trkpt>
      <trkpt lat="37.38636333333333" lon="-5.985581666666667">
        <ele>23.030625556407934</ele>
        <time>2024-09-09T08:02:28.081Z</time>
      </trkpt>
      <trkpt lat="37.38635" lon="-5.985641666666667">
        <ele>25.53087553861225</ele>
        <time>2024-09-09T08:02:32.069Z</time>
      </trkpt>
      <trkpt lat="37.38619333333334" lon="-5.985681666666666">
        <ele>24.630869847526768</ele>
        <time>2024-09-09T08:02:46.071Z</time>
      </trkpt>
      <trkpt lat="37.38612833333333" lon="-5.9857716666666665">
        <ele>26.731186793533865</ele>
        <time>2024-09-09T08:02:54.071Z</time>
      </trkpt>
      <trkpt lat="37.38604" lon="-5.985755">
        <ele>22.030980587267855</ele>
        <time>2024-09-09T08:03:02.069Z</time>
      </trkpt>
      <trkpt lat="37.385965000000006" lon="-5.98584">
        <ele>23.53126825400183</ele>
        <time>2024-09-09T08:03:10.075Z</time>
      </trkpt>
      <trkpt lat="37.38579333333333" lon="-5.985893333333333">
        <ele>23.031288083374072</ele>
        <time>2024-09-09T08:03:34.076Z</time>
      </trkpt>
      <trkpt lat="37.385753333333334" lon="-5.986040000000001">
        <ele>33.331926446376045</ele>
        <time>2024-09-09T08:04:01.068Z</time>
      </trkpt>
      <trkpt lat="37.38567" lon="-5.986011666666667">
        <ele>27.931714816734825</ele>
        <time>2024-09-09T08:04:12.076Z</time>
      </trkpt>
      <trkpt lat="37.38562" lon="-5.985879999999999">
        <ele>20.030863337443897</ele>
        <time>2024-09-09T08:04:38.068Z</time>
      </trkpt>
      <trkpt lat="37.385421666666666" lon="-5.986073333333334">
        <ele>19.131496613421525</ele>
        <time>2024-09-09T08:05:13.076Z</time>
      </trkpt>
      <trkpt lat="37.38527333333333" lon="-5.986108333333334">
        <ele>20.731427581188733</ele>
        <time>2024-09-09T08:05:26.065Z</time>
      </trkpt>
      <trkpt lat="37.38385666666667" lon="-5.986846666666666">
        <ele>7.732739553132461</ele>
        <time>2024-09-09T08:07:50.082Z</time>
      </trkpt>
      <trkpt lat="37.383855000000004" lon="-5.986756666666667">
        <ele>4.732329497522386</ele>
        <time>2024-09-09T08:08:19.117Z</time>
      </trkpt>
      <trkpt lat="37.38382166666667" lon="-5.986768333333333">
        <ele>3.9322582343219423</ele>
        <time>2024-09-09T08:08:23.069Z</time>
      </trkpt>
      <trkpt lat="37.38379" lon="-5.986816666666666">
        <ele>5.532449899872248</ele>
        <time>2024-09-09T08:08:29.098Z</time>
      </trkpt>
      <trkpt lat="37.38267333333333" lon="-5.987358333333333">
        <ele>11.933285959077622</ele>
        <time>2024-09-09T08:10:23.049Z</time>
      </trkpt>
      <trkpt lat="37.382605" lon="-5.987478333333333">
        <ele>24.13380272333262</ele>
        <time>2024-09-09T08:10:53.059Z</time>
      </trkpt>
      <trkpt lat="37.38264" lon="-5.987433333333333">
        <ele>13.333710996376752</ele>
        <time>2024-09-09T08:11:36.063Z</time>
      </trkpt>
      <trkpt lat="37.381625" lon="-5.987948333333333">
        <ele>16.934521741166854</ele>
        <time>2024-09-09T08:13:23.095Z</time>
      </trkpt>
      <trkpt lat="37.38156" lon="-5.987991666666666">
        <ele>14.434597924994094</ele>
        <time>2024-09-09T08:13:30.082Z</time>
      </trkpt>
      <trkpt lat="37.38154833333333" lon="-5.988088333333334">
        <ele>14.13511349937091</ele>
        <time>2024-09-09T08:13:40.101Z</time>
      </trkpt>
      <trkpt lat="37.38155833333334" lon="-5.987971666666666">
        <ele>13.134560925965019</ele>
        <time>2024-09-09T08:14:00.053Z</time>
      </trkpt>
      <trkpt lat="37.381321666666665" lon="-5.987871666666666">
        <ele>13.83353525646696</ele>
        <time>2024-09-09T08:14:26.086Z</time>
      </trkpt>
      <trkpt lat="37.38111333333333" lon="-5.987658333333333">
        <ele>16.33199227008196</ele>
        <time>2024-09-09T08:14:46.092Z</time>
      </trkpt>
      <trkpt lat="37.38108166666667" lon="-5.98753">
        <ele>13.531300966606764</ele>
        <time>2024-09-09T08:14:56.099Z</time>
      </trkpt>
      <trkpt lat="37.381103333333336" lon="-5.987421666666667">
        <ele>11.530686913848804</ele>
        <time>2024-09-09T08:15:04.085Z</time>
      </trkpt>
      <trkpt lat="37.381045" lon="-5.9872966666666665">
        <ele>10.5298656969319</ele>
        <time>2024-09-09T08:15:17.094Z</time>
      </trkpt>
      <trkpt lat="37.38083166666667" lon="-5.987268333333333">
        <ele>13.229251523317316</ele>
        <time>2024-09-09T08:15:37.101Z</time>
      </trkpt>
      <trkpt lat="37.380689999999994" lon="-5.987355000000001">
        <ele>13.729460539268018</ele>
        <time>2024-09-09T08:16:10.095Z</time>
      </trkpt>
      <trkpt lat="37.380700000000004" lon="-5.9874849999999995">
        <ele>14.930094862237048</ele>
        <time>2024-09-09T08:16:20.079Z</time>
      </trkpt>
      <trkpt lat="37.380658333333336" lon="-5.987525">
        <ele>14.730347973237194</ele>
        <time>2024-09-09T08:16:25.076Z</time>
      </trkpt>
      <trkpt lat="37.380375" lon="-5.987281666666666">
        <ele>13.32852068701861</ele>
        <time>2024-09-09T08:17:10.092Z</time>
      </trkpt>
      <trkpt lat="37.38034666666667" lon="-5.987343333333333">
        <ele>11.028709857031444</ele>
        <time>2024-09-09T08:17:18.055Z</time>
      </trkpt>
      <trkpt lat="37.380289999999995" lon="-5.987349999999999">
        <ele>8.728668620410396</ele>
        <time>2024-09-09T08:17:23.055Z</time>
      </trkpt>
      <trkpt lat="37.38026833333333" lon="-5.987303333333333">
        <ele>9.328387892977446</ele>
        <time>2024-09-09T08:17:32.058Z</time>
      </trkpt>
      <trkpt lat="37.380248333333334" lon="-5.9873666666666665">
        <ele>12.02863605878624</ele>
        <time>2024-09-09T08:17:51.096Z</time>
      </trkpt>
      <trkpt lat="37.38028166666666" lon="-5.987398333333334">
        <ele>11.72867262593207</ele>
        <time>2024-09-09T08:18:46.086Z</time>
      </trkpt>
      <trkpt lat="37.38031" lon="-5.987363333333334">
        <ele>5.728778786679406</ele>
        <time>2024-09-09T08:18:51.059Z</time>
      </trkpt>
      <trkpt lat="37.380265" lon="-5.987251666666666">
        <ele>16.6280980811948</ele>
        <time>2024-09-09T08:21:35.089Z</time>
      </trkpt>
      <trkpt lat="37.380205000000004" lon="-5.9873400000000006">
        <ele>13.428455423612377</ele>
        <time>2024-09-09T08:22:37.069Z</time>
      </trkpt>
      <trkpt lat="37.380296666666666" lon="-5.987338333333334">
        <ele>16.12844307853876</ele>
        <time>2024-09-09T08:25:11.089Z</time>
      </trkpt>
      <trkpt lat="37.38021333333334" lon="-5.987231666666666">
        <ele>16.627901882907977</ele>
        <time>2024-09-09T08:29:30.101Z</time>
      </trkpt>
      <trkpt lat="37.37978" lon="-5.987583333333333">
        <ele>16.527864845131347</ele>
        <time>2024-09-09T08:35:32.163Z</time>
      </trkpt>
      <trkpt lat="37.379758333333335" lon="-5.987648333333334">
        <ele>51.72896112441788</ele>
        <time>2024-09-09T08:35:33.664Z</time>
      </trkpt>
      <trkpt lat="37.38006" lon="-5.987419999999999">
        <ele>10.928612384835311</ele>
        <time>2024-09-09T08:35:44.092Z</time>
      </trkpt>
      <trkpt lat="37.37980833333334" lon="-5.987518333333332">
        <ele>10.928653537484308</ele>
        <time>2024-09-09T08:36:17.063Z</time>
      </trkpt>
      <trkpt lat="37.37983166666667" lon="-5.98753">
        <ele>11.860151151334106</ele>
        <time>2024-09-09T08:36:21.923Z</time>
      </trkpt>
      <trkpt lat="37.378915852985116" lon="-5.988161030360999">
        <ele>10.675124073780555</ele>
        <time>2024-09-09T08:37:58.738Z</time>
      </trkpt>
      <trkpt lat="37.37904435521595" lon="-5.988951639437516">
        <ele>11.583190045878025</ele>
        <time>2024-09-09T08:38:58.197Z</time>
      </trkpt>
      <trkpt lat="37.3788463216535" lon="-5.989098234951882">
        <ele>11.510379584226795</ele>
        <time>2024-09-09T08:39:19.500Z</time>
      </trkpt>
      <trkpt lat="37.377902742790496" lon="-5.988599810204221">
        <ele>21.199270646577133</ele>
        <time>2024-09-09T08:40:54.386Z</time>
      </trkpt>
      <trkpt lat="37.37779059217445" lon="-5.988182463188991">
        <ele>21.730002351944314</ele>
        <time>2024-09-09T08:41:26.848Z</time>
      </trkpt>
      <trkpt lat="37.37790691810703" lon="-5.98782015662988">
        <ele>19.61649357594075</ele>
        <time>2024-09-09T08:41:55.640Z</time>
      </trkpt>
      <trkpt lat="37.37797962172279" lon="-5.987150438445639">
        <ele>18.815420717909483</ele>
        <time>2024-09-09T08:42:45.445Z</time>
      </trkpt>
      <trkpt lat="37.37779931662598" lon="-5.986590510127087">
        <ele>15.132157630119691</ele>
        <time>2024-09-09T08:43:29.959Z</time>
      </trkpt>
      <trkpt lat="37.377557939768565" lon="-5.986316035461016">
        <ele>14.762922730389942</ele>
        <time>2024-09-09T08:44:00.124Z</time>
      </trkpt>
      <trkpt lat="37.37739799082112" lon="-5.986224543905394">
        <ele>15.945655099897031</ele>
        <time>2024-09-09T08:44:16.415Z</time>
      </trkpt>
      <trkpt lat="37.377525950017514" lon="-5.9858268183773475">
        <ele>16.709714386655754</ele>
        <time>2024-09-09T08:44:48.031Z</time>
      </trkpt>
      <trkpt lat="37.377261306915685" lon="-5.986097633381576">
        <ele>16.57554675717868</ele>
        <time>2024-09-09T08:45:19.659Z</time>
      </trkpt>
      <trkpt lat="37.37698212197144" lon="-5.985987843515147">
        <ele>16.39200341852248</ele>
        <time>2024-09-09T08:45:46.780Z</time>
      </trkpt>
      <trkpt lat="37.37653135242043" lon="-5.986009801488564">
        <ele>14.344789440540893</ele>
        <time>2024-09-09T08:46:28.585Z</time>
      </trkpt>
      <trkpt lat="37.37640339153833" lon="-5.986130570341345">
        <ele>12.696520762309039</ele>
        <time>2024-09-09T08:46:43.416Z</time>
      </trkpt>
      <trkpt lat="37.37660987376317" lon="-5.986540452509189">
        <ele>12.45542111459006</ele>
        <time>2024-09-09T08:47:19.175Z</time>
      </trkpt>
      <trkpt lat="37.376947223780704" lon="-5.986749053254982">
        <ele>14.185883093485497</ele>
        <time>2024-09-09T08:47:54.027Z</time>
      </trkpt>
      <trkpt lat="37.37706355102077" lon="-5.986727095282276">
        <ele>14.640389138680174</ele>
        <time>2024-09-09T08:48:04.933Z</time>
      </trkpt>
      <trkpt lat="37.37723222519895" lon="-5.986895439743819">
        <ele>12.199703077786605</ele>
        <time>2024-09-09T08:48:24.894Z</time>
      </trkpt>
      <trkpt lat="37.37718860260301" lon="-5.987063784205361">
        <ele>11.139250297728658</ele>
        <time>2024-09-09T08:48:37.941Z</time>
      </trkpt>
      <trkpt lat="37.37703446922799" lon="-5.987140637111992">
        <ele>11.568513945071643</ele>
        <time>2024-09-09T08:48:53.313Z</time>
      </trkpt>
      <trkpt lat="37.37688033553559" lon="-5.987374855493869">
        <ele>11.202692806302377</ele>
        <time>2024-09-09T08:49:15.720Z</time>
      </trkpt>
      <trkpt lat="37.37676982439132" lon="-5.987638351172848">
        <ele>12.63117862131952</ele>
        <time>2024-09-09T08:49:37.673Z</time>
      </trkpt>
      <trkpt lat="37.37659815955199" lon="-5.9877780184048675">
        <ele>13.993259892706659</ele>
        <time>2024-09-09T08:49:56.627Z</time>
      </trkpt>
      <trkpt lat="37.37614106890486" lon="-5.987539832472947">
        <ele>14.796964794601784</ele>
        <time>2024-09-09T08:50:42.500Z</time>
      </trkpt>
      <trkpt lat="37.37589561463369" lon="-5.988212496196809">
        <ele>21.818448744807704</ele>
        <time>2024-09-09T08:51:37.040Z</time>
      </trkpt>
      <trkpt lat="37.37384833333333" lon="-5.986946666666667">
        <ele>13.714179613051833</ele>
        <time>2024-09-09T09:33:22.069Z</time>
      </trkpt>
      <trkpt lat="37.373889999999996" lon="-5.98697">
        <ele>12.814179613051827</ele>
        <time>2024-09-09T09:33:25.059Z</time>
      </trkpt>
      <trkpt lat="37.37383166666667" lon="-5.987015">
        <ele>14.614390850563105</ele>
        <time>2024-09-09T09:33:30.065Z</time>
      </trkpt>
      <trkpt lat="37.37349166666667" lon="-5.986841666666667">
        <ele>12.412877434563427</ele>
        <time>2024-09-09T09:34:14.069Z</time>
      </trkpt>
      <trkpt lat="37.373511666666666" lon="-5.986793333333333">
        <ele>13.212562477350353</ele>
        <time>2024-09-09T09:34:22.059Z</time>
      </trkpt>
      <trkpt lat="37.37348166666666" lon="-5.986991666666667">
        <ele>13.813532011390137</ele>
        <time>2024-09-09T09:34:51.073Z</time>
      </trkpt>
      <trkpt lat="37.373394999999995" lon="-5.987165000000001">
        <ele>12.814336792403019</ele>
        <time>2024-09-09T09:35:09.059Z</time>
      </trkpt>
      <trkpt lat="37.37302666666667" lon="-5.987288333333334">
        <ele>13.514312303395101</ele>
        <time>2024-09-09T09:36:15.092Z</time>
      </trkpt>
      <trkpt lat="37.372978333333336" lon="-5.987256666666667">
        <ele>11.814093540824068</ele>
        <time>2024-09-09T09:36:20.086Z</time>
      </trkpt>
      <trkpt lat="37.372904999999996" lon="-5.987403333333333">
        <ele>11.61472145222021</ele>
        <time>2024-09-09T09:36:37.063Z</time>
      </trkpt>
      <trkpt lat="37.37276333333333" lon="-5.987293333333334">
        <ele>12.913945557081597</ele>
        <time>2024-09-09T09:36:55.094Z</time>
      </trkpt>
      <trkpt lat="37.37272666666667" lon="-5.987169999999999">
        <ele>13.213198604797903</ele>
        <time>2024-09-09T09:37:04.078Z</time>
      </trkpt>
      <trkpt lat="37.37252333333333" lon="-5.987026666666666">
        <ele>10.112024831452004</ele>
        <time>2024-09-09T09:37:27.082Z</time>
      </trkpt>
      <trkpt lat="37.37242333333334" lon="-5.987026666666666">
        <ele>7.311764611082118</ele>
        <time>2024-09-09T09:37:37.091Z</time>
      </trkpt>
      <trkpt lat="37.372211666666665" lon="-5.9868716666666675">
        <ele>10.010524480304895</ele>
        <time>2024-09-09T09:37:58.088Z</time>
      </trkpt>
      <trkpt lat="37.37191" lon="-5.986761666666666">
        <ele>18.50930913108118</ele>
        <time>2024-09-09T09:38:46.065Z</time>
      </trkpt>
      <trkpt lat="37.37186833333333" lon="-5.986675000000001">
        <ele>18.408776415595973</ele>
        <time>2024-09-09T09:38:56.052Z</time>
      </trkpt>
      <trkpt lat="37.37179833333333" lon="-5.986694999999999">
        <ele>19.608720261726496</ele>
        <time>2024-09-09T09:39:04.055Z</time>
      </trkpt>
      <trkpt lat="37.371793333333336" lon="-5.986746666666666">
        <ele>18.50892393066831</ele>
        <time>2024-09-09T09:39:20.045Z</time>
      </trkpt>
      <trkpt lat="37.37161666666667" lon="-5.986521666666666">
        <ele>13.607517267309056</ele>
        <time>2024-09-09T09:39:49.081Z</time>
      </trkpt>
      <trkpt lat="37.37155333333333" lon="-5.986345">
        <ele>12.406320299072163</ele>
        <time>2024-09-09T09:40:06.062Z</time>
      </trkpt>
      <trkpt lat="37.37166" lon="-5.986228333333334">
        <ele>14.305922695731063</ele>
        <time>2024-09-09T09:40:23.088Z</time>
      </trkpt>
      <trkpt lat="37.37178166666667" lon="-5.985995000000001">
        <ele>14.904875773640903</ele>
        <time>2024-09-09T09:40:46.095Z</time>
      </trkpt>
      <trkpt lat="37.37193833333333" lon="-5.985971666666668">
        <ele>13.204988247567329</ele>
        <time>2024-09-09T09:41:00.098Z</time>
      </trkpt>
      <trkpt lat="37.37192" lon="-5.985756666666667">
        <ele>12.103855513766106</ele>
        <time>2024-09-09T09:41:14.051Z</time>
      </trkpt>
      <trkpt lat="37.37194833333333" lon="-5.985671666666667">
        <ele>14.403441585499536</ele>
        <time>2024-09-09T09:41:27.062Z</time>
      </trkpt>
      <trkpt lat="37.37193333333333" lon="-5.985625000000001">
        <ele>15.70314138371642</ele>
        <time>2024-09-09T09:41:31.061Z</time>
      </trkpt>
      <trkpt lat="37.371795" lon="-5.985641666666667">
        <ele>12.702920092164014</ele>
        <time>2024-09-09T09:41:46.069Z</time>
      </trkpt>
      <trkpt lat="37.371775" lon="-5.985423333333333">
        <ele>11.101742505302958</ele>
        <time>2024-09-09T09:42:01.066Z</time>
      </trkpt>
      <trkpt lat="37.37169333333333" lon="-5.985248333333334">
        <ele>11.300553060317121</ele>
        <time>2024-09-09T09:42:18.109Z</time>
      </trkpt>
      <trkpt lat="37.371608333333334" lon="-5.985308333333334">
        <ele>9.000710684239635</ele>
        <time>2024-09-09T09:42:28.108Z</time>
      </trkpt>
      <trkpt lat="37.370848333333335" lon="-5.985289999999999">
        <ele>4.099159643859636</ele>
        <time>2024-09-09T09:43:47.082Z</time>
      </trkpt>
      <trkpt lat="37.37077166666666" lon="-5.985218333333334">
        <ele>2.8986402955552535</ele>
        <time>2024-09-09T09:44:00.105Z</time>
      </trkpt>
      <trkpt lat="37.37060666666666" lon="-5.985168333333333">
        <ele>5.498021836225298</ele>
        <time>2024-09-09T09:44:18.101Z</time>
      </trkpt>
      <trkpt lat="37.37045166666667" lon="-5.985246666666666">
        <ele>9.598111247197295</ele>
        <time>2024-09-09T09:44:37.109Z</time>
      </trkpt>
      <trkpt lat="37.369725" lon="-5.985286666666667">
        <ele>6.696974073625107</ele>
        <time>2024-09-09T09:45:55.053Z</time>
      </trkpt>
      <trkpt lat="37.36969666666666" lon="-5.985180000000001">
        <ele>9.196414650505304</ele>
        <time>2024-09-09T09:45:59.082Z</time>
      </trkpt>
      <trkpt lat="37.36961833333333" lon="-5.985105000000001">
        <ele>9.995794896585153</ele>
        <time>2024-09-09T09:46:07.096Z</time>
      </trkpt>
      <trkpt lat="37.36928833333333" lon="-5.985408333333334">
        <ele>8.096761370727073</ele>
        <time>2024-09-09T09:46:50.095Z</time>
      </trkpt>
      <trkpt lat="37.368935" lon="-5.985431666666667">
        <ele>11.496192033213603</ele>
        <time>2024-09-09T09:47:23.111Z</time>
      </trkpt>
      <trkpt lat="37.368233333333336" lon="-5.985298333333333">
        <ele>9.094179680783043</ele>
        <time>2024-09-09T09:48:29.061Z</time>
      </trkpt>
      <trkpt lat="37.368026666666665" lon="-5.985181666666667">
        <ele>12.793119465034373</ele>
        <time>2024-09-09T09:48:47.072Z</time>
      </trkpt>
      <trkpt lat="37.36790166666666" lon="-5.985203333333334">
        <ele>15.59298839649665</ele>
        <time>2024-09-09T09:48:59.065Z</time>
      </trkpt>
      <trkpt lat="37.36758" lon="-5.985096666666667">
        <ele>9.89179555672716</ele>
        <time>2024-09-09T09:49:30.098Z</time>
      </trkpt>
      <trkpt lat="37.364565" lon="-5.98335">
        <ele>7.376265953944497</ele>
        <time>2024-09-09T09:54:36.071Z</time>
      </trkpt>
      <trkpt lat="37.36420833333333" lon="-5.9831883333333336">
        <ele>6.574713772335286</ele>
        <time>2024-09-09T09:55:22.078Z</time>
      </trkpt>
      <trkpt lat="37.36414666666667" lon="-5.983205">
        <ele>8.274676976939695</ele>
        <time>2024-09-09T09:55:45.101Z</time>
      </trkpt>
      <trkpt lat="37.36402333333333" lon="-5.983123333333333">
        <ele>7.874007321818425</ele>
        <time>2024-09-09T09:55:59.072Z</time>
      </trkpt>
      <trkpt lat="37.364648333333335" lon="-5.981456666666666">
        <ele>21.865941923337083</ele>
        <time>2024-09-09T09:58:12.052Z</time>
      </trkpt>
      <trkpt lat="37.364615" lon="-5.981428333333334">
        <ele>21.86575489207381</ele>
        <time>2024-09-09T09:58:16.751Z</time>
      </trkpt>
      <trkpt lat="37.36479505675628" lon="-5.980965168667467">
        <ele>9.349202443194411</ele>
        <time>2024-09-09T09:59:04.727Z</time>
      </trkpt>
      <trkpt lat="37.36490837729646" lon="-5.980999176569355">
        <ele>9.648961010586994</ele>
        <time>2024-09-09T09:59:19.640Z</time>
      </trkpt>
      <trkpt lat="37.365275" lon="-5.979756666666667">
        <ele>11.11231448535447</ele>
        <time>2024-09-09T10:01:35.704Z</time>
      </trkpt>
      <trkpt lat="37.365455" lon="-5.979861666666666">
        <ele>9.258631773858468</ele>
        <time>2024-09-09T10:24:44.109Z</time>
      </trkpt>
      <trkpt lat="37.36550833333333" lon="-5.979939999999999">
        <ele>9.859172752970899</ele>
        <time>2024-09-09T10:24:51.095Z</time>
      </trkpt>
      <trkpt lat="37.366976666666666" lon="-5.980728333333333">
        <ele>12.966391876206792</ele>
        <time>2024-09-09T10:27:49.055Z</time>
      </trkpt>
      <trkpt lat="37.36716666666667" lon="-5.980916666666667">
        <ele>13.567803878608593</ele>
        <time>2024-09-09T10:28:19.071Z</time>
      </trkpt>
      <trkpt lat="37.367306666666664" lon="-5.980933333333333">
        <ele>10.36818031952653</ele>
        <time>2024-09-09T10:28:35.088Z</time>
      </trkpt>
      <trkpt lat="37.36851333333333" lon="-5.981671666666667">
        <ele>7.7745895294486616</ele>
        <time>2024-09-09T10:31:06.096Z</time>
      </trkpt>
      <trkpt lat="37.36855166666667" lon="-5.981781666666666">
        <ele>6.4750769776623684</ele>
        <time>2024-09-09T10:31:47.059Z</time>
      </trkpt>
      <trkpt lat="37.368521666666666" lon="-5.981760000000001">
        <ele>8.875159373364603</ele>
        <time>2024-09-09T10:31:55.095Z</time>
      </trkpt>
      <trkpt lat="37.36835333333333" lon="-5.982796666666667">
        <ele>7.780557092911408</ele>
        <time>2024-09-09T10:35:04.108Z</time>
      </trkpt>
      <trkpt lat="37.368579999999994" lon="-5.982876666666668">
        <ele>10.88137925005774</ele>
        <time>2024-09-09T10:36:16.065Z</time>
      </trkpt>
      <trkpt lat="37.36861833333333" lon="-5.98294">
        <ele>10.181770308372656</ele>
        <time>2024-09-09T10:36:22.084Z</time>
      </trkpt>
      <trkpt lat="37.368555" lon="-5.983625000000001">
        <ele>-0.11455696328873444</ele>
        <time>2024-09-09T10:37:14.098Z</time>
      </trkpt>
      <trkpt lat="37.36849666666667" lon="-5.983863333333333">
        <ele>-0.21331142986647222</ele>
        <time>2024-09-09T10:37:38.075Z</time>
      </trkpt>
      <trkpt lat="37.368518333333334" lon="-5.983723333333334">
        <ele>2.6860340054474037</ele>
        <time>2024-09-09T10:37:52.095Z</time>
      </trkpt>
      <trkpt lat="37.36864166666667" lon="-5.9836133333333335">
        <ele>4.185637642283176</ele>
        <time>2024-09-09T10:38:09.086Z</time>
      </trkpt>
      <trkpt lat="37.36916" lon="-5.983718333333333">
        <ele>8.287147168527419</ele>
        <time>2024-09-09T10:38:56.107Z</time>
      </trkpt>
      <trkpt lat="37.36930666666667" lon="-5.983718333333333">
        <ele>7.587456689688835</ele>
        <time>2024-09-09T10:39:12.095Z</time>
      </trkpt>
      <trkpt lat="37.369481666666665" lon="-5.983623333333332">
        <ele>8.387292572610782</ele>
        <time>2024-09-09T10:39:27.096Z</time>
      </trkpt>
      <trkpt lat="37.36969833333333" lon="-5.983753333333334">
        <ele>12.98838104294667</ele>
        <time>2024-09-09T10:39:41.101Z</time>
      </trkpt>
      <trkpt lat="37.36972" lon="-5.9838033333333325">
        <ele>15.988742658134278</ele>
        <time>2024-09-09T10:39:50.091Z</time>
      </trkpt>
      <trkpt lat="37.369865" lon="-5.983666666666666">
        <ele>17.38828406930721</ele>
        <time>2024-09-09T10:40:17.088Z</time>
      </trkpt>
      <trkpt lat="37.37049833333333" lon="-5.983675">
        <ele>13.589525498987044</ele>
        <time>2024-09-09T10:41:19.099Z</time>
      </trkpt>
      <trkpt lat="37.37057" lon="-5.983689999999999">
        <ele>12.589734136481077</ele>
        <time>2024-09-09T10:41:23.086Z</time>
      </trkpt>
      <trkpt lat="37.37063833333333" lon="-5.9838666666666676">
        <ele>10.89078457564407</ele>
        <time>2024-09-09T10:41:31.085Z</time>
      </trkpt>
      <trkpt lat="37.37060333333333" lon="-5.984356666666668">
        <ele>12.893438213785352</ele>
        <time>2024-09-09T10:42:05.095Z</time>
      </trkpt>
      <trkpt lat="37.37077333333333" lon="-5.984478333333334">
        <ele>12.394467906420516</ele>
        <time>2024-09-09T10:42:19.094Z</time>
      </trkpt>
      <trkpt lat="37.37191166666666" lon="-5.984451666666667">
        <ele>15.896552770260627</ele>
        <time>2024-09-09T10:44:05.095Z</time>
      </trkpt>
      <trkpt lat="37.371945" lon="-5.984543333333333">
        <ele>20.197116969838333</ele>
        <time>2024-09-09T10:44:12.088Z</time>
      </trkpt>
      <trkpt lat="37.371898333333334" lon="-5.984596666666666">
        <ele>20.897285366321967</ele>
        <time>2024-09-09T10:44:20.075Z</time>
      </trkpt>
      <trkpt lat="37.371875" lon="-5.9847183333333325">
        <ele>19.497916720436983</ele>
        <time>2024-09-09T10:44:31.078Z</time>
      </trkpt>
      <trkpt lat="37.371898333333334" lon="-5.985340000000001">
        <ele>11.501236591317117</ele>
        <time>2024-09-09T10:45:16.109Z</time>
      </trkpt>
      <trkpt lat="37.37181833333333" lon="-5.985546666666666">
        <ele>9.802339905622638</ele>
        <time>2024-09-09T10:45:28.095Z</time>
      </trkpt>
      <trkpt lat="37.371923333333335" lon="-5.985641666666667">
        <ele>10.303119683177371</ele>
        <time>2024-09-09T10:45:41.107Z</time>
      </trkpt>
      <trkpt lat="37.37193333333333" lon="-5.985906666666667">
        <ele>11.804612865502179</ele>
        <time>2024-09-09T10:46:01.055Z</time>
      </trkpt>
      <trkpt lat="37.37209666666667" lon="-5.98612">
        <ele>14.30611123720736</ele>
        <time>2024-09-09T10:46:24.091Z</time>
      </trkpt>
      <trkpt lat="37.37215666666667" lon="-5.986391666666666">
        <ele>10.707677426449223</ele>
        <time>2024-09-09T10:46:46.099Z</time>
      </trkpt>
      <trkpt lat="37.37190666666667" lon="-5.986963333333334">
        <ele>5.210382086404785</ele>
        <time>2024-09-09T10:47:38.073Z</time>
      </trkpt>
      <trkpt lat="37.37186333333333" lon="-5.986941666666667">
        <ele>11.01021272872304</ele>
        <time>2024-09-09T10:47:51.072Z</time>
      </trkpt>
      <trkpt lat="37.371896666666665" lon="-5.987028333333335">
        <ele>13.410680676516442</ele>
        <time>2024-09-09T10:48:00.101Z</time>
      </trkpt>
      <trkpt lat="37.371719999999996" lon="-5.987438333333333">
        <ele>5.212566859540168</ele>
        <time>2024-09-09T10:48:40.112Z</time>
      </trkpt>
      <trkpt lat="37.371605" lon="-5.9879">
        <ele>7.014939886020542</ele>
        <time>2024-09-09T10:49:21.095Z</time>
      </trkpt>
      <trkpt lat="37.37144166666667" lon="-5.9883066666666664">
        <ele>5.91683891574278</ele>
        <time>2024-09-09T10:49:53.108Z</time>
      </trkpt>
      <trkpt lat="37.37150833333333" lon="-5.988383333333333">
        <ele>7.917412471355803</ele>
        <time>2024-09-09T10:50:00.072Z</time>
      </trkpt>
      <trkpt lat="37.37141999999999" lon="-5.988698333333334">
        <ele>12.418969694394981</ele>
        <time>2024-09-09T10:50:28.111Z</time>
      </trkpt>
      <trkpt lat="37.371520000000004" lon="-5.988773333333334">
        <ele>10.719580693237596</ele>
        <time>2024-09-09T10:50:43.105Z</time>
      </trkpt>
      <trkpt lat="37.37136666666667" lon="-5.988673333333333">
        <ele>11.918816133607585</ele>
        <time>2024-09-09T10:51:12.078Z</time>
      </trkpt>
      <trkpt lat="37.37117" lon="-5.988695">
        <ele>13.918522752237742</ele>
        <time>2024-09-09T10:51:30.098Z</time>
      </trkpt>
      <trkpt lat="37.37108166666667" lon="-5.989004999999999">
        <ele>11.519965823500044</ele>
        <time>2024-09-09T10:52:10.082Z</time>
      </trkpt>
      <trkpt lat="37.371091666666665" lon="-5.989081666666667">
        <ele>9.820403104138101</ele>
        <time>2024-09-09T10:52:15.065Z</time>
      </trkpt>
      <trkpt lat="37.37114833333333" lon="-5.989141666666666">
        <ele>14.020860503192829</ele>
        <time>2024-09-09T10:52:44.051Z</time>
      </trkpt>
      <trkpt lat="37.371136666666665" lon="-5.989225000000001">
        <ele>12.521348621255079</ele>
        <time>2024-09-09T10:52:52.059Z</time>
      </trkpt>
      <trkpt lat="37.371045" lon="-5.989398333333332">
        <ele>10.922095713656716</ele>
        <time>2024-09-09T10:53:13.112Z</time>
      </trkpt>
      <trkpt lat="37.37094833333333" lon="-5.989885">
        <ele>0.8245423823668432</ele>
        <time>2024-09-09T10:53:52.108Z</time>
      </trkpt>
      <trkpt lat="37.370891666666665" lon="-5.989915">
        <ele>9.124684044588278</ele>
        <time>2024-09-09T10:54:05.062Z</time>
      </trkpt>
      <trkpt lat="37.37097833333333" lon="-5.989990000000001">
        <ele>9.625274963795057</ele>
        <time>2024-09-09T10:55:00.069Z</time>
      </trkpt>
      <trkpt lat="37.370830886633044" lon="-5.990407369746009">
        <ele>10.660128084478174</ele>
        <time>2024-09-09T10:55:38.985Z</time>
      </trkpt>
      <trkpt lat="37.37084242321808" lon="-5.990761571687727">
        <ele>8.43672175572775</ele>
        <time>2024-09-09T10:56:05.065Z</time>
      </trkpt>
      <trkpt lat="37.371023372680185" lon="-5.991035798091644">
        <ele>6.728721308353045</ele>
        <time>2024-09-09T10:56:31.287Z</time>
      </trkpt>
      <trkpt lat="37.371076440819195" lon="-5.9915264548806135">
        <ele>4.688649323277118</ele>
        <time>2024-09-09T10:57:07.716Z</time>
      </trkpt>
      <trkpt lat="37.37363729350038" lon="-5.991877079440513">
        <ele>3.487251985854879</ele>
        <time>2024-09-09T11:01:06.173Z</time>
      </trkpt>
      <trkpt lat="37.37518333333333" lon="-5.992201666666666">
        <ele>12.945445443032021</ele>
        <time>2024-09-09T11:05:29.095Z</time>
      </trkpt>
      <trkpt lat="37.3753" lon="-5.992193333333334">
        <ele>10.745653308705784</ele>
        <time>2024-09-09T11:05:40.092Z</time>
      </trkpt>
      <trkpt lat="37.375593333333335" lon="-5.992421666666667">
        <ele>11.14741208538183</ele>
        <time>2024-09-09T11:06:15.082Z</time>
      </trkpt>
      <trkpt lat="37.37569333333333" lon="-5.992414999999999">
        <ele>10.647606670861911</ele>
        <time>2024-09-09T11:06:27.131Z</time>
      </trkpt>
      <trkpt lat="37.375886666666666" lon="-5.992516666666667">
        <ele>10.948484533848507</ele>
        <time>2024-09-09T11:06:49.098Z</time>
      </trkpt>
      <trkpt lat="37.376171666666664" lon="-5.992566666666666">
        <ele>12.849340363519794</ele>
        <time>2024-09-09T11:07:15.084Z</time>
      </trkpt>
      <trkpt lat="37.376905" lon="-5.99292">
        <ele>10.252645108479001</ele>
        <time>2024-09-09T11:08:32.105Z</time>
      </trkpt>
      <trkpt lat="37.37730833333333" lon="-5.993036666666666">
        <ele>11.454097874474868</ele>
        <time>2024-09-09T11:09:16.098Z</time>
      </trkpt>
      <trkpt lat="37.37757833333333" lon="-5.993196666666667">
        <ele>6.755465213421964</ele>
        <time>2024-09-09T11:09:50.069Z</time>
      </trkpt>
      <trkpt lat="37.377696666666665" lon="-5.993314999999999">
        <ele>10.456302567051978</ele>
        <time>2024-09-09T11:10:04.092Z</time>
      </trkpt>
      <trkpt lat="37.378005" lon="-5.9934199999999995">
        <ele>2.957462631691648</ele>
        <time>2024-09-09T11:10:36.108Z</time>
      </trkpt>
      <trkpt lat="37.378335" lon="-5.993675">
        <ele>6.85947628353599</ele>
        <time>2024-09-09T11:11:09.101Z</time>
      </trkpt>
      <trkpt lat="37.37848833333333" lon="-5.99372">
        <ele>6.660073950951677</ele>
        <time>2024-09-09T11:11:31.062Z</time>
      </trkpt>
      <trkpt lat="37.37844333333333" lon="-5.993638333333333">
        <ele>13.159580907891723</ele>
        <time>2024-09-09T11:11:48.059Z</time>
      </trkpt>
      <trkpt lat="37.378485" lon="-5.993751666666666">
        <ele>7.360209864821741</ele>
        <time>2024-09-09T11:12:22.088Z</time>
      </trkpt>
      <trkpt lat="37.378765" lon="-5.993941666666666">
        <ele>6.8618236588339485</ele>
        <time>2024-09-09T11:14:38.055Z</time>
      </trkpt>
      <trkpt lat="37.37896" lon="-5.9939849999999995">
        <ele>10.662438680818013</ele>
        <time>2024-09-09T11:15:24.066Z</time>
      </trkpt>
      <trkpt lat="37.378903333333334" lon="-5.993930000000001">
        <ele>8.262103530086641</ele>
        <time>2024-09-09T11:15:33.053Z</time>
      </trkpt>
      <trkpt lat="37.378885" lon="-5.993956666666666">
        <ele>9.062137863639883</ele>
        <time>2024-09-09T11:15:40.059Z</time>
      </trkpt>
      <trkpt lat="37.379281666666664" lon="-5.994123333333333">
        <ele>11.763802438583866</ele>
        <time>2024-09-09T11:16:45.105Z</time>
      </trkpt>
      <trkpt lat="37.379405" lon="-5.994223333333334">
        <ele>12.364553912834658</ele>
        <time>2024-09-09T11:17:02.102Z</time>
      </trkpt>
      <trkpt lat="37.37957666666667" lon="-5.9942150000000005">
        <ele>15.76485989930417</ele>
        <time>2024-09-09T11:17:25.069Z</time>
      </trkpt>
      <trkpt lat="37.379733333333334" lon="-5.994331666666667">
        <ele>12.565806363178147</ele>
        <time>2024-09-09T11:18:18.075Z</time>
      </trkpt>
      <trkpt lat="37.379911666666665" lon="-5.994141666666667">
        <ele>13.765137484221434</ele>
        <time>2024-09-09T11:19:09.059Z</time>
      </trkpt>
      <trkpt lat="37.380023333333334" lon="-5.994148333333333">
        <ele>12.46532860043741</ele>
        <time>2024-09-09T11:19:21.095Z</time>
      </trkpt>
      <trkpt lat="37.38037166666666" lon="-5.994353333333334">
        <ele>12.167101256340075</ele>
        <time>2024-09-09T11:19:53.096Z</time>
      </trkpt>
      <trkpt lat="37.380485" lon="-5.994346666666667">
        <ele>10.1673200381872</ele>
        <time>2024-09-09T11:20:05.107Z</time>
      </trkpt>
      <trkpt lat="37.38074166666667" lon="-5.994235">
        <ele>12.967230855905115</ele>
        <time>2024-09-09T11:20:30.063Z</time>
      </trkpt>
      <trkpt lat="37.38084" lon="-5.994273333333332">
        <ele>15.867569076725694</ele>
        <time>2024-09-09T11:20:42.082Z</time>
      </trkpt>
      <trkpt lat="37.38086833333333" lon="-5.994345">
        <ele>14.868036036988464</ele>
        <time>2024-09-09T11:20:50.072Z</time>
      </trkpt>
      <trkpt lat="37.38120166666667" lon="-5.994178333333334">
        <ele>14.867796741313072</ele>
        <time>2024-09-09T11:21:24.088Z</time>
      </trkpt>
      <trkpt lat="37.38145333333333" lon="-5.994146666666667">
        <ele>13.068080517978423</ele>
        <time>2024-09-09T11:21:51.085Z</time>
      </trkpt>
      <trkpt lat="37.381766666666664" lon="-5.9940033333333345">
        <ele>14.967927933958322</ele>
        <time>2024-09-09T11:22:32.058Z</time>
      </trkpt>
      <trkpt lat="37.38193666666667" lon="-5.994015">
        <ele>17.768248322070136</ele>
        <time>2024-09-09T11:22:56.065Z</time>
      </trkpt>
      <trkpt lat="37.382196666666665" lon="-5.993858333333333">
        <ele>15.967945048822969</ele>
        <time>2024-09-09T11:23:32.098Z</time>
      </trkpt>
      <trkpt lat="37.38231833333334" lon="-5.993658333333333">
        <ele>10.067121354242722</ele>
        <time>2024-09-09T11:23:53.063Z</time>
      </trkpt>
      <trkpt lat="37.382288333333335" lon="-5.9933499999999995">
        <ele>11.365371110461716</ele>
        <time>2024-09-09T11:24:21.085Z</time>
      </trkpt>
      <trkpt lat="37.382664999999996" lon="-5.993243333333334">
        <ele>19.665463888355553</ele>
        <time>2024-09-09T11:25:01.065Z</time>
      </trkpt>
      <trkpt lat="37.38296666666667" lon="-5.993075000000001">
        <ele>18.865122791188746</ele>
        <time>2024-09-09T11:25:37.052Z</time>
      </trkpt>
      <trkpt lat="37.383053333333336" lon="-5.992978333333333">
        <ele>17.164789650888444</ele>
        <time>2024-09-09T11:26:05.059Z</time>
      </trkpt>
      <trkpt lat="37.383590000000005" lon="-5.9927166666666665">
        <ele>16.864371613451524</ele>
        <time>2024-09-09T11:27:06.078Z</time>
      </trkpt>
      <trkpt lat="37.383655" lon="-5.9925016666666675">
        <ele>17.7633798501176</ele>
        <time>2024-09-09T11:27:20.085Z</time>
      </trkpt>
      <trkpt lat="37.383720000000004" lon="-5.992453333333333">
        <ele>20.363166559768914</ele>
        <time>2024-09-09T11:27:27.076Z</time>
      </trkpt>
      <trkpt lat="37.38379333333333" lon="-5.992468333333333">
        <ele>22.663246490260015</ele>
        <time>2024-09-09T11:27:39.089Z</time>
      </trkpt>
      <trkpt lat="37.383810000000004" lon="-5.992558333333333">
        <ele>29.063833062884896</ele>
        <time>2024-09-09T11:27:53.095Z</time>
      </trkpt>
      <trkpt lat="37.38403" lon="-5.9926900000000005">
        <ele>24.165041905665312</ele>
        <time>2024-09-09T11:28:19.092Z</time>
      </trkpt>
      <trkpt lat="37.38429833333333" lon="-5.992258333333332">
        <ele>19.963220708052404</ele>
        <time>2024-09-09T11:28:57.052Z</time>
      </trkpt>
      <trkpt lat="37.38440833333333" lon="-5.992285">
        <ele>24.263523473281275</ele>
        <time>2024-09-09T11:29:10.055Z</time>
      </trkpt>
      <trkpt lat="37.38459833333333" lon="-5.992445">
        <ele>24.7647760354847</ele>
        <time>2024-09-09T11:29:28.105Z</time>
      </trkpt>
      <trkpt lat="37.38460333333333" lon="-5.9923183333333325">
        <ele>21.664138924462826</ele>
        <time>2024-09-09T11:29:40.098Z</time>
      </trkpt>
      <trkpt lat="37.384663333333336" lon="-5.992266666666666">
        <ele>21.76413156617531</ele>
        <time>2024-09-09T11:30:17.082Z</time>
      </trkpt>
      <trkpt lat="37.384771666666666" lon="-5.992360000000001">
        <ele>17.164621095415434</ele>
        <time>2024-09-09T11:30:36.096Z</time>
      </trkpt>
      <trkpt lat="37.38494333333333" lon="-5.992083333333333">
        <ele>14.263504620196265</ele>
        <time>2024-09-09T11:31:13.052Z</time>
      </trkpt>
      <trkpt lat="37.385014999999996" lon="-5.992216666666667">
        <ele>18.564320753032476</ele>
        <time>2024-09-09T11:31:36.055Z</time>
      </trkpt>
      <trkpt lat="37.38506666666667" lon="-5.992215000000001">
        <ele>19.06442840634275</ele>
        <time>2024-09-09T11:31:45.055Z</time>
      </trkpt>
      <trkpt lat="37.38515833333334" lon="-5.99233">
        <ele>19.165206598726087</ele>
        <time>2024-09-09T11:32:00.059Z</time>
      </trkpt>
      <trkpt lat="37.38535666666667" lon="-5.992275000000001">
        <ele>18.16532961942942</ele>
        <time>2024-09-09T11:32:18.052Z</time>
      </trkpt>
      <trkpt lat="37.385855" lon="-5.992363333333333">
        <ele>16.266691141076436</ele>
        <time>2024-09-09T11:32:59.065Z</time>
      </trkpt>
      <trkpt lat="37.38585333333333" lon="-5.99231">
        <ele>16.866468632906383</ele>
        <time>2024-09-09T11:33:07.065Z</time>
      </trkpt>
      <trkpt lat="37.38601333333334" lon="-5.992208333333334">
        <ele>24.86620650126079</ele>
        <time>2024-09-09T11:33:37.052Z</time>
      </trkpt>
      <trkpt lat="37.38617166666667" lon="-5.99227">
        <ele>17.766768578609124</ele>
        <time>2024-09-09T11:33:57.099Z</time>
      </trkpt>
      <trkpt lat="37.38626" lon="-5.992408333333333">
        <ele>15.667682832354274</ele>
        <time>2024-09-09T11:34:08.092Z</time>
      </trkpt>
      <trkpt lat="37.386311666666664" lon="-5.992586666666667">
        <ele>15.568809452177419</ele>
        <time>2024-09-09T11:34:32.096Z</time>
      </trkpt>
      <trkpt lat="37.38668833333334" lon="-5.992559999999999">
        <ele>28.869387211207787</ele>
        <time>2024-09-09T11:35:09.052Z</time>
      </trkpt>
      <trkpt lat="37.38673333333334" lon="-5.992779999999999">
        <ele>28.770570817846185</ele>
        <time>2024-09-09T11:35:23.055Z</time>
      </trkpt>
      <trkpt lat="37.386635" lon="-5.994021666666667">
        <ele>14.277179428353378</ele>
        <time>2024-09-09T11:36:53.055Z</time>
      </trkpt>
      <trkpt lat="37.38648333333333" lon="-5.994038333333333">
        <ele>15.57707983200256</ele>
        <time>2024-09-09T11:37:05.048Z</time>
      </trkpt>
      <trkpt lat="37.386275" lon="-5.993966666666667">
        <ele>12.876340925345595</ele>
        <time>2024-09-09T11:37:23.069Z</time>
      </trkpt>
      <trkpt lat="37.38581333333333" lon="-5.993951666666668">
        <ele>17.575322114518244</ele>
        <time>2024-09-09T11:38:17.062Z</time>
      </trkpt>
      <trkpt lat="37.38583166666667" lon="-5.993883333333334">
        <ele>18.875072055767774</ele>
        <time>2024-09-09T11:38:23.098Z</time>
      </trkpt>
      <trkpt lat="37.38578666666667" lon="-5.9938616666666675">
        <ele>20.874832739211733</ele>
        <time>2024-09-09T11:38:32.062Z</time>
      </trkpt>
      <trkpt lat="37.38545666666666" lon="-5.9938166666666675">
        <ele>25.773928729949525</ele>
        <time>2024-09-09T11:39:08.086Z</time>
      </trkpt>
      <trkpt lat="37.38556833333334" lon="-5.993938333333333">
        <ele>25.274770444966485</ele>
        <time>2024-09-09T11:39:32.109Z</time>
      </trkpt>
      <trkpt lat="37.385585" lon="-5.9940483333333345">
        <ele>20.075290288931477</ele>
        <time>2024-09-09T11:39:36.104Z</time>
      </trkpt>
      <trkpt lat="37.385623333333335" lon="-5.994071666666668">
        <ele>17.875587733434948</ele>
        <time>2024-09-09T11:39:42.101Z</time>
      </trkpt>
      <trkpt lat="37.38562833333334" lon="-5.994036666666666">
        <ele>17.275545881615656</ele>
        <time>2024-09-09T11:39:45.095Z</time>
      </trkpt>
      <trkpt lat="37.38566333333333" lon="-5.9941716666666665">
        <ele>16.07618066235318</ele>
        <time>2024-09-09T11:40:01.053Z</time>
      </trkpt>
      <trkpt lat="37.38562666666667" lon="-5.994226666666666">
        <ele>16.07634933379665</ele>
        <time>2024-09-09T11:40:03.059Z</time>
      </trkpt>
      <trkpt lat="37.38567166666667" lon="-5.99431">
        <ele>15.676884935249305</ele>
        <time>2024-09-09T11:40:06.059Z</time>
      </trkpt>
      <trkpt lat="37.38582333333333" lon="-5.99446">
        <ele>15.67801689235064</ele>
        <time>2024-09-09T11:40:11.053Z</time>
      </trkpt>
      <trkpt lat="37.38574333333334" lon="-5.9944500000000005">
        <ele>15.678122131071774</ele>
        <time>2024-09-09T11:40:12.092Z</time>
      </trkpt>
      <trkpt lat="37.38587333333333" lon="-5.994505">
        <ele>16.278370008123055</ele>
        <time>2024-09-09T11:40:26.059Z</time>
      </trkpt>
      <trkpt lat="37.38590833333333" lon="-5.9944716666666675">
        <ele>16.378395572030755</ele>
        <time>2024-09-09T11:40:30.073Z</time>
      </trkpt>
      <trkpt lat="37.385691666666666" lon="-5.994768333333333">
        <ele>20.579427231877347</ele>
        <time>2024-09-09T11:40:44.079Z</time>
      </trkpt>
      <trkpt lat="37.385641666666665" lon="-5.994935">
        <ele>41.080369432227904</ele>
        <time>2024-09-09T11:41:08.082Z</time>
      </trkpt>
      <trkpt lat="37.38572166666667" lon="-5.994751666666668">
        <ele>40.579552107396054</ele>
        <time>2024-09-09T11:42:03.085Z</time>
      </trkpt>
      <trkpt lat="37.38576166666667" lon="-5.994824999999999">
        <ele>40.87990622266283</ele>
        <time>2024-09-09T11:42:12.095Z</time>
      </trkpt>
      <trkpt lat="37.38540666666667" lon="-5.994113333333333">
        <ele>40.979994748805886</ele>
        <time>2024-09-09T11:42:24.082Z</time>
      </trkpt>
      <trkpt lat="37.38571" lon="-5.993786666666667">
        <ele>28.774275623758413</ele>
        <time>2024-09-09T11:42:32.092Z</time>
      </trkpt>
      <trkpt lat="37.38572833333333" lon="-5.993826666666666">
        <ele>29.674408196158865</ele>
        <time>2024-09-09T11:42:35.088Z</time>
      </trkpt>
      <trkpt lat="37.385938333333335" lon="-5.993898333333334">
        <ele>26.87524418416516</ele>
        <time>2024-09-09T11:43:05.096Z</time>
      </trkpt>
      <trkpt lat="37.386538333333334" lon="-5.994015">
        <ele>28.17701603182789</ele>
        <time>2024-09-09T11:44:11.101Z</time>
      </trkpt>
      <trkpt lat="37.38655166666667" lon="-5.9941933333333335">
        <ele>27.277974934180193</ele>
        <time>2024-09-09T11:44:26.094Z</time>
      </trkpt>
      <trkpt lat="37.38646166666667" lon="-5.994651666666666">
        <ele>20.68025391362753</ele>
        <time>2024-09-09T11:44:57.098Z</time>
      </trkpt>
      <trkpt lat="37.38652166666667" lon="-5.994725">
        <ele>18.380830378959793</ele>
        <time>2024-09-09T11:45:07.086Z</time>
      </trkpt>
      <trkpt lat="37.386523333333336" lon="-5.99479">
        <ele>17.08120953551969</ele>
        <time>2024-09-09T11:45:15.091Z</time>
      </trkpt>
      <trkpt lat="37.38658833333333" lon="-5.994816666666666">
        <ele>15.881421377171002</ele>
        <time>2024-09-09T11:45:34.086Z</time>
      </trkpt>
      <trkpt lat="37.38662166666666" lon="-5.9947066666666675">
        <ele>20.68101136830242</ele>
        <time>2024-09-09T11:45:44.076Z</time>
      </trkpt>
      <trkpt lat="37.386721666666666" lon="-5.99476">
        <ele>22.081440319399583</ele>
        <time>2024-09-09T11:45:55.098Z</time>
      </trkpt>
      <trkpt lat="37.38707" lon="-5.994653333333334">
        <ele>13.281542003952815</ele>
        <time>2024-09-09T11:46:34.091Z</time>
      </trkpt>
      <trkpt lat="37.38707333333333" lon="-5.994621666666665">
        <ele>12.281382548166391</ele>
        <time>2024-09-09T11:46:39.105Z</time>
      </trkpt>
      <trkpt lat="37.38768" lon="-5.994501666666667">
        <ele>17.581866274055756</ele>
        <time>2024-09-09T11:47:26.095Z</time>
      </trkpt>
      <trkpt lat="37.38771333333333" lon="-5.994439999999999">
        <ele>20.88165173526263</ele>
        <time>2024-09-09T11:47:36.094Z</time>
      </trkpt>
      <trkpt lat="37.387875" lon="-5.994433333333334">
        <ele>22.781876408414725</ele>
        <time>2024-09-09T11:47:54.069Z</time>
      </trkpt>
      <trkpt lat="37.388284999999996" lon="-5.994186666666667">
        <ele>15.481363619226954</ele>
        <time>2024-09-09T11:48:49.092Z</time>
      </trkpt>
      <trkpt lat="37.38865833333333" lon="-5.994145">
        <ele>13.881779472852955</ele>
        <time>2024-09-09T11:49:28.092Z</time>
      </trkpt>
      <trkpt lat="37.38901666666666" lon="-5.994223333333334">
        <ele>25.282865688988217</ele>
        <time>2024-09-09T11:50:07.086Z</time>
      </trkpt>
      <trkpt lat="37.38908666666667" lon="-5.994176666666668">
        <ele>26.382789940437604</ele>
        <time>2024-09-09T11:50:13.088Z</time>
      </trkpt>
      <trkpt lat="37.389424999999996" lon="-5.9942166666666665">
        <ele>17.283632816335476</ele>
        <time>2024-09-09T11:50:58.096Z</time>
      </trkpt>
      <trkpt lat="37.39264081475528" lon="-5.994785190153806">
        <ele>19.74937073863197</ele>
        <time>2024-09-09T12:01:32.395Z</time>
      </trkpt>
      <trkpt lat="37.392376486040604" lon="-5.994731639014788">
        <ele>19.801819044636176</ele>
        <time>2024-09-09T12:02:39.516Z</time>
      </trkpt>
      <trkpt lat="37.39229372091823" lon="-5.994813154948645">
        <ele>19.001795112931582</ele>
        <time>2024-09-09T12:03:21.435Z</time>
      </trkpt>
      <trkpt lat="37.39254640013027" lon="-5.9949079693255385">
        <ele>19.537691863899184</ele>
        <time>2024-09-09T12:05:26.451Z</time>
      </trkpt>
      <trkpt lat="37.39228036517619" lon="-5.994855917698914">
        <ele>18.781068463894904</ele>
        <time>2024-09-09T12:06:40.838Z</time>
      </trkpt>
      <trkpt lat="37.39236113040957" lon="-5.9947623942412065">
        <ele>19.606567167119422</ele>
        <time>2024-09-09T12:07:13.561Z</time>
      </trkpt>
      <trkpt lat="37.39271595459722" lon="-5.994771178455352">
        <ele>19.406563827396752</ele>
        <time>2024-09-09T12:10:12.590Z</time>
      </trkpt>
      <trkpt lat="37.392761666666665" lon="-5.994675000000001">
        <ele>17.492480413772796</ele>
        <time>2024-09-09T12:52:41.318Z</time>
      </trkpt>
      <trkpt lat="37.39286166666667" lon="-5.99465">
        <ele>16.192564053503276</ele>
        <time>2024-09-09T12:52:52.302Z</time>
      </trkpt>
      <trkpt lat="37.39283833333333" lon="-5.994605">
        <ele>14.892304063728375</ele>
        <time>2024-09-09T12:52:56.311Z</time>
      </trkpt>
      <trkpt lat="37.392896666666665" lon="-5.99368">
        <ele>19.987378208681626</ele>
        <time>2024-09-09T12:54:20.311Z</time>
      </trkpt>
      <trkpt lat="37.392925" lon="-5.99362">
        <ele>21.987102521721795</ele>
        <time>2024-09-09T12:54:29.316Z</time>
      </trkpt>
      <trkpt lat="37.39286166666667" lon="-5.993049999999999">
        <ele>15.18388808021355</ele>
        <time>2024-09-09T12:55:15.313Z</time>
      </trkpt>
      <trkpt lat="37.39287" lon="-5.9922733333333325">
        <ele>16.479683588362832</ele>
        <time>2024-09-09T12:56:19.324Z</time>
      </trkpt>
      <trkpt lat="37.392781666666664" lon="-5.99227">
        <ele>15.579483375205363</ele>
        <time>2024-09-09T12:56:37.324Z</time>
      </trkpt>
      <trkpt lat="37.392714999999995" lon="-5.992178333333333">
        <ele>15.578841799388861</ele>
        <time>2024-09-09T12:56:51.312Z</time>
      </trkpt>
      <trkpt lat="37.392920000000004" lon="-5.992189999999999">
        <ele>18.87923352253833</ele>
        <time>2024-09-09T12:57:16.325Z</time>
      </trkpt>
      <trkpt lat="37.39301833333333" lon="-5.992148333333334">
        <ele>19.179239972954534</ele>
        <time>2024-09-09T12:57:31.303Z</time>
      </trkpt>
      <trkpt lat="37.39286833333333" lon="-5.992155">
        <ele>19.3789587531219</ele>
        <time>2024-09-09T12:57:51.328Z</time>
      </trkpt>
      <trkpt lat="37.39284333333333" lon="-5.992093333333334">
        <ele>19.978631397647227</ele>
        <time>2024-09-09T12:57:58.308Z</time>
      </trkpt>
      <trkpt lat="37.392950000000006" lon="-5.992125000000001">
        <ele>19.678933618342498</ele>
        <time>2024-09-09T12:58:11.308Z</time>
      </trkpt>
      <trkpt lat="37.39319" lon="-5.992069999999999">
        <ele>24.779121957636214</ele>
        <time>2024-09-09T12:58:47.315Z</time>
      </trkpt>
      <trkpt lat="37.393141666666665" lon="-5.992218333333334">
        <ele>17.179426863181348</ele>
        <time>2024-09-09T13:05:42.278Z</time>
      </trkpt>
      <trkpt lat="37.39328833333333" lon="-5.992084999999999">
        <ele>24.179393326850068</ele>
        <time>2024-09-09T13:06:43.286Z</time>
      </trkpt>
      <trkpt lat="37.39339833333334" lon="-5.9921066666666665">
        <ele>27.379701836788854</ele>
        <time>2024-09-09T13:06:55.275Z</time>
      </trkpt>
      <trkpt lat="37.393495" lon="-5.991875">
        <ele>22.078685659663236</ele>
        <time>2024-09-09T13:07:29.280Z</time>
      </trkpt>
      <trkpt lat="37.39357333333333" lon="-5.991808333333334">
        <ele>22.77843827053426</ele>
        <time>2024-09-09T13:07:38.296Z</time>
      </trkpt>
      <trkpt lat="37.393566666666665" lon="-5.991668333333333">
        <ele>24.977733898950895</ele>
        <time>2024-09-09T13:07:50.299Z</time>
      </trkpt>
      <trkpt lat="37.39345" lon="-5.991536666666667">
        <ele>25.276714042897908</ele>
        <time>2024-09-09T13:08:06.295Z</time>
      </trkpt>
      <trkpt lat="37.39351333333333" lon="-5.991593333333332">
        <ele>24.8770967610443</ele>
        <time>2024-09-09T13:08:24.302Z</time>
      </trkpt>
      <trkpt lat="37.3935" lon="-5.991666666666667">
        <ele>23.07747143873263</ele>
        <time>2024-09-09T13:08:33.299Z</time>
      </trkpt>
      <trkpt lat="37.39336333333333" lon="-5.9916783333333345">
        <ele>21.37730849192988</ele>
        <time>2024-09-09T13:08:49.276Z</time>
      </trkpt>
      <trkpt lat="37.393285" lon="-5.991818333333333">
        <ele>18.67786708424994</ele>
        <time>2024-09-09T13:09:00.276Z</time>
      </trkpt>
      <trkpt lat="37.39320166666666" lon="-5.991883333333334">
        <ele>16.27811406357452</ele>
        <time>2024-09-09T13:09:06.276Z</time>
      </trkpt>
      <trkpt lat="37.392858333333336" lon="-5.9919">
        <ele>12.977581617314755</ele>
        <time>2024-09-09T13:10:02.312Z</time>
      </trkpt>
      <trkpt lat="37.3928" lon="-5.9918499999999995">
        <ele>15.077219323281547</ele>
        <time>2024-09-09T13:10:09.319Z</time>
      </trkpt>
      <trkpt lat="37.392795" lon="-5.991781666666666">
        <ele>17.476850038648465</ele>
        <time>2024-09-09T13:10:16.312Z</time>
      </trkpt>
      <trkpt lat="37.39270333333333" lon="-5.991771666666667">
        <ele>16.676575807102395</ele>
        <time>2024-09-09T13:10:26.315Z</time>
      </trkpt>
      <trkpt lat="37.392516666666666" lon="-5.9918733333333325">
        <ele>14.37675327663895</ele>
        <time>2024-09-09T13:10:44.275Z</time>
      </trkpt>
      <trkpt lat="37.39235833333333" lon="-5.992051666666667">
        <ele>14.277422980830941</ele>
        <time>2024-09-09T13:11:04.279Z</time>
      </trkpt>
      <trkpt lat="37.39229833333333" lon="-5.992054999999999">
        <ele>16.47736918320041</ele>
        <time>2024-09-09T13:11:10.273Z</time>
      </trkpt>
      <trkpt lat="37.39224" lon="-5.991991666666666">
        <ele>21.77691293032943</ele>
        <time>2024-09-09T13:11:19.279Z</time>
      </trkpt>
      <trkpt lat="37.39226333333333" lon="-5.991981666666668">
        <ele>22.476862967588495</ele>
        <time>2024-09-09T13:11:24.319Z</time>
      </trkpt>
      <trkpt lat="37.39216" lon="-5.991968333333333">
        <ele>24.7766218566584</ele>
        <time>2024-09-09T13:11:56.316Z</time>
      </trkpt>
      <trkpt lat="37.392129999999995" lon="-5.992013333333333">
        <ele>22.276769457241613</ele>
        <time>2024-09-09T13:12:11.305Z</time>
      </trkpt>
      <trkpt lat="37.392035" lon="-5.992009999999999">
        <ele>18.776595479335043</ele>
        <time>2024-09-09T13:12:24.315Z</time>
      </trkpt>
      <trkpt lat="37.392235" lon="-5.991943333333334">
        <ele>29.376599455507012</ele>
        <time>2024-09-09T13:13:36.305Z</time>
      </trkpt>
      <trkpt lat="37.39230666666666" lon="-5.991846666666667">
        <ele>29.176285235480925</ele>
        <time>2024-09-09T13:13:43.306Z</time>
      </trkpt>
      <trkpt lat="37.39234333333333" lon="-5.991744999999999">
        <ele>24.575756910404053</ele>
        <time>2024-09-09T13:14:59.292Z</time>
      </trkpt>
      <trkpt lat="37.392221666666664" lon="-5.991626666666667">
        <ele>23.27489362375328</ele>
        <time>2024-09-09T13:15:13.313Z</time>
      </trkpt>
      <trkpt lat="37.39224" lon="-5.991543333333334">
        <ele>22.074459257796065</ele>
        <time>2024-09-09T13:15:25.292Z</time>
      </trkpt>
      <trkpt lat="37.392579999999995" lon="-5.991485">
        <ele>22.474815586765956</ele>
        <time>2024-09-09T13:16:11.319Z</time>
      </trkpt>
      <trkpt lat="37.392601666666664" lon="-5.9912350000000005">
        <ele>20.67347401919192</ele>
        <time>2024-09-09T13:16:37.312Z</time>
      </trkpt>
      <trkpt lat="37.39251333333333" lon="-5.990618333333333">
        <ele>6.6700169477402085</ele>
        <time>2024-09-09T13:17:31.318Z</time>
      </trkpt>
      <trkpt lat="37.392575" lon="-5.990410000000001">
        <ele>4.569007098491163</ele>
        <time>2024-09-09T13:17:49.318Z</time>
      </trkpt>
      <trkpt lat="37.39267666666667" lon="-5.990301666666666">
        <ele>8.068560176575048</ele>
        <time>2024-09-09T13:18:04.325Z</time>
      </trkpt>
      <trkpt lat="37.39230833333333" lon="-5.989996666666667">
        <ele>12.066183940359714</ele>
        <time>2024-09-09T13:18:42.318Z</time>
      </trkpt>
      <trkpt lat="37.392491666666665" lon="-5.9897599999999995">
        <ele>15.765272228218834</ele>
        <time>2024-09-09T13:19:04.324Z</time>
      </trkpt>
      <trkpt lat="37.392555" lon="-5.9895233333333335">
        <ele>15.564104309444865</ele>
        <time>2024-09-09T13:19:20.322Z</time>
      </trkpt>
      <trkpt lat="37.39294833333334" lon="-5.988571666666667">
        <ele>14.659641778842627</ele>
        <time>2024-09-09T13:20:39.312Z</time>
      </trkpt>
      <trkpt lat="37.392876666666666" lon="-5.988511666666667">
        <ele>13.959135890740889</ele>
        <time>2024-09-09T13:20:48.318Z</time>
      </trkpt>
      <trkpt lat="37.39294833333334" lon="-5.988415">
        <ele>13.458773734763682</ele>
        <time>2024-09-09T13:20:59.325Z</time>
      </trkpt>
      <trkpt lat="37.39283666666667" lon="-5.988063333333334">
        <ele>10.256698646508816</ele>
        <time>2024-09-09T13:21:22.318Z</time>
      </trkpt>
      <trkpt lat="37.392916666666665" lon="-5.9879566666666655">
        <ele>9.556253733031284</ele>
        <time>2024-09-09T13:21:29.319Z</time>
      </trkpt>
      <trkpt lat="37.392894999999996" lon="-5.987861666666667">
        <ele>9.155692273242536</ele>
        <time>2024-09-09T13:21:36.325Z</time>
      </trkpt>
      <trkpt lat="37.39294833333334" lon="-5.987783333333335">
        <ele>7.95536275373081</ele>
        <time>2024-09-09T13:21:41.312Z</time>
      </trkpt>
      <trkpt lat="37.393053333333334" lon="-5.987326666666666">
        <ele>11.352987774222726</ele>
        <time>2024-09-09T13:22:28.313Z</time>
      </trkpt>
      <trkpt lat="37.393211666666666" lon="-5.987263333333334">
        <ele>12.752958604802885</ele>
        <time>2024-09-09T13:22:50.325Z</time>
      </trkpt>
      <trkpt lat="37.393260000000005" lon="-5.987201666666666">
        <ele>12.452751872745146</ele>
        <time>2024-09-09T13:22:57.318Z</time>
      </trkpt>
      <trkpt lat="37.39324833333333" lon="-5.986901666666667">
        <ele>13.251159764482779</ele>
        <time>2024-09-09T13:23:24.315Z</time>
      </trkpt>
      <trkpt lat="37.39336166666667" lon="-5.986533333333334">
        <ele>11.249353567735227</ele>
        <time>2024-09-09T13:23:52.325Z</time>
      </trkpt>
      <trkpt lat="37.39352833333333" lon="-5.985578333333333">
        <ele>7.2444106877737795</ele>
        <time>2024-09-09T13:24:58.318Z</time>
      </trkpt>
      <trkpt lat="37.39359833333333" lon="-5.985455">
        <ele>9.743834912024191</ele>
        <time>2024-09-09T13:25:21.316Z</time>
      </trkpt>
      <trkpt lat="37.393564999999995" lon="-5.985438333333334">
        <ele>10.043795311585903</ele>
        <time>2024-09-09T13:25:44.316Z</time>
      </trkpt>
      <trkpt lat="37.393595" lon="-5.985265">
        <ele>11.842849177432797</ele>
        <time>2024-09-09T13:27:10.312Z</time>
      </trkpt>
      <trkpt lat="37.39367166666667" lon="-5.985154999999999">
        <ele>11.542391204420674</ele>
        <time>2024-09-09T13:27:22.273Z</time>
      </trkpt>
      <trkpt lat="37.39365166666666" lon="-5.985060000000001">
        <ele>15.341838151304849</ele>
        <time>2024-09-09T13:27:29.295Z</time>
      </trkpt>
      <trkpt lat="37.39377666666667" lon="-5.984868333333333">
        <ele>9.940983945142051</ele>
        <time>2024-09-09T13:27:50.328Z</time>
      </trkpt>
      <trkpt lat="37.39376" lon="-5.984816666666667">
        <ele>10.040707147233249</ele>
        <time>2024-09-09T13:27:55.308Z</time>
      </trkpt>
      <trkpt lat="37.393860000000004" lon="-5.984663333333333">
        <ele>7.940066755807344</ele>
        <time>2024-09-09T13:28:07.285Z</time>
      </trkpt>
      <trkpt lat="37.393950000000004" lon="-5.984606666666667">
        <ele>11.339886037669295</ele>
        <time>2024-09-09T13:28:14.305Z</time>
      </trkpt>
      <trkpt lat="37.39393166666667" lon="-5.98443">
        <ele>21.338881788424253</ele>
        <time>2024-09-09T13:28:40.322Z</time>
      </trkpt>
      <trkpt lat="37.394353333333335" lon="-5.9841016666666675">
        <ele>17.337916988661043</ele>
        <time>2024-09-09T13:29:28.305Z</time>
      </trkpt>
      <trkpt lat="37.394365" lon="-5.984035">
        <ele>16.33761255581978</ele>
        <time>2024-09-09T13:29:33.285Z</time>
      </trkpt>
      <trkpt lat="37.39445333333333" lon="-5.983968333333333">
        <ele>15.637369115330166</ele>
        <time>2024-09-09T13:29:45.315Z</time>
      </trkpt>
      <trkpt lat="37.39474666666667" lon="-5.983903333333334">
        <ele>12.337518602155612</ele>
        <time>2024-09-09T13:30:09.279Z</time>
      </trkpt>
      <trkpt lat="37.395003333333335" lon="-5.9835883333333335">
        <ele>20.436333146337333</ele>
        <time>2024-09-09T13:30:48.268Z</time>
      </trkpt>
      <trkpt lat="37.395845" lon="-5.984068333333333">
        <ele>3.8405669019841184</ele>
        <time>2024-09-09T13:32:12.303Z</time>
      </trkpt>
      <trkpt lat="37.39594666666667" lon="-5.984186666666666">
        <ele>2.6414015378686386</ele>
        <time>2024-09-09T13:32:26.329Z</time>
      </trkpt>
      <trkpt lat="37.39651" lon="-5.983136666666667">
        <ele>14.436776727672708</ele>
        <time>2024-09-09T13:34:20.276Z</time>
      </trkpt>
      <trkpt lat="37.39656333333333" lon="-5.983115">
        <ele>14.936781184200704</ele>
        <time>2024-09-09T13:34:33.301Z</time>
      </trkpt>
      <trkpt lat="37.396586666666664" lon="-5.983025">
        <ele>16.536467793428223</ele>
        <time>2024-09-09T13:34:50.293Z</time>
      </trkpt>
      <trkpt lat="37.39702833333333" lon="-5.982336666666667">
        <ele>10.733417562813251</ele>
        <time>2024-09-09T13:36:03.292Z</time>
      </trkpt>
      <trkpt lat="37.39756833333333" lon="-5.982785">
        <ele>26.73678355507434</ele>
        <time>2024-09-09T13:37:24.268Z</time>
      </trkpt>
      <trkpt lat="37.39756" lon="-5.982865">
        <ele>22.03724124220627</ele>
        <time>2024-09-09T13:37:34.276Z</time>
      </trkpt>
      <trkpt lat="37.39761333333333" lon="-5.98284">
        <ele>18.93725580997002</ele>
        <time>2024-09-09T13:37:41.288Z</time>
      </trkpt>
      <trkpt lat="37.397753333333334" lon="-5.982933333333333">
        <ele>18.038000834922663</ele>
        <time>2024-09-09T13:37:55.279Z</time>
      </trkpt>
      <trkpt lat="37.39782833333334" lon="-5.982851666666666">
        <ele>19.037763126696426</ele>
        <time>2024-09-09T13:38:12.286Z</time>
      </trkpt>
      <trkpt lat="37.39785833333334" lon="-5.982895">
        <ele>20.13799676599441</ele>
        <time>2024-09-09T13:38:17.303Z</time>
      </trkpt>
      <trkpt lat="37.39790166666667" lon="-5.982828333333333">
        <ele>17.037802287791436</ele>
        <time>2024-09-09T13:38:28.309Z</time>
      </trkpt>
      <trkpt lat="37.39788333333333" lon="-5.982993333333333">
        <ele>20.93846545153015</ele>
        <time>2024-09-09T13:38:45.315Z</time>
      </trkpt>
      <trkpt lat="37.398085" lon="-5.983210000000001">
        <ele>22.64018146871461</ele>
        <time>2024-09-09T13:39:05.303Z</time>
      </trkpt>
      <trkpt lat="37.398316666666666" lon="-5.982821666666666">
        <ele>14.238569162825165</ele>
        <time>2024-09-09T13:39:46.329Z</time>
      </trkpt>
      <trkpt lat="37.398361666666666" lon="-5.982858333333333">
        <ele>13.938724586817791</ele>
        <time>2024-09-09T13:39:53.285Z</time>
      </trkpt>
      <trkpt lat="37.398468333333334" lon="-5.982818333333334">
        <ele>15.638777315268946</ele>
        <time>2024-09-09T13:39:59.296Z</time>
      </trkpt>
      <trkpt lat="37.39860833333333" lon="-5.982596666666666">
        <ele>18.037898095957885</ele>
        <time>2024-09-09T13:40:21.280Z</time>
      </trkpt>
      <trkpt lat="37.39850833333333" lon="-5.982294999999999">
        <ele>16.53611235272033</ele>
        <time>2024-09-09T13:40:39.315Z</time>
      </trkpt>
      <trkpt lat="37.39827833333333" lon="-5.982166666666666">
        <ele>17.73488128533166</ele>
        <time>2024-09-09T13:41:07.312Z</time>
      </trkpt>
      <trkpt lat="37.39844" lon="-5.981843333333334">
        <ele>9.433410257479302</ele>
        <time>2024-09-09T13:41:41.299Z</time>
      </trkpt>
      <trkpt lat="37.398405000000004" lon="-5.981728333333333">
        <ele>7.93276793762459</ele>
        <time>2024-09-09T13:41:50.306Z</time>
      </trkpt>
      <trkpt lat="37.39797333333333" lon="-5.9815966666666665">
        <ele>7.131179737937423</ele>
        <time>2024-09-09T13:42:32.278Z</time>
      </trkpt>
      <trkpt lat="37.39792833333333" lon="-5.981391666666667">
        <ele>13.030605829810767</ele>
        <time>2024-09-09T13:42:46.295Z</time>
      </trkpt>
      <trkpt lat="37.39800666666667" lon="-5.981351666666666">
        <ele>22.92990441937671</ele>
        <time>2024-09-09T13:43:01.282Z</time>
      </trkpt>
      <trkpt lat="37.39797333333333" lon="-5.981318333333333">
        <ele>23.529708485054115</ele>
        <time>2024-09-09T13:43:06.302Z</time>
      </trkpt>
      <trkpt lat="37.39776666666667" lon="-5.981283333333333">
        <ele>27.729067997321224</ele>
        <time>2024-09-09T13:43:22.309Z</time>
      </trkpt>
      <trkpt lat="37.397738333333336" lon="-5.981458333333334">
        <ele>28.42996645019418</ele>
        <time>2024-09-09T13:44:42.315Z</time>
      </trkpt>
      <trkpt lat="37.397706666666664" lon="-5.981273333333333">
        <ele>21.62894302206604</ele>
        <time>2024-09-09T13:44:59.309Z</time>
      </trkpt>
      <trkpt lat="37.397625" lon="-5.981178333333334">
        <ele>18.32824918452409</ele>
        <time>2024-09-09T13:45:13.313Z</time>
      </trkpt>
      <trkpt lat="37.39755" lon="-5.981156666666667">
        <ele>18.12813684933763</ele>
        <time>2024-09-09T13:45:59.299Z</time>
      </trkpt>
      <trkpt lat="37.397385" lon="-5.981296666666666">
        <ele>14.82836735158891</ele>
        <time>2024-09-09T13:46:50.309Z</time>
      </trkpt>
      <trkpt lat="37.39695" lon="-5.981398333333334">
        <ele>17.0281261061008</ele>
        <time>2024-09-09T13:47:26.272Z</time>
      </trkpt>
      <trkpt lat="37.39690666666667" lon="-5.981545">
        <ele>16.028752746331058</ele>
        <time>2024-09-09T13:47:42.303Z</time>
      </trkpt>
      <trkpt lat="37.396785" lon="-5.98165">
        <ele>13.629149996747437</ele>
        <time>2024-09-09T13:48:05.308Z</time>
      </trkpt>
      <trkpt lat="37.39669666666667" lon="-5.9816166666666675">
        <ele>13.028853655864218</ele>
        <time>2024-09-09T13:48:19.312Z</time>
      </trkpt>
      <trkpt lat="37.396695" lon="-5.981571666666667">
        <ele>13.028635045234552</ele>
        <time>2024-09-09T13:48:24.309Z</time>
      </trkpt>
      <trkpt lat="37.396728333333336" lon="-5.981571666666667">
        <ele>17.02854918115777</ele>
        <time>2024-09-09T13:57:50.296Z</time>
      </trkpt>
      <trkpt lat="37.39669833333333" lon="-5.9816616666666675">
        <ele>16.628920620840056</ele>
        <time>2024-09-09T13:57:55.282Z</time>
      </trkpt>
      <trkpt lat="37.39657666666667" lon="-5.981803333333333">
        <ele>14.329524692884519</ele>
        <time>2024-09-09T13:58:08.306Z</time>
      </trkpt>
      <trkpt lat="37.39667166666666" lon="-5.981738333333334">
        <ele>12.429508632421914</ele>
        <time>2024-09-09T13:58:29.269Z</time>
      </trkpt>
      <trkpt lat="37.39667333333333" lon="-5.9818333333333324">
        <ele>11.429838718231004</ele>
        <time>2024-09-09T13:58:35.299Z</time>
      </trkpt>
      <trkpt lat="37.39677166666667" lon="-5.981803333333333">
        <ele>9.929961788940332</ele>
        <time>2024-09-09T13:58:41.263Z</time>
      </trkpt>
      <trkpt lat="37.39676333333333" lon="-5.981723333333334">
        <ele>12.42950269202835</ele>
        <time>2024-09-09T13:58:48.293Z</time>
      </trkpt>
      <trkpt lat="37.39679" lon="-5.981816666666667">
        <ele>18.229918769310316</ele>
        <time>2024-09-09T13:58:53.269Z</time>
      </trkpt>
      <trkpt lat="37.39672333333333" lon="-5.981961666666666">
        <ele>40.6306868498844</ele>
        <time>2024-09-09T13:58:59.298Z</time>
      </trkpt>
      <trkpt lat="37.396613333333335" lon="-5.982031666666668">
        <ele>49.63087985624591</ele>
        <time>2024-09-09T13:59:13.270Z</time>
      </trkpt>
      <trkpt lat="37.39653166666667" lon="-5.981975">
        <ele>39.03046739195406</ele>
        <time>2024-09-09T13:59:29.286Z</time>
      </trkpt>
      <trkpt lat="37.396323333333335" lon="-5.982091666666667">
        <ele>38.330658481844296</ele>
        <time>2024-09-09T13:59:49.273Z</time>
      </trkpt>
      <trkpt lat="37.396193333333336" lon="-5.982071666666667">
        <ele>30.930329855125372</ele>
        <time>2024-09-09T14:00:02.299Z</time>
      </trkpt>
      <trkpt lat="37.39593" lon="-5.98226">
        <ele>25.830840687972582</ele>
        <time>2024-09-09T14:00:28.276Z</time>
      </trkpt>
      <trkpt lat="37.395925000000005" lon="-5.982308333333333">
        <ele>25.53108020772254</ele>
        <time>2024-09-09T14:00:36.325Z</time>
      </trkpt>
      <trkpt lat="37.39580333333333" lon="-5.982356666666668">
        <ele>27.63117430209897</ele>
        <time>2024-09-09T14:00:52.329Z</time>
      </trkpt>
      <trkpt lat="37.395755" lon="-5.982285">
        <ele>27.33073208525375</ele>
        <time>2024-09-09T14:00:59.322Z</time>
      </trkpt>
      <trkpt lat="37.39573333333333" lon="-5.982143333333333">
        <ele>23.729903838637362</ele>
        <time>2024-09-09T14:01:10.295Z</time>
      </trkpt>
      <trkpt lat="37.39562166666666" lon="-5.982023333333332">
        <ele>22.529052467577067</ele>
        <time>2024-09-09T14:01:20.280Z</time>
      </trkpt>
      <trkpt lat="37.39527" lon="-5.981286666666667">
        <ele>17.224280034478596</ele>
        <time>2024-09-09T14:02:29.302Z</time>
      </trkpt>
      <trkpt lat="37.39523" lon="-5.9812666666666665">
        <ele>19.324081343477793</ele>
        <time>2024-09-09T14:02:39.302Z</time>
      </trkpt>
      <trkpt lat="37.395329999999994" lon="-5.981331666666667">
        <ele>20.224619667987923</ele>
        <time>2024-09-09T14:02:58.315Z</time>
      </trkpt>
      <trkpt lat="37.395305" lon="-5.981274999999999">
        <ele>18.824295903566203</ele>
        <time>2024-09-09T14:03:05.335Z</time>
      </trkpt>
      <trkpt lat="37.39521333333333" lon="-5.981256666666667">
        <ele>18.024001494342542</ele>
        <time>2024-09-09T14:03:17.306Z</time>
      </trkpt>
      <trkpt lat="37.39505333333333" lon="-5.9813600000000005">
        <ele>20.924213694861777</ele>
        <time>2024-09-09T14:03:36.282Z</time>
      </trkpt>
      <trkpt lat="37.39508166666667" lon="-5.981306666666668">
        <ele>21.6240296832081</ele>
        <time>2024-09-09T14:03:45.269Z</time>
      </trkpt>
      <trkpt lat="37.39501166666666" lon="-5.981111666666667">
        <ele>19.62284972509972</ele>
        <time>2024-09-09T14:04:29.283Z</time>
      </trkpt>
      <trkpt lat="37.39461333333334" lon="-5.980298333333334">
        <ele>18.717705915259373</ele>
        <time>2024-09-09T14:05:42.301Z</time>
      </trkpt>
      <trkpt lat="37.394533333333335" lon="-5.979966666666667">
        <ele>23.115643831884235</ele>
        <time>2024-09-09T14:06:09.312Z</time>
      </trkpt>
      <trkpt lat="37.39422166666667" lon="-5.97925">
        <ele>20.01119483924161</ele>
        <time>2024-09-09T14:07:06.296Z</time>
      </trkpt>
      <trkpt lat="37.39414333333333" lon="-5.97916">
        <ele>20.010514153471696</ele>
        <time>2024-09-09T14:07:15.285Z</time>
      </trkpt>
      <trkpt lat="37.39413833333333" lon="-5.979088333333334">
        <ele>18.710041038247574</ele>
        <time>2024-09-09T14:07:23.293Z</time>
      </trkpt>
      <trkpt lat="37.39401333333333" lon="-5.978868333333333">
        <ele>26.30864059838187</ele>
        <time>2024-09-09T14:07:47.270Z</time>
      </trkpt>
      <trkpt lat="37.39387333333333" lon="-5.978748333333334">
        <ele>22.207749795139513</ele>
        <time>2024-09-09T14:08:03.299Z</time>
      </trkpt>
      <trkpt lat="37.393546666666666" lon="-5.978061666666667">
        <ele>11.203403901243306</ele>
        <time>2024-09-09T14:09:00.319Z</time>
      </trkpt>
      <trkpt lat="37.393656666666665" lon="-5.977779999999999">
        <ele>11.101976559939416</ele>
        <time>2024-09-09T14:09:19.311Z</time>
      </trkpt>
      <trkpt lat="37.39372" lon="-5.977045">
        <ele>5.098141374651135</ele>
        <time>2024-09-09T14:10:12.289Z</time>
      </trkpt>
      <trkpt lat="37.39360166666667" lon="-5.97693">
        <ele>8.99724338403962</ele>
        <time>2024-09-09T14:10:22.276Z</time>
      </trkpt>
      <trkpt lat="37.39346" lon="-5.976888333333333">
        <ele>14.79670352949698</ele>
        <time>2024-09-09T14:10:37.272Z</time>
      </trkpt>
      <trkpt lat="37.39336166666667" lon="-5.976740000000001">
        <ele>16.895729498805657</ele>
        <time>2024-09-09T14:10:54.295Z</time>
      </trkpt>
      <trkpt lat="37.393455" lon="-5.976533333333333">
        <ele>12.394699300288387</ele>
        <time>2024-09-09T14:11:34.321Z</time>
      </trkpt>
      <trkpt lat="37.39331166666667" lon="-5.976458333333333">
        <ele>16.99410219519919</ele>
        <time>2024-09-09T14:14:26.282Z</time>
      </trkpt>
      <trkpt lat="37.39348666666667" lon="-5.976256666666666">
        <ele>13.093269842062284</ele>
        <time>2024-09-09T14:14:46.289Z</time>
      </trkpt>
      <trkpt lat="37.393465" lon="-5.976171666666666">
        <ele>11.592823268683404</ele>
        <time>2024-09-09T14:15:03.298Z</time>
      </trkpt>
      <trkpt lat="37.39299166666667" lon="-5.975698333333334">
        <ele>15.48930189872356</ele>
        <time>2024-09-09T14:15:48.309Z</time>
      </trkpt>
      <trkpt lat="37.392865" lon="-5.975621666666666">
        <ele>15.988626787231887</ele>
        <time>2024-09-09T14:15:58.290Z</time>
      </trkpt>
      <trkpt lat="37.39272666666667" lon="-5.975653333333334">
        <ele>14.688473813666107</ele>
        <time>2024-09-09T14:16:09.302Z</time>
      </trkpt>
      <trkpt lat="37.39255166666667" lon="-5.975793333333333">
        <ele>13.98889096337421</ele>
        <time>2024-09-09T14:16:35.298Z</time>
      </trkpt>
      <trkpt lat="37.392518333333335" lon="-5.975866666666667">
        <ele>13.689228499549571</ele>
        <time>2024-09-09T14:16:50.296Z</time>
      </trkpt>
      <trkpt lat="37.39246333333333" lon="-5.97584">
        <ele>13.589059444596927</ele>
        <time>2024-09-09T14:16:56.282Z</time>
      </trkpt>
      <trkpt lat="37.39245666666667" lon="-5.975971666666667">
        <ele>13.489578408092989</ele>
        <time>2024-09-09T14:19:22.299Z</time>
      </trkpt>
      <trkpt lat="37.39259333333334" lon="-5.97617">
        <ele>15.391066790918018</ele>
        <time>2024-09-09T14:19:51.318Z</time>
      </trkpt>
      <trkpt lat="37.39256833333333" lon="-5.976148333333333">
        <ele>15.490948377659826</ele>
        <time>2024-09-09T14:19:53.275Z</time>
      </trkpt>
      <trkpt lat="37.392579999999995" lon="-5.976208333333333">
        <ele>15.591209425679956</ele>
        <time>2024-09-09T14:19:58.272Z</time>
      </trkpt>
      <trkpt lat="37.392543333333336" lon="-5.976188333333333">
        <ele>14.79106840936582</ele>
        <time>2024-09-09T14:20:01.313Z</time>
      </trkpt>
      <trkpt lat="37.392558333333334" lon="-5.976038333333334">
        <ele>15.390388577686032</ele>
        <time>2024-09-09T14:20:08.295Z</time>
      </trkpt>
      <trkpt lat="37.39232833333333" lon="-5.975431666666666">
        <ele>25.986480252766363</ele>
        <time>2024-09-09T14:23:24.302Z</time>
      </trkpt>
      <trkpt lat="37.39220666666667" lon="-5.975473333333333">
        <ele>18.686514098004025</ele>
        <time>2024-09-09T14:25:17.289Z</time>
      </trkpt>
      <trkpt lat="37.39218" lon="-5.975445000000001">
        <ele>18.886314815559437</ele>
        <time>2024-09-09T14:25:22.313Z</time>
      </trkpt>
      <trkpt lat="37.392219999999995" lon="-5.975421666666667">
        <ele>18.98623942636339</ele>
        <time>2024-09-09T14:25:31.309Z</time>
      </trkpt>
      <trkpt lat="37.392225" lon="-5.975208333333335">
        <ele>13.485135396279098</ele>
        <time>2024-09-09T14:25:50.325Z</time>
      </trkpt>
      <trkpt lat="37.391996666666664" lon="-5.975048333333333">
        <ele>7.383755145295105</ele>
        <time>2024-09-09T14:26:26.272Z</time>
      </trkpt>
      <trkpt lat="37.391936666666666" lon="-5.975081666666667">
        <ele>5.883779862744419</ele>
        <time>2024-09-09T14:26:43.286Z</time>
      </trkpt>
      <trkpt lat="37.39201666666667" lon="-5.974776666666666">
        <ele>-24.91770695838518</ele>
        <time>2024-09-09T14:28:30.293Z</time>
      </trkpt>
      <trkpt lat="37.39190166666666" lon="-5.974766666666667">
        <ele>-25.017945224954687</ele>
        <time>2024-09-09T14:28:42.260Z</time>
      </trkpt>
      <trkpt lat="37.39192333333334" lon="-5.974738333333333">
        <ele>-23.318130556310518</ele>
        <time>2024-09-09T14:28:47.661Z</time>
      </trkpt>
    </trkseg>
  </trk>
</gpx>
