<?xml version="1.0" encoding="UTF-8"?>
<gpx version="1.1" creator="Export" xmlns="http://www.topografix.com/GPX/1/1" xmlns:xsi="http://www.w3.org/2001/XMLSchema-instance" xsi:schemaLocation="http://www.topografix.com/GPX/1/1 http://www.topografix.com/GPX/1/1/gpx.xsd http://www.garmin.com/xmlschemas/GpxExtensions/v3 http://www.garmin.com/xmlschemas/GpxExtensionsv3.xsd http://www.garmin.com/xmlschemas/TrackPointExtension/v1 http://www.garmin.com/xmlschemas/TrackPointExtensionv1.xsd http://www.garmin.com/xmlschemas/PowerExtension/v1 http://www.garmin.com/xmlschemas/PowerExtensionv1.xsd http://www.topografix.com/GPX/gpx_style/0/2 http://www.topografix.com/GPX/gpx_style/0/2/gpx_style.xsd" xmlns:gpxtpx="http://www.garmin.com/xmlschemas/TrackPointExtension/v1" xmlns:gpxx="http://www.garmin.com/xmlschemas/GpxExtensions/v3" xmlns:gpxpx="http://www.garmin.com/xmlschemas/PowerExtension/v1" xmlns:gpx_style="http://www.topografix.com/GPX/gpx_style/0/2">
  <metadata>
    <name>activity_199_2024-09-09</name>
    <author>
      <name>gpx.studio</name>
      <link href="https://gpx.studio"/>
    </author>
  </metadata>
  <wpt lat="39.472944" lon="-0.37177">
    <ele>25.626742887457397</ele>
    <name>Hostel</name>
    <sym>Lodging</sym>
  </wpt>
  <wpt lat="39.472149" lon="-0.376591">
    <ele>36.29491482586675</ele>
    <name>Lizarran</name>
    <sym>Restaurant</sym>
  </wpt>
  <trk>
    <name>activity_199_2024-09-09</name>
    <trkseg>
      <trkpt lat="39.460343333333334" lon="-0.3809366666666667">
        <ele>20.597777601954043</ele>
        <time>2024-09-09T19:31:55.325Z</time>
      </trkpt>
      <trkpt lat="39.46027333333333" lon="-0.38081333333333334">
        <ele>21.697791224552304</ele>
        <time>2024-09-09T19:32:01.355Z</time>
      </trkpt>
      <trkpt lat="39.46045166666667" lon="-0.38084833333333334">
        <ele>20.69800981152406</ele>
        <time>2024-09-09T19:32:24.075Z</time>
      </trkpt>
      <trkpt lat="39.46051666666666" lon="-0.3807466666666667">
        <ele>24.998052638616436</ele>
        <time>2024-09-09T19:32:32.089Z</time>
      </trkpt>
      <trkpt lat="39.46065" lon="-0.38073666666666667">
        <ele>26.798187390816082</ele>
        <time>2024-09-09T19:32:43.088Z</time>
      </trkpt>
      <trkpt lat="39.46071666666667" lon="-0.3808066666666667">
        <ele>22.898306453922444</ele>
        <time>2024-09-09T19:32:51.082Z</time>
      </trkpt>
      <trkpt lat="39.460654999999996" lon="-0.381">
        <ele>16.098307927930264</ele>
        <time>2024-09-09T19:33:07.066Z</time>
      </trkpt>
      <trkpt lat="39.46078833333333" lon="-0.3806833333333334">
        <ele>16.19835318573596</ele>
        <time>2024-09-09T19:33:36.088Z</time>
      </trkpt>
      <trkpt lat="39.46110833333333" lon="-0.3808816666666667">
        <ele>14.29879079025357</ele>
        <time>2024-09-09T19:34:08.059Z</time>
      </trkpt>
      <trkpt lat="39.461175000000004" lon="-0.38087499999999996">
        <ele>14.198864559028664</ele>
        <time>2024-09-09T19:34:12.096Z</time>
      </trkpt>
      <trkpt lat="39.46149166666667" lon="-0.3802083333333333">
        <ele>13.499010916568245</ele>
        <time>2024-09-09T19:35:05.059Z</time>
      </trkpt>
      <trkpt lat="39.46160833333333" lon="-0.38015333333333334">
        <ele>16.19911722905462</ele>
        <time>2024-09-09T19:35:17.042Z</time>
      </trkpt>
      <trkpt lat="39.461666666666666" lon="-0.3800166666666666">
        <ele>16.09913884450436</ele>
        <time>2024-09-09T19:35:29.069Z</time>
      </trkpt>
      <trkpt lat="39.463075" lon="-0.37954333333333334">
        <ele>16.100615958618747</ele>
        <time>2024-09-09T19:37:38.066Z</time>
      </trkpt>
      <trkpt lat="39.463105000000006" lon="-0.37955">
        <ele>17.300661104863075</ele>
        <time>2024-09-09T19:37:42.086Z</time>
      </trkpt>
      <trkpt lat="39.46315833333333" lon="-0.37975333333333333">
        <ele>17.100800088696936</ele>
        <time>2024-09-09T19:37:59.088Z</time>
      </trkpt>
      <trkpt lat="39.463055000000004" lon="-0.37949333333333335">
        <ele>17.800588900847067</ele>
        <time>2024-09-09T19:38:48.069Z</time>
      </trkpt>
      <trkpt lat="39.46309333333333" lon="-0.3794783333333333">
        <ele>17.700584355550347</ele>
        <time>2024-09-09T19:39:01.073Z</time>
      </trkpt>
      <trkpt lat="39.46304166666666" lon="-0.3791233333333333">
        <ele>18.200435947525797</ele>
        <time>2024-09-09T19:39:26.079Z</time>
      </trkpt>
      <trkpt lat="39.46310166666667" lon="-0.37899666666666665">
        <ele>16.900449701667036</ele>
        <time>2024-09-09T19:39:36.056Z</time>
      </trkpt>
      <trkpt lat="39.463295" lon="-0.3788883333333333">
        <ele>16.60063044776704</ele>
        <time>2024-09-09T19:39:56.091Z</time>
      </trkpt>
      <trkpt lat="39.463498333333334" lon="-0.37933833333333333">
        <ele>17.401044969474682</ele>
        <time>2024-09-09T19:40:30.051Z</time>
      </trkpt>
      <trkpt lat="39.46688666666667" lon="-0.3778666666666667">
        <ele>36.80448967652077</ele>
        <time>2024-09-09T19:45:28.085Z</time>
      </trkpt>
      <trkpt lat="39.46689833333333" lon="-0.37791833333333336">
        <ele>36.90452238927289</ele>
        <time>2024-09-09T19:45:32.079Z</time>
      </trkpt>
      <trkpt lat="39.466863333333336" lon="-0.37767666666666666">
        <ele>37.404388776422145</ele>
        <time>2024-09-09T19:45:52.075Z</time>
      </trkpt>
      <trkpt lat="39.46704166666667" lon="-0.37750333333333336">
        <ele>44.204529330183</ele>
        <time>2024-09-09T19:46:16.055Z</time>
      </trkpt>
      <trkpt lat="39.46745333333333" lon="-0.37748166666666666">
        <ele>38.70498274542129</ele>
        <time>2024-09-09T19:47:03.053Z</time>
      </trkpt>
      <trkpt lat="39.46755333333333" lon="-0.3776966666666667">
        <ele>30.30511998581177</ele>
        <time>2024-09-09T19:47:24.073Z</time>
      </trkpt>
      <trkpt lat="39.467576666666666" lon="-0.3776083333333334">
        <ele>24.805205117372388</ele>
        <time>2024-09-09T19:47:34.063Z</time>
      </trkpt>
      <trkpt lat="39.46752166666667" lon="-0.3775616666666667">
        <ele>20.00512411150853</ele>
        <time>2024-09-09T19:47:48.058Z</time>
      </trkpt>
      <trkpt lat="39.46761" lon="-0.37739666666666666">
        <ele>19.10514736782602</ele>
        <time>2024-09-09T19:48:00.069Z</time>
      </trkpt>
      <trkpt lat="39.46771666666667" lon="-0.377365">
        <ele>17.605258499882957</ele>
        <time>2024-09-09T19:48:31.073Z</time>
      </trkpt>
      <trkpt lat="39.46785" lon="-0.3772516666666667">
        <ele>19.805374483479177</ele>
        <time>2024-09-09T19:48:44.069Z</time>
      </trkpt>
      <trkpt lat="39.46840666666667" lon="-0.377165">
        <ele>25.90599421766597</ele>
        <time>2024-09-09T19:49:31.069Z</time>
      </trkpt>
      <trkpt lat="39.46846333333334" lon="-0.37695">
        <ele>27.60599779114385</ele>
        <time>2024-09-09T19:49:42.071Z</time>
      </trkpt>
      <trkpt lat="39.468378333333334" lon="-0.37692333333333333">
        <ele>38.50589341939979</ele>
        <time>2024-09-09T19:50:01.078Z</time>
      </trkpt>
      <trkpt lat="39.46856666666667" lon="-0.37690999999999997">
        <ele>34.606093860710345</ele>
        <time>2024-09-09T19:50:30.078Z</time>
      </trkpt>
      <trkpt lat="39.468645" lon="-0.377015">
        <ele>35.506143120793745</ele>
        <time>2024-09-09T19:50:45.052Z</time>
      </trkpt>
      <trkpt lat="39.46912333333333" lon="-0.37693166666666666">
        <ele>43.70676173291004</ele>
        <time>2024-09-09T19:51:29.053Z</time>
      </trkpt>
      <trkpt lat="39.46915833333333" lon="-0.376825">
        <ele>41.106766890690466</ele>
        <time>2024-09-09T19:51:37.069Z</time>
      </trkpt>
      <trkpt lat="39.469215" lon="-0.37678833333333334">
        <ele>37.60682288521822</ele>
        <time>2024-09-09T19:51:44.058Z</time>
      </trkpt>
      <trkpt lat="39.46914666666667" lon="-0.37665166666666666">
        <ele>28.606774623631026</ele>
        <time>2024-09-09T19:52:18.062Z</time>
      </trkpt>
      <trkpt lat="39.469208333333334" lon="-0.3765966666666667">
        <ele>24.206734571300416</ele>
        <time>2024-09-09T19:52:24.084Z</time>
      </trkpt>
      <trkpt lat="39.469335" lon="-0.3765833333333333">
        <ele>21.406873290865327</ele>
        <time>2024-09-09T19:52:36.055Z</time>
      </trkpt>
      <trkpt lat="39.46941833333334" lon="-0.37643">
        <ele>21.406911112852562</ele>
        <time>2024-09-09T19:52:47.056Z</time>
      </trkpt>
      <trkpt lat="39.469545000000004" lon="-0.3764166666666667">
        <ele>18.2070525334247</ele>
        <time>2024-09-09T19:52:58.055Z</time>
      </trkpt>
      <trkpt lat="39.46968833333334" lon="-0.37651666666666667">
        <ele>18.80725988071557</ele>
        <time>2024-09-09T19:53:12.061Z</time>
      </trkpt>
      <trkpt lat="39.46981166666667" lon="-0.37655833333333333">
        <ele>18.207429307636303</ele>
        <time>2024-09-09T19:53:31.051Z</time>
      </trkpt>
      <trkpt lat="39.469855" lon="-0.37650833333333333">
        <ele>19.407455281402306</ele>
        <time>2024-09-09T19:53:37.062Z</time>
      </trkpt>
      <trkpt lat="39.470058333333334" lon="-0.37648166666666666">
        <ele>20.707683168031195</ele>
        <time>2024-09-09T19:53:55.058Z</time>
      </trkpt>
      <trkpt lat="39.470389999999995" lon="-0.37660499999999997">
        <ele>21.90813075840265</ele>
        <time>2024-09-09T19:54:26.069Z</time>
      </trkpt>
      <trkpt lat="39.470434999999995" lon="-0.37673666666666666">
        <ele>24.1082207386818</ele>
        <time>2024-09-09T19:54:39.052Z</time>
      </trkpt>
      <trkpt lat="39.47094833333333" lon="-0.376705">
        <ele>37.10883622309445</ele>
        <time>2024-09-09T19:55:25.058Z</time>
      </trkpt>
      <trkpt lat="39.47096" lon="-0.3767383333333333">
        <ele>36.10884700170487</ele>
        <time>2024-09-09T19:55:29.055Z</time>
      </trkpt>
      <trkpt lat="39.47101333333333" lon="-0.3766833333333333">
        <ele>37.10889073836632</ele>
        <time>2024-09-09T19:55:40.056Z</time>
      </trkpt>
      <trkpt lat="39.471185" lon="-0.3766633333333333">
        <ele>44.009076652451924</ele>
        <time>2024-09-09T19:55:57.085Z</time>
      </trkpt>
      <trkpt lat="39.47130333333334" lon="-0.37644">
        <ele>42.70914185627772</ele>
        <time>2024-09-09T19:56:15.085Z</time>
      </trkpt>
      <trkpt lat="39.47132833333333" lon="-0.37631333333333333">
        <ele>38.00912696676587</ele>
        <time>2024-09-09T19:56:28.085Z</time>
      </trkpt>
      <trkpt lat="39.471385000000005" lon="-0.3763066666666666">
        <ele>37.50912691224323</ele>
        <time>2024-09-09T19:56:47.071Z</time>
      </trkpt>
      <trkpt lat="39.471421666666664" lon="-0.3760016666666666">
        <ele>30.2091197065294</ele>
        <time>2024-09-09T19:57:08.059Z</time>
      </trkpt>
      <trkpt lat="39.47144" lon="-0.3754416666666666">
        <ele>29.70893173468137</ele>
        <time>2024-09-09T19:57:49.096Z</time>
      </trkpt>
      <trkpt lat="39.471289999999996" lon="-0.37520000000000003">
        <ele>21.00865370525718</ele>
        <time>2024-09-09T19:58:18.046Z</time>
      </trkpt>
      <trkpt lat="39.47134333333334" lon="-0.37515333333333334">
        <ele>19.808696582968736</ele>
        <time>2024-09-09T19:58:26.071Z</time>
      </trkpt>
      <trkpt lat="39.47141833333333" lon="-0.375175">
        <ele>20.308785289151736</ele>
        <time>2024-09-09T19:58:33.052Z</time>
      </trkpt>
      <trkpt lat="39.47150166666667" lon="-0.3750916666666667">
        <ele>22.308854537851573</ele>
        <time>2024-09-09T19:58:41.079Z</time>
      </trkpt>
      <trkpt lat="39.47183666666667" lon="-0.3745483333333333">
        <ele>25.70904043448737</ele>
        <time>2024-09-09T19:59:35.096Z</time>
      </trkpt>
      <trkpt lat="39.471875" lon="-0.37442166666666665">
        <ele>23.909031622112593</ele>
        <time>2024-09-09T19:59:45.062Z</time>
      </trkpt>
      <trkpt lat="39.47197333333334" lon="-0.37439666666666666">
        <ele>29.90913636015702</ele>
        <time>2024-09-09T19:59:53.092Z</time>
      </trkpt>
      <trkpt lat="39.472635" lon="-0.374475">
        <ele>44.50993657756094</ele>
        <time>2024-09-09T20:00:54.063Z</time>
      </trkpt>
      <trkpt lat="39.47274" lon="-0.37441833333333335">
        <ele>45.510059116328726</ele>
        <time>2024-09-09T20:01:05.052Z</time>
      </trkpt>
      <trkpt lat="39.472755" lon="-0.37372833333333333">
        <ele>20.60981247617609</ele>
        <time>2024-09-09T20:01:55.058Z</time>
      </trkpt>
      <trkpt lat="39.473238333333335" lon="-0.3735916666666667">
        <ele>23.610306918192556</ele>
        <time>2024-09-09T20:02:36.071Z</time>
      </trkpt>
      <trkpt lat="39.47331666666666" lon="-0.37351666666666666">
        <ele>23.110381000096204</ele>
        <time>2024-09-09T20:02:44.055Z</time>
      </trkpt>
      <trkpt lat="39.47296453669273" lon="-0.37179608283489074">
        <ele>25.741058682768735</ele>
        <time>2024-09-09T20:04:40.704Z</time>
      </trkpt>
      <trkpt lat="39.473258333333334" lon="-0.3727533333333334">
        <ele>25.6335300925261</ele>
        <time>2024-09-09T20:05:45.998Z</time>
      </trkpt>
      <trkpt lat="39.473211666666664" lon="-0.372795">
        <ele>23.809983861019894</ele>
        <time>2024-09-09T20:46:49.082Z</time>
      </trkpt>
      <trkpt lat="39.473420000000004" lon="-0.3736933333333334">
        <ele>18.710563703005164</ele>
        <time>2024-09-09T20:47:55.105Z</time>
      </trkpt>
      <trkpt lat="39.473355" lon="-0.37382333333333334">
        <ele>18.01055200141119</ele>
        <time>2024-09-09T20:48:03.101Z</time>
      </trkpt>
      <trkpt lat="39.47335666666667" lon="-0.3739266666666667">
        <ele>15.210573069260988</ele>
        <time>2024-09-09T20:48:06.096Z</time>
      </trkpt>
      <trkpt lat="39.47345333333333" lon="-0.3741466666666666">
        <ele>14.610782638102002</ele>
        <time>2024-09-09T20:48:14.105Z</time>
      </trkpt>
      <trkpt lat="39.47355666666667" lon="-0.3742783333333334">
        <ele>15.910947066460047</ele>
        <time>2024-09-09T20:48:28.101Z</time>
      </trkpt>
      <trkpt lat="39.47355166666667" lon="-0.37446999999999997">
        <ele>15.411021726777214</ele>
        <time>2024-09-09T20:48:37.098Z</time>
      </trkpt>
      <trkpt lat="39.47376333333333" lon="-0.37540999999999997">
        <ele>22.01162700512421</ele>
        <time>2024-09-09T20:49:36.079Z</time>
      </trkpt>
      <trkpt lat="39.47373666666667" lon="-0.37556833333333334">
        <ele>20.011668227021396</ele>
        <time>2024-09-09T20:49:47.096Z</time>
      </trkpt>
      <trkpt lat="39.47364" lon="-0.3757783333333334">
        <ele>13.011633784413831</ele>
        <time>2024-09-09T20:50:06.101Z</time>
      </trkpt>
      <trkpt lat="39.472896666666664" lon="-0.37631333333333333">
        <ele>-9.089018451857044</ele>
        <time>2024-09-09T20:51:25.085Z</time>
      </trkpt>
      <trkpt lat="39.47279833333334" lon="-0.37645999999999996">
        <ele>-7.889077450582661</ele>
        <time>2024-09-09T20:51:33.249Z</time>
      </trkpt>
      <trkpt lat="39.47224077826192" lon="-0.37673560665228933">
        <ele>34.05512930729799</ele>
        <time>2024-09-09T20:52:16.664Z</time>
      </trkpt>
      <trkpt lat="39.47215322210329" lon="-0.37659890469501534">
        <ele>36.23895893406654</ele>
        <time>2024-09-09T20:52:26.639Z</time>
      </trkpt>
      <trkpt lat="39.47215485561475" lon="-0.3767009021311196">
        <ele>35.04932977168433</ele>
        <time>2024-09-09T20:52:45.157Z</time>
      </trkpt>
      <trkpt lat="39.47224166666667" lon="-0.37684666666666666">
        <ele>32.42938111208014</ele>
        <time>2024-09-09T20:52:57.255Z</time>
      </trkpt>
      <trkpt lat="39.472316666666664" lon="-0.37672">
        <ele>59.01044483773443</ele>
        <time>2024-09-09T22:10:33.094Z</time>
      </trkpt>
      <trkpt lat="39.472543333333334" lon="-0.3766466666666667">
        <ele>51.61066995332193</ele>
        <time>2024-09-09T22:10:45.092Z</time>
      </trkpt>
      <trkpt lat="39.47259833333333" lon="-0.376525">
        <ele>47.61069870937933</ele>
        <time>2024-09-09T22:10:52.102Z</time>
      </trkpt>
      <trkpt lat="39.472793333333335" lon="-0.37633833333333333">
        <ele>46.01084969646065</ele>
        <time>2024-09-09T22:11:09.104Z</time>
      </trkpt>
      <trkpt lat="39.473063333333336" lon="-0.3762216666666667">
        <ele>43.91111633761842</ele>
        <time>2024-09-09T22:11:35.085Z</time>
      </trkpt>
      <trkpt lat="39.47328666666667" lon="-0.3759866666666667">
        <ele>37.81129704663557</ele>
        <time>2024-09-09T22:11:58.092Z</time>
      </trkpt>
      <trkpt lat="39.47365166666667" lon="-0.3758316666666667">
        <ele>36.311666410422134</ele>
        <time>2024-09-09T22:12:27.092Z</time>
      </trkpt>
      <trkpt lat="39.473796666666665" lon="-0.37557500000000005">
        <ele>29.711745035947686</ele>
        <time>2024-09-09T22:12:40.104Z</time>
      </trkpt>
      <trkpt lat="39.47370333333333" lon="-0.37527666666666665">
        <ele>20.41153570319728</ele>
        <time>2024-09-09T22:12:59.094Z</time>
      </trkpt>
      <trkpt lat="39.473683333333334" lon="-0.3752583333333333">
        <ele>18.911493491418298</ele>
        <time>2024-09-09T22:13:02.094Z</time>
      </trkpt>
      <trkpt lat="39.473685" lon="-0.37529833333333334">
        <ele>16.811516296294904</ele>
        <time>2024-09-09T22:13:24.101Z</time>
      </trkpt>
      <trkpt lat="39.47365333333333" lon="-0.37523666666666666">
        <ele>15.211466766027264</ele>
        <time>2024-09-09T22:13:27.104Z</time>
      </trkpt>
      <trkpt lat="39.473621666666666" lon="-0.3750033333333333">
        <ele>15.211330021715632</ele>
        <time>2024-09-09T22:13:40.094Z</time>
      </trkpt>
      <trkpt lat="39.47367166666667" lon="-0.37477666666666665">
        <ele>13.911298318051735</ele>
        <time>2024-09-09T22:13:53.101Z</time>
      </trkpt>
      <trkpt lat="39.47364" lon="-0.3744816666666667">
        <ele>11.711146789992156</ele>
        <time>2024-09-09T22:14:11.082Z</time>
      </trkpt>
      <trkpt lat="39.47369833333333" lon="-0.3744516666666666">
        <ele>11.511192791083666</ele>
        <time>2024-09-09T22:14:18.052Z</time>
      </trkpt>
      <trkpt lat="39.47363666666667" lon="-0.37426333333333334">
        <ele>17.311063256622916</ele>
        <time>2024-09-09T22:14:38.086Z</time>
      </trkpt>
      <trkpt lat="39.473565" lon="-0.37421166666666666">
        <ele>17.910964941405517</ele>
        <time>2024-09-09T22:14:49.053Z</time>
      </trkpt>
      <trkpt lat="39.473585" lon="-0.37414333333333333">
        <ele>17.910956141970132</ele>
        <time>2024-09-09T22:14:52.058Z</time>
      </trkpt>
      <trkpt lat="39.47354" lon="-0.3741233333333333">
        <ele>18.010914527011188</ele>
        <time>2024-09-09T22:14:54.065Z</time>
      </trkpt>
      <trkpt lat="39.473528333333334" lon="-0.37402833333333335">
        <ele>18.31084453593857</ele>
        <time>2024-09-09T22:14:58.073Z</time>
      </trkpt>
      <trkpt lat="39.47347333333333" lon="-0.37398333333333333">
        <ele>16.2107710093589</ele>
        <time>2024-09-09T22:15:04.176Z</time>
      </trkpt>
      <trkpt lat="39.4729962706588" lon="-0.3718070041060457">
        <ele>25.86235011934943</ele>
        <time>2024-09-09T22:17:24.155Z</time>
      </trkpt>
      <trkpt lat="39.47294250019178" lon="-0.3717613967678801">
        <ele>25.606125405586802</ele>
        <time>2024-09-09T22:17:29.307Z</time>
      </trkpt>
    </trkseg>
  </trk>
</gpx>
