<?xml version="1.0" encoding="UTF-8"?>
<gpx version="1.1" creator="Export" xmlns="http://www.topografix.com/GPX/1/1" xmlns:xsi="http://www.w3.org/2001/XMLSchema-instance" xsi:schemaLocation="http://www.topografix.com/GPX/1/1 http://www.topografix.com/GPX/1/1/gpx.xsd http://www.garmin.com/xmlschemas/GpxExtensions/v3 http://www.garmin.com/xmlschemas/GpxExtensionsv3.xsd http://www.garmin.com/xmlschemas/TrackPointExtension/v1 http://www.garmin.com/xmlschemas/TrackPointExtensionv1.xsd http://www.garmin.com/xmlschemas/PowerExtension/v1 http://www.garmin.com/xmlschemas/PowerExtensionv1.xsd http://www.topografix.com/GPX/gpx_style/0/2 http://www.topografix.com/GPX/gpx_style/0/2/gpx_style.xsd" xmlns:gpxtpx="http://www.garmin.com/xmlschemas/TrackPointExtension/v1" xmlns:gpxx="http://www.garmin.com/xmlschemas/GpxExtensions/v3" xmlns:gpxpx="http://www.garmin.com/xmlschemas/PowerExtension/v1" xmlns:gpx_style="http://www.topografix.com/GPX/gpx_style/0/2">
  <metadata>
    <name>activity_186_2024-09-05</name>
    <author>
      <name>gpx.studio</name>
      <link href="https://gpx.studio"/>
    </author>
  </metadata>
  <wpt lat="41.14569806234786" lon="-8.629836391461993">
    <ele>10.33147135991684</ele>
    <sym>Information</sym>
  </wpt>
  <wpt lat="41.144226" lon="-8.608854">
    <ele>83.82768510347262</ele>
    <name>Hostel</name>
    <sym>Lodging</sym>
  </wpt>
  <wpt lat="41.140334" lon="-8.612708">
    <ele>5.799293193143166</ele>
    <name>Walking Tour finish</name>
    <sym>Exit</sym>
  </wpt>
  <wpt lat="41.141613" lon="-8.59779">
    <ele>43.68274714929462</ele>
    <name>Not-a-backyard</name>
    <sym>Exit</sym>
  </wpt>
  <wpt lat="41.144221" lon="-8.607285">
    <ele>90.77458545062743</ele>
    <name>Cafe</name>
    <sym>Restaurant</sym>
  </wpt>
  <wpt lat="41.145523" lon="-8.607272">
    <ele>102.10663335775118</ele>
    <name>Walking Tour break</name>
    <sym>Gas Station</sym>
  </wpt>
  <wpt lat="41.145819" lon="-8.603284">
    <ele>99.79991113538904</ele>
    <name>Oficina dos Rissois</name>
    <sym>Restaurant</sym>
  </wpt>
  <wpt lat="41.145702" lon="-8.629837">
    <ele>12.750937931356566</ele>
    <name>Bulas Wine House</name>
    <sym>Restaurant</sym>
  </wpt>
  <trk>
    <name>activity_186_2024-09-05</name>
    <trkseg>
      <trkpt lat="41.144234999999995" lon="-8.608473333333334">
        <ele>33.722633441613176</ele>
        <time>2024-09-05T08:38:19.030Z</time>
      </trkpt>
      <trkpt lat="41.144335" lon="-8.608545">
        <ele>33.2224715325774</ele>
        <time>2024-09-05T08:38:29.091Z</time>
      </trkpt>
      <trkpt lat="41.14422" lon="-8.608464999999999">
        <ele>32.722585694533535</ele>
        <time>2024-09-05T08:38:45.085Z</time>
      </trkpt>
      <trkpt lat="41.14421833333334" lon="-8.608035">
        <ele>78.92236377466628</ele>
        <time>2024-09-05T08:39:24.086Z</time>
      </trkpt>
      <trkpt lat="41.144313333333336" lon="-8.60779">
        <ele>99.72210949421329</ele>
        <time>2024-09-05T08:39:43.095Z</time>
      </trkpt>
      <trkpt lat="41.14425333333334" lon="-8.607526666666667">
        <ele>94.62205722608107</ele>
        <time>2024-09-05T08:40:00.084Z</time>
      </trkpt>
      <trkpt lat="41.14436166666666" lon="-8.608081666666667">
        <ele>83.42216058626403</ele>
        <time>2024-09-05T08:52:17.051Z</time>
      </trkpt>
      <trkpt lat="41.14438" lon="-8.607988333333333">
        <ele>87.62211318424866</ele>
        <time>2024-09-05T08:52:21.051Z</time>
      </trkpt>
      <trkpt lat="41.144256666666664" lon="-8.607315">
        <ele>91.32193887360756</ele>
        <time>2024-09-05T08:53:43.051Z</time>
      </trkpt>
      <trkpt lat="41.14417166666667" lon="-8.607183333333333">
        <ele>90.52198607600157</ele>
        <time>2024-09-05T08:53:57.042Z</time>
      </trkpt>
      <trkpt lat="41.14424666666667" lon="-8.607553333333334">
        <ele>90.4220217666377</ele>
        <time>2024-09-05T08:54:18.049Z</time>
      </trkpt>
      <trkpt lat="41.14456166666667" lon="-8.607161666666666">
        <ele>102.72141291207103</ele>
        <time>2024-09-05T08:55:16.078Z</time>
      </trkpt>
      <trkpt lat="41.14415" lon="-8.607445">
        <ele>125.72212741204422</ele>
        <time>2024-09-05T08:55:40.051Z</time>
      </trkpt>
      <trkpt lat="41.14425333333334" lon="-8.607431666666667">
        <ele>110.22201274272345</ele>
        <time>2024-09-05T08:55:52.076Z</time>
      </trkpt>
      <trkpt lat="41.14427666666667" lon="-8.607681666666668">
        <ele>90.32207143019491</ele>
        <time>2024-09-05T08:59:11.053Z</time>
      </trkpt>
      <trkpt lat="41.14422666666666" lon="-8.607703333333335">
        <ele>90.32216600277454</ele>
        <time>2024-09-05T08:59:17.046Z</time>
      </trkpt>
      <trkpt lat="41.14425333333334" lon="-8.607618333333333">
        <ele>61.42208018402896</ele>
        <time>2024-09-05T09:09:18.092Z</time>
      </trkpt>
      <trkpt lat="41.14413" lon="-8.607664999999999">
        <ele>56.4222641090865</ele>
        <time>2024-09-05T09:09:26.084Z</time>
      </trkpt>
      <trkpt lat="41.14438" lon="-8.607776666666666">
        <ele>87.22196574670664</ele>
        <time>2024-09-05T09:12:18.082Z</time>
      </trkpt>
      <trkpt lat="41.144223333333336" lon="-8.608360000000001">
        <ele>98.42251267805378</ele>
        <time>2024-09-05T09:12:56.062Z</time>
      </trkpt>
      <trkpt lat="41.14429166666667" lon="-8.608538333333334">
        <ele>92.02251579866584</ele>
        <time>2024-09-05T09:13:05.081Z</time>
      </trkpt>
      <trkpt lat="41.144275" lon="-8.60897">
        <ele>88.82276596869406</ele>
        <time>2024-09-05T09:13:37.099Z</time>
      </trkpt>
      <trkpt lat="41.14430333333333" lon="-8.608666666666666">
        <ele>92.0226114809395</ele>
        <time>2024-09-05T09:13:57.094Z</time>
      </trkpt>
      <trkpt lat="41.14448666666667" lon="-8.608928333333333">
        <ele>152.42237236715076</ele>
        <time>2024-09-05T09:21:21.086Z</time>
      </trkpt>
      <trkpt lat="41.14435" lon="-8.609071666666667">
        <ele>115.12271291556839</ele>
        <time>2024-09-05T09:21:31.095Z</time>
      </trkpt>
      <trkpt lat="41.14423" lon="-8.609083333333333">
        <ele>105.52288559056171</ele>
        <time>2024-09-05T09:21:45.075Z</time>
      </trkpt>
      <trkpt lat="41.14432166666667" lon="-8.609053333333332">
        <ele>101.72276125878635</ele>
        <time>2024-09-05T09:21:57.111Z</time>
      </trkpt>
      <trkpt lat="41.14425500000001" lon="-8.608794999999999">
        <ele>99.22271101121578</ele>
        <time>2024-09-05T09:22:31.092Z</time>
      </trkpt>
      <trkpt lat="41.14429" lon="-8.60792">
        <ele>94.9222011194847</ele>
        <time>2024-09-05T09:23:32.094Z</time>
      </trkpt>
      <trkpt lat="41.144236666666664" lon="-8.607628333333334">
        <ele>92.42212935595856</ele>
        <time>2024-09-05T09:23:44.086Z</time>
      </trkpt>
      <trkpt lat="41.14369833333333" lon="-8.607918333333334">
        <ele>91.2230120061742</ele>
        <time>2024-09-05T09:24:32.088Z</time>
      </trkpt>
      <trkpt lat="41.143675" lon="-8.60773">
        <ele>92.72296926795666</ele>
        <time>2024-09-05T09:24:52.085Z</time>
      </trkpt>
      <trkpt lat="41.14388333333333" lon="-8.607785">
        <ele>92.62270657504824</ele>
        <time>2024-09-05T09:25:32.082Z</time>
      </trkpt>
      <trkpt lat="41.14366833333334" lon="-8.608101666666666">
        <ele>92.02315056538689</ele>
        <time>2024-09-05T09:26:50.072Z</time>
      </trkpt>
      <trkpt lat="41.143526666666666" lon="-8.608084999999999">
        <ele>95.42332884973402</ele>
        <time>2024-09-05T09:26:56.086Z</time>
      </trkpt>
      <trkpt lat="41.14346999999999" lon="-8.607968333333334">
        <ele>96.42335716436304</ele>
        <time>2024-09-05T09:27:09.089Z</time>
      </trkpt>
      <trkpt lat="41.143514999999994" lon="-8.607811666666667">
        <ele>109.72324682277659</ele>
        <time>2024-09-05T09:28:18.091Z</time>
      </trkpt>
      <trkpt lat="41.14340000000001" lon="-8.607971666666666">
        <ele>91.72346321855828</ele>
        <time>2024-09-05T09:28:22.092Z</time>
      </trkpt>
      <trkpt lat="41.14342" lon="-8.607771666666668">
        <ele>95.72335113348429</ele>
        <time>2024-09-05T09:28:37.059Z</time>
      </trkpt>
      <trkpt lat="41.14462333333333" lon="-8.606993333333332">
        <ele>93.92127046526068</ele>
        <time>2024-09-05T09:30:30.092Z</time>
      </trkpt>
      <trkpt lat="41.144706666666664" lon="-8.607121666666666">
        <ele>98.02119683785529</ele>
        <time>2024-09-05T09:30:41.095Z</time>
      </trkpt>
      <trkpt lat="41.145521666666674" lon="-8.607561666666667">
        <ele>98.52030265987912</ele>
        <time>2024-09-05T09:32:11.094Z</time>
      </trkpt>
      <trkpt lat="41.14596166666667" lon="-8.607161666666666">
        <ele>91.11948268077828</ele>
        <time>2024-09-05T09:33:00.094Z</time>
      </trkpt>
      <trkpt lat="41.14614166666667" lon="-8.607104999999999">
        <ele>95.01918534005526</ele>
        <time>2024-09-05T09:33:49.058Z</time>
      </trkpt>
      <trkpt lat="41.14617333333334" lon="-8.607186666666667">
        <ele>98.31919489162819</ele>
        <time>2024-09-05T09:34:11.105Z</time>
      </trkpt>
      <trkpt lat="41.14676666666666" lon="-8.606896666666668">
        <ele>104.91821890939772</ele>
        <time>2024-09-05T09:35:34.105Z</time>
      </trkpt>
      <trkpt lat="41.14696000000001" lon="-8.606911666666667">
        <ele>102.81795288616394</ele>
        <time>2024-09-05T09:35:52.072Z</time>
      </trkpt>
      <trkpt lat="41.146995" lon="-8.60671">
        <ele>101.51781054581323</ele>
        <time>2024-09-05T09:36:21.056Z</time>
      </trkpt>
      <trkpt lat="41.14711333333333" lon="-8.606824999999999">
        <ele>102.91769072338877</ele>
        <time>2024-09-05T09:36:41.101Z</time>
      </trkpt>
      <trkpt lat="41.147755000000004" lon="-8.60652">
        <ele>104.21663508454866</ele>
        <time>2024-09-05T09:37:51.078Z</time>
      </trkpt>
      <trkpt lat="41.14716" lon="-8.606746666666668">
        <ele>99.51756373969783</ele>
        <time>2024-09-05T09:38:57.099Z</time>
      </trkpt>
      <trkpt lat="41.147063333333335" lon="-8.606898333333334">
        <ele>92.21778698556562</ele>
        <time>2024-09-05T09:39:12.105Z</time>
      </trkpt>
      <trkpt lat="41.147505" lon="-8.608643333333333">
        <ele>87.81808785192851</ele>
        <time>2024-09-05T09:41:08.078Z</time>
      </trkpt>
      <trkpt lat="41.147436666666664" lon="-8.608806666666668">
        <ele>81.61826241655626</ele>
        <time>2024-09-05T09:41:24.098Z</time>
      </trkpt>
      <trkpt lat="41.14754833333333" lon="-8.609053333333332">
        <ele>78.51824342386988</ele>
        <time>2024-09-05T09:41:41.099Z</time>
      </trkpt>
      <trkpt lat="41.147839999999995" lon="-8.610700000000001">
        <ele>88.41869223901885</ele>
        <time>2024-09-05T09:43:15.075Z</time>
      </trkpt>
      <trkpt lat="41.14777333333333" lon="-8.611038333333333">
        <ele>77.21895326240796</ele>
        <time>2024-09-05T09:43:46.096Z</time>
      </trkpt>
      <trkpt lat="41.14764166666667" lon="-8.61116">
        <ele>76.41920054220463</ele>
        <time>2024-09-05T09:44:06.108Z</time>
      </trkpt>
      <trkpt lat="41.14765333333333" lon="-8.611278333333333">
        <ele>76.61921447069798</ele>
        <time>2024-09-05T09:44:35.091Z</time>
      </trkpt>
      <trkpt lat="41.147614999999995" lon="-8.611023333333332">
        <ele>78.31915795038884</ele>
        <time>2024-09-05T09:48:01.101Z</time>
      </trkpt>
      <trkpt lat="41.147603333333336" lon="-8.611183333333335">
        <ele>74.8192826986124</ele>
        <time>2024-09-05T09:51:21.086Z</time>
      </trkpt>
      <trkpt lat="41.147681666666664" lon="-8.611233333333333">
        <ele>74.21919671194735</ele>
        <time>2024-09-05T09:51:31.078Z</time>
      </trkpt>
      <trkpt lat="41.14772166666667" lon="-8.611144999999999">
        <ele>81.31909369299439</ele>
        <time>2024-09-05T09:53:11.089Z</time>
      </trkpt>
      <trkpt lat="41.147706666666664" lon="-8.611231666666667">
        <ele>88.21910153103224</ele>
        <time>2024-09-05T09:55:43.098Z</time>
      </trkpt>
      <trkpt lat="41.147708333333334" lon="-8.611131666666667">
        <ele>80.41910996109148</ele>
        <time>2024-09-05T10:13:07.085Z</time>
      </trkpt>
      <trkpt lat="41.147738333333336" lon="-8.611198333333334">
        <ele>83.21909888514523</ele>
        <time>2024-09-05T10:15:29.065Z</time>
      </trkpt>
      <trkpt lat="41.14759833333333" lon="-8.61124">
        <ele>77.11930269091272</ele>
        <time>2024-09-05T10:16:56.059Z</time>
      </trkpt>
      <trkpt lat="41.147395" lon="-8.61106">
        <ele>73.71949941747681</ele>
        <time>2024-09-05T10:17:15.085Z</time>
      </trkpt>
      <trkpt lat="41.14732000000001" lon="-8.610836666666668">
        <ele>73.41948359124373</ele>
        <time>2024-09-05T10:17:37.084Z</time>
      </trkpt>
      <trkpt lat="41.146834999999996" lon="-8.610965">
        <ele>69.12021386944281</ele>
        <time>2024-09-05T10:18:23.095Z</time>
      </trkpt>
      <trkpt lat="41.146865" lon="-8.610671666666667">
        <ele>67.52004987372601</ele>
        <time>2024-09-05T10:18:43.098Z</time>
      </trkpt>
      <trkpt lat="41.146765" lon="-8.609991666666668">
        <ele>98.11982949246462</ele>
        <time>2024-09-05T10:19:37.101Z</time>
      </trkpt>
      <trkpt lat="41.14663" lon="-8.609751666666666">
        <ele>94.81985345224044</ele>
        <time>2024-09-05T10:24:20.082Z</time>
      </trkpt>
      <trkpt lat="41.146544999999996" lon="-8.609775">
        <ele>94.12000598358426</ele>
        <time>2024-09-05T10:25:00.075Z</time>
      </trkpt>
      <trkpt lat="41.14618" lon="-8.610326666666667">
        <ele>67.02079678743173</ele>
        <time>2024-09-05T10:25:54.095Z</time>
      </trkpt>
      <trkpt lat="41.14603999999999" lon="-8.610163333333333">
        <ele>66.4209271355329</ele>
        <time>2024-09-05T10:26:14.053Z</time>
      </trkpt>
      <trkpt lat="41.146106666666675" lon="-8.610223333333332">
        <ele>69.12087244360275</ele>
        <time>2024-09-05T10:26:41.092Z</time>
      </trkpt>
      <trkpt lat="41.146116666666664" lon="-8.61015">
        <ele>73.32079482376999</ele>
        <time>2024-09-05T10:29:22.088Z</time>
      </trkpt>
      <trkpt lat="41.14619833333333" lon="-8.610198333333333">
        <ele>83.62073405614353</ele>
        <time>2024-09-05T10:33:11.088Z</time>
      </trkpt>
      <trkpt lat="41.145936666666664" lon="-8.610328333333333">
        <ele>82.42114512891416</ele>
        <time>2024-09-05T10:35:37.089Z</time>
      </trkpt>
      <trkpt lat="41.14593833333333" lon="-8.609841666666666">
        <ele>83.22090232569576</ele>
        <time>2024-09-05T10:36:21.089Z</time>
      </trkpt>
      <trkpt lat="41.14591833333334" lon="-8.610263333333334">
        <ele>70.2211074204295</ele>
        <time>2024-09-05T10:44:00.088Z</time>
      </trkpt>
      <trkpt lat="41.145823333333325" lon="-8.610438333333333">
        <ele>66.42132308498188</ele>
        <time>2024-09-05T10:44:16.053Z</time>
      </trkpt>
      <trkpt lat="41.145701666666675" lon="-8.61064">
        <ele>66.52163855649366</ele>
        <time>2024-09-05T10:44:27.098Z</time>
      </trkpt>
      <trkpt lat="41.145453333333336" lon="-8.610668333333333">
        <ele>56.02191757102137</ele>
        <time>2024-09-05T10:47:31.089Z</time>
      </trkpt>
      <trkpt lat="41.14539333333334" lon="-8.610536666666667">
        <ele>58.12202299666436</ele>
        <time>2024-09-05T10:57:02.082Z</time>
      </trkpt>
      <trkpt lat="41.145705" lon="-8.610656666666667">
        <ele>72.72168566501938</ele>
        <time>2024-09-05T11:01:23.079Z</time>
      </trkpt>
      <trkpt lat="41.145786666666666" lon="-8.610451666666668">
        <ele>74.22147544179435</ele>
        <time>2024-09-05T11:01:32.056Z</time>
      </trkpt>
      <trkpt lat="41.146103333333336" lon="-8.610196666666667">
        <ele>77.22085849569817</ele>
        <time>2024-09-05T11:01:50.085Z</time>
      </trkpt>
      <trkpt lat="41.14585666666667" lon="-8.609801666666668">
        <ele>77.02093339673652</ele>
        <time>2024-09-05T11:02:10.099Z</time>
      </trkpt>
      <trkpt lat="41.14510166666667" lon="-8.609725">
        <ele>105.32100148834834</ele>
        <time>2024-09-05T11:02:12.084Z</time>
      </trkpt>
      <trkpt lat="41.145075" lon="-8.609611666666666">
        <ele>286.72200865516334</ele>
        <time>2024-09-05T11:02:13.098Z</time>
      </trkpt>
      <trkpt lat="41.144968333333324" lon="-8.609786666666668">
        <ele>225.22195076394735</ele>
        <time>2024-09-05T11:02:17.096Z</time>
      </trkpt>
      <trkpt lat="41.14584" lon="-8.609698333333334">
        <ele>96.42095882341795</ele>
        <time>2024-09-05T11:02:31.094Z</time>
      </trkpt>
      <trkpt lat="41.14598666666667" lon="-8.609521666666666">
        <ele>65.22066963763788</ele>
        <time>2024-09-05T11:07:08.098Z</time>
      </trkpt>
      <trkpt lat="41.145966666666666" lon="-8.608861666666666">
        <ele>59.420361301832294</ele>
        <time>2024-09-05T11:08:08.088Z</time>
      </trkpt>
      <trkpt lat="41.14589333333333" lon="-8.608596666666667">
        <ele>59.920317842377436</ele>
        <time>2024-09-05T11:08:35.089Z</time>
      </trkpt>
      <trkpt lat="41.145768333333336" lon="-8.608463333333333">
        <ele>65.0204187676606</ele>
        <time>2024-09-05T11:08:53.085Z</time>
      </trkpt>
      <trkpt lat="41.145799999999994" lon="-8.60833">
        <ele>70.82030520075682</ele>
        <time>2024-09-05T11:09:09.063Z</time>
      </trkpt>
      <trkpt lat="41.14576999999999" lon="-8.608390000000002">
        <ele>78.82036823803128</ele>
        <time>2024-09-05T11:09:25.102Z</time>
      </trkpt>
      <trkpt lat="41.14566" lon="-8.608313333333333">
        <ele>83.62048918210078</ele>
        <time>2024-09-05T11:09:50.099Z</time>
      </trkpt>
      <trkpt lat="41.145689999999995" lon="-8.608053333333334">
        <ele>94.52032596192089</ele>
        <time>2024-09-05T11:17:15.091Z</time>
      </trkpt>
      <trkpt lat="41.145608333333335" lon="-8.607996666666667">
        <ele>93.7203847034987</ele>
        <time>2024-09-05T11:17:27.053Z</time>
      </trkpt>
      <trkpt lat="41.14560166666667" lon="-8.60767">
        <ele>94.62024535979178</ele>
        <time>2024-09-05T11:17:47.088Z</time>
      </trkpt>
      <trkpt lat="41.14541666666667" lon="-8.607426666666667">
        <ele>97.62037013924515</ele>
        <time>2024-09-05T11:18:15.092Z</time>
      </trkpt>
      <trkpt lat="41.14549333333333" lon="-8.607215">
        <ele>97.72016041424556</ele>
        <time>2024-09-05T11:18:52.091Z</time>
      </trkpt>
      <trkpt lat="41.145435" lon="-8.607183333333333">
        <ele>103.7202112816063</ele>
        <time>2024-09-05T11:26:25.104Z</time>
      </trkpt>
      <trkpt lat="41.145463333333325" lon="-8.607088333333333">
        <ele>103.22019153512623</ele>
        <time>2024-09-05T11:26:48.068Z</time>
      </trkpt>
      <trkpt lat="41.14528833333334" lon="-8.607131666666668">
        <ele>108.32038567614364</ele>
        <time>2024-09-05T11:27:41.088Z</time>
      </trkpt>
      <trkpt lat="41.14499166666666" lon="-8.60689">
        <ele>100.4206959267874</ele>
        <time>2024-09-05T11:28:40.059Z</time>
      </trkpt>
      <trkpt lat="41.14545499999999" lon="-8.607181666666666">
        <ele>95.62019152382888</ele>
        <time>2024-09-05T11:29:34.102Z</time>
      </trkpt>
      <trkpt lat="41.145471666666666" lon="-8.607275">
        <ele>99.72019846395408</ele>
        <time>2024-09-05T11:29:44.085Z</time>
      </trkpt>
      <trkpt lat="41.14540166666667" lon="-8.607308333333332">
        <ele>101.72031875806616</ele>
        <time>2024-09-05T11:29:58.088Z</time>
      </trkpt>
      <trkpt lat="41.14544666666667" lon="-8.607188333333333">
        <ele>107.12020517832329</ele>
        <time>2024-09-05T11:30:42.095Z</time>
      </trkpt>
      <trkpt lat="41.14550333333333" lon="-8.607328333333333">
        <ele>107.02020802849542</ele>
        <time>2024-09-05T11:31:01.098Z</time>
      </trkpt>
      <trkpt lat="41.14568333333333" lon="-8.607328333333333">
        <ele>104.6199566824319</ele>
        <time>2024-09-05T11:31:15.098Z</time>
      </trkpt>
      <trkpt lat="41.145791666666675" lon="-8.60718">
        <ele>101.71972578281294</ele>
        <time>2024-09-05T11:34:31.118Z</time>
      </trkpt>
      <trkpt lat="41.14594999999999" lon="-8.607353333333332">
        <ele>101.91958600034395</ele>
        <time>2024-09-05T11:34:44.072Z</time>
      </trkpt>
      <trkpt lat="41.14590499999999" lon="-8.607406666666666">
        <ele>102.01965771730957</ele>
        <time>2024-09-05T11:34:48.052Z</time>
      </trkpt>
      <trkpt lat="41.14567666666667" lon="-8.607103333333333">
        <ele>102.31980919092972</ele>
        <time>2024-09-05T11:35:10.091Z</time>
      </trkpt>
      <trkpt lat="41.145675" lon="-8.607305">
        <ele>101.11992939074156</ele>
        <time>2024-09-05T11:35:26.082Z</time>
      </trkpt>
      <trkpt lat="41.14549166666667" lon="-8.6075">
        <ele>101.32028380170229</ele>
        <time>2024-09-05T11:35:42.082Z</time>
      </trkpt>
      <trkpt lat="41.14512666666666" lon="-8.607365">
        <ele>103.92069457615818</ele>
        <time>2024-09-05T11:36:42.096Z</time>
      </trkpt>
      <trkpt lat="41.145161666666674" lon="-8.607155">
        <ele>106.32058621873391</ele>
        <time>2024-09-05T11:37:19.051Z</time>
      </trkpt>
      <trkpt lat="41.1451" lon="-8.607218333333332">
        <ele>109.22068882785177</ele>
        <time>2024-09-05T11:37:41.104Z</time>
      </trkpt>
      <trkpt lat="41.14512" lon="-8.607380000000001">
        <ele>106.02075793717728</ele>
        <time>2024-09-05T11:37:51.078Z</time>
      </trkpt>
      <trkpt lat="41.14512333333334" lon="-8.606981666666666">
        <ele>124.02054443292855</ele>
        <time>2024-09-05T11:41:26.082Z</time>
      </trkpt>
      <trkpt lat="41.14535166666666" lon="-8.607345">
        <ele>118.12042598949657</ele>
        <time>2024-09-05T11:43:23.095Z</time>
      </trkpt>
      <trkpt lat="41.14553166666666" lon="-8.607190000000001">
        <ele>105.12009620670845</ele>
        <time>2024-09-05T11:43:43.094Z</time>
      </trkpt>
      <trkpt lat="41.14557" lon="-8.60735">
        <ele>102.52011154477424</ele>
        <time>2024-09-05T11:43:52.092Z</time>
      </trkpt>
      <trkpt lat="41.14571333333333" lon="-8.607433333333335">
        <ele>103.51995896006727</ele>
        <time>2024-09-05T11:44:44.085Z</time>
      </trkpt>
      <trkpt lat="41.14561666666667" lon="-8.607345">
        <ele>102.1200179755271</ele>
        <time>2024-09-05T11:46:45.075Z</time>
      </trkpt>
      <trkpt lat="41.14567333333333" lon="-8.607493333333334">
        <ele>98.92004814074156</ele>
        <time>2024-09-05T11:48:53.053Z</time>
      </trkpt>
      <trkpt lat="41.14554833333333" lon="-8.607241666666665">
        <ele>100.6200851436484</ele>
        <time>2024-09-05T11:52:12.059Z</time>
      </trkpt>
      <trkpt lat="41.14564" lon="-8.60729">
        <ele>111.52006974853415</ele>
        <time>2024-09-05T11:55:23.082Z</time>
      </trkpt>
      <trkpt lat="41.145705" lon="-8.607371666666667">
        <ele>109.41997993162055</ele>
        <time>2024-09-05T11:56:25.092Z</time>
      </trkpt>
      <trkpt lat="41.145435" lon="-8.60724">
        <ele>108.82022956889459</ele>
        <time>2024-09-05T11:56:44.088Z</time>
      </trkpt>
      <trkpt lat="41.14538833333333" lon="-8.60746">
        <ele>102.22041169732009</ele>
        <time>2024-09-05T11:57:11.092Z</time>
      </trkpt>
      <trkpt lat="41.145316666666666" lon="-8.607431666666667">
        <ele>101.12050675047296</ele>
        <time>2024-09-05T11:57:20.088Z</time>
      </trkpt>
      <trkpt lat="41.14536499999999" lon="-8.607603333333333">
        <ele>96.42050930487395</ele>
        <time>2024-09-05T11:59:26.056Z</time>
      </trkpt>
      <trkpt lat="41.14530500000001" lon="-8.607516666666667">
        <ele>96.92053662059256</ele>
        <time>2024-09-05T11:59:43.085Z</time>
      </trkpt>
      <trkpt lat="41.145255" lon="-8.607560000000001">
        <ele>98.32064768022504</ele>
        <time>2024-09-05T11:59:52.046Z</time>
      </trkpt>
      <trkpt lat="41.14524333333334" lon="-8.607896666666667">
        <ele>95.72083504471235</ele>
        <time>2024-09-05T12:03:27.091Z</time>
      </trkpt>
      <trkpt lat="41.14476666666666" lon="-8.608113333333334">
        <ele>91.52161641880255</ele>
        <time>2024-09-05T12:04:30.092Z</time>
      </trkpt>
      <trkpt lat="41.144450000000006" lon="-8.608741666666667">
        <ele>87.92239225099205</ele>
        <time>2024-09-05T12:09:38.089Z</time>
      </trkpt>
      <trkpt lat="41.144281666666664" lon="-8.608878333333333">
        <ele>93.82269177005507</ele>
        <time>2024-09-05T12:09:56.079Z</time>
      </trkpt>
      <trkpt lat="41.144279999999995" lon="-8.609066666666667">
        <ele>101.32280464879358</ele>
        <time>2024-09-05T12:10:10.101Z</time>
      </trkpt>
      <trkpt lat="41.14421000000001" lon="-8.609053333333332">
        <ele>89.82285910479521</ele>
        <time>2024-09-05T12:10:41.085Z</time>
      </trkpt>
      <trkpt lat="41.144270000000006" lon="-8.609119999999999">
        <ele>88.12285644997999</ele>
        <time>2024-09-05T12:11:18.089Z</time>
      </trkpt>
      <trkpt lat="41.14418333333333" lon="-8.609015">
        <ele>87.32290368857886</ele>
        <time>2024-09-05T12:12:08.082Z</time>
      </trkpt>
      <trkpt lat="41.14420166666667" lon="-8.609303333333335">
        <ele>84.12303546903505</ele>
        <time>2024-09-05T12:12:32.088Z</time>
      </trkpt>
      <trkpt lat="41.144105" lon="-8.6097">
        <ele>81.42339003984092</ele>
        <time>2024-09-05T12:13:09.095Z</time>
      </trkpt>
      <trkpt lat="41.144035" lon="-8.609668333333333">
        <ele>82.82342268644929</ele>
        <time>2024-09-05T12:14:02.095Z</time>
      </trkpt>
      <trkpt lat="41.14409666666667" lon="-8.609776666666667">
        <ele>84.62346347243201</ele>
        <time>2024-09-05T12:14:40.085Z</time>
      </trkpt>
      <trkpt lat="41.14402833333334" lon="-8.609665">
        <ele>83.92347921189779</ele>
        <time>2024-09-05T12:17:53.085Z</time>
      </trkpt>
      <trkpt lat="41.14382833333334" lon="-8.610048333333333">
        <ele>75.72393797569083</ele>
        <time>2024-09-05T12:22:00.095Z</time>
      </trkpt>
      <trkpt lat="41.14384666666667" lon="-8.610241666666667">
        <ele>75.82403753778951</ele>
        <time>2024-09-05T12:22:17.098Z</time>
      </trkpt>
      <trkpt lat="41.14363" lon="-8.610341666666667">
        <ele>76.72439431227005</ele>
        <time>2024-09-05T12:22:43.088Z</time>
      </trkpt>
      <trkpt lat="41.14365166666666" lon="-8.610521666666667">
        <ele>75.82443648709557</ele>
        <time>2024-09-05T12:24:06.082Z</time>
      </trkpt>
      <trkpt lat="41.14345166666667" lon="-8.610546666666666">
        <ele>73.32473566925896</ele>
        <time>2024-09-05T12:24:32.069Z</time>
      </trkpt>
      <trkpt lat="41.14311666666667" lon="-8.610333333333333">
        <ele>76.62510539005913</ele>
        <time>2024-09-05T12:25:23.095Z</time>
      </trkpt>
      <trkpt lat="41.14315666666666" lon="-8.610533333333333">
        <ele>80.02515894493746</ele>
        <time>2024-09-05T12:30:52.088Z</time>
      </trkpt>
      <trkpt lat="41.143055000000004" lon="-8.610746666666667">
        <ele>81.82539866042818</ele>
        <time>2024-09-05T12:31:50.085Z</time>
      </trkpt>
      <trkpt lat="41.14298" lon="-8.611246666666666">
        <ele>90.42574156682875</ele>
        <time>2024-09-05T12:32:36.055Z</time>
      </trkpt>
      <trkpt lat="41.14311666666667" lon="-8.611313333333333">
        <ele>85.02562007165842</ele>
        <time>2024-09-05T12:32:47.062Z</time>
      </trkpt>
      <trkpt lat="41.14307" lon="-8.611435">
        <ele>87.22574988523584</ele>
        <time>2024-09-05T12:34:57.086Z</time>
      </trkpt>
      <trkpt lat="41.14308333333334" lon="-8.611373333333335">
        <ele>84.62569533109598</ele>
        <time>2024-09-05T12:38:37.088Z</time>
      </trkpt>
      <trkpt lat="41.143" lon="-8.611398333333334">
        <ele>83.62581529007252</ele>
        <time>2024-09-05T12:39:27.091Z</time>
      </trkpt>
      <trkpt lat="41.14288333333334" lon="-8.611731666666666">
        <ele>76.7261397101345</ele>
        <time>2024-09-05T12:39:51.099Z</time>
      </trkpt>
      <trkpt lat="41.14273333333334" lon="-8.611701666666667">
        <ele>78.5263485059681</ele>
        <time>2024-09-05T12:40:06.068Z</time>
      </trkpt>
      <trkpt lat="41.142668333333326" lon="-8.611753333333333">
        <ele>83.92646996960033</ele>
        <time>2024-09-05T12:40:19.062Z</time>
      </trkpt>
      <trkpt lat="41.14270666666666" lon="-8.61183">
        <ele>82.12646727719215</ele>
        <time>2024-09-05T12:40:55.088Z</time>
      </trkpt>
      <trkpt lat="41.142734999999995" lon="-8.611706666666667">
        <ele>98.82636076431405</ele>
        <time>2024-09-05T12:45:16.089Z</time>
      </trkpt>
      <trkpt lat="41.142738333333334" lon="-8.611818333333334">
        <ele>88.62642318257582</ele>
        <time>2024-09-05T12:46:48.092Z</time>
      </trkpt>
      <trkpt lat="41.14261666666666" lon="-8.611763333333332">
        <ele>93.62653362416884</ele>
        <time>2024-09-05T12:48:38.076Z</time>
      </trkpt>
      <trkpt lat="41.142231666666675" lon="-8.612008333333334">
        <ele>80.92721212885051</ele>
        <time>2024-09-05T12:49:19.061Z</time>
      </trkpt>
      <trkpt lat="41.14196833333334" lon="-8.611931666666667">
        <ele>75.22753397267283</ele>
        <time>2024-09-05T12:51:17.092Z</time>
      </trkpt>
      <trkpt lat="41.14169333333333" lon="-8.611748333333333">
        <ele>67.52783434747354</ele>
        <time>2024-09-05T12:51:46.095Z</time>
      </trkpt>
      <trkpt lat="41.14174166666667" lon="-8.611368333333333">
        <ele>69.02762258769033</ele>
        <time>2024-09-05T12:53:50.085Z</time>
      </trkpt>
      <trkpt lat="41.141588333333324" lon="-8.611376666666667">
        <ele>67.22778784256883</ele>
        <time>2024-09-05T12:54:22.084Z</time>
      </trkpt>
      <trkpt lat="41.141528333333326" lon="-8.611081666666667">
        <ele>59.627729563263195</ele>
        <time>2024-09-05T12:56:11.053Z</time>
      </trkpt>
      <trkpt lat="41.14134166666666" lon="-8.611303333333332">
        <ele>48.428089363414784</ele>
        <time>2024-09-05T12:57:17.092Z</time>
      </trkpt>
      <trkpt lat="41.141261666666665" lon="-8.611621666666668">
        <ele>38.928363190729165</ele>
        <time>2024-09-05T12:57:50.101Z</time>
      </trkpt>
      <trkpt lat="41.141326666666664" lon="-8.611655">
        <ele>37.6282999825155</ele>
        <time>2024-09-05T12:58:06.053Z</time>
      </trkpt>
      <trkpt lat="41.141081666666665" lon="-8.612283333333332">
        <ele>25.628967162149287</ele>
        <time>2024-09-05T12:59:42.115Z</time>
      </trkpt>
      <trkpt lat="41.14102" lon="-8.61227">
        <ele>26.129054376093812</ele>
        <time>2024-09-05T13:00:00.056Z</time>
      </trkpt>
      <trkpt lat="41.14100499999999" lon="-8.612426666666666">
        <ele>35.12915697737861</ele>
        <time>2024-09-05T13:01:03.085Z</time>
      </trkpt>
      <trkpt lat="41.14101333333333" lon="-8.612743333333333">
        <ele>32.7293109993182</ele>
        <time>2024-09-05T13:02:19.091Z</time>
      </trkpt>
      <trkpt lat="41.14105833333333" lon="-8.612808333333334">
        <ele>32.82928606390336</ele>
        <time>2024-09-05T13:02:30.056Z</time>
      </trkpt>
      <trkpt lat="41.14095333333333" lon="-8.612781666666667">
        <ele>36.4294084503965</ele>
        <time>2024-09-05T13:02:44.081Z</time>
      </trkpt>
      <trkpt lat="41.140843333333336" lon="-8.612568333333334">
        <ele>35.1294648059025</ele>
        <time>2024-09-05T13:02:58.095Z</time>
      </trkpt>
      <trkpt lat="41.14101000000001" lon="-8.612475">
        <ele>27.029186509846078</ele>
        <time>2024-09-05T13:03:48.092Z</time>
      </trkpt>
      <trkpt lat="41.14091" lon="-8.612541666666667">
        <ele>24.429338081624735</ele>
        <time>2024-09-05T13:04:52.085Z</time>
      </trkpt>
      <trkpt lat="41.14088333333334" lon="-8.612425">
        <ele>18.429338452997143</ele>
        <time>2024-09-05T13:05:04.091Z</time>
      </trkpt>
      <trkpt lat="41.140775" lon="-8.612373333333332">
        <ele>15.32945734629756</ele>
        <time>2024-09-05T13:05:07.094Z</time>
      </trkpt>
      <trkpt lat="41.14088166666667" lon="-8.612298333333333">
        <ele>9.929279133224426</ele>
        <time>2024-09-05T13:05:21.088Z</time>
      </trkpt>
      <trkpt lat="41.14079333333334" lon="-8.612223333333333">
        <ele>5.929358227917206</ele>
        <time>2024-09-05T13:05:32.084Z</time>
      </trkpt>
      <trkpt lat="41.14098333333333" lon="-8.612246666666666">
        <ele>7.429097128789131</ele>
        <time>2024-09-05T13:05:45.096Z</time>
      </trkpt>
      <trkpt lat="41.14097333333334" lon="-8.61205">
        <ele>12.22901180558378</ele>
        <time>2024-09-05T13:06:07.088Z</time>
      </trkpt>
      <trkpt lat="41.14082833333334" lon="-8.612055">
        <ele>10.729201760018348</ele>
        <time>2024-09-05T13:06:28.092Z</time>
      </trkpt>
      <trkpt lat="41.140811666666664" lon="-8.611858333333334">
        <ele>22.029134870320284</ele>
        <time>2024-09-05T13:06:49.092Z</time>
      </trkpt>
      <trkpt lat="41.140665000000006" lon="-8.612231666666666">
        <ele>28.629537978662782</ele>
        <time>2024-09-05T13:08:18.091Z</time>
      </trkpt>
      <trkpt lat="41.14077166666666" lon="-8.61227">
        <ele>29.329415869302366</ele>
        <time>2024-09-05T13:09:13.089Z</time>
      </trkpt>
      <trkpt lat="41.140721666666664" lon="-8.612128333333334">
        <ele>30.329421531121028</ele>
        <time>2024-09-05T13:09:45.052Z</time>
      </trkpt>
      <trkpt lat="41.14073499999999" lon="-8.612293333333334">
        <ele>30.329465042162013</ele>
        <time>2024-09-05T13:09:50.062Z</time>
      </trkpt>
      <trkpt lat="41.140629999999994" lon="-8.612365">
        <ele>30.229615771301347</ele>
        <time>2024-09-05T13:09:54.056Z</time>
      </trkpt>
      <trkpt lat="41.14039666666666" lon="-8.612005">
        <ele>27.72979257105178</ele>
        <time>2024-09-05T13:10:13.052Z</time>
      </trkpt>
      <trkpt lat="41.14050833333334" lon="-8.612116666666667">
        <ele>27.729749814903933</ele>
        <time>2024-09-05T13:10:15.059Z</time>
      </trkpt>
      <trkpt lat="41.14046333333334" lon="-8.612305">
        <ele>26.529840710324308</ele>
        <time>2024-09-05T13:10:19.053Z</time>
      </trkpt>
      <trkpt lat="41.14051500000001" lon="-8.612355">
        <ele>26.229830988986635</ele>
        <time>2024-09-05T13:10:22.053Z</time>
      </trkpt>
      <trkpt lat="41.14045333333333" lon="-8.612321666666666">
        <ele>25.82987495507558</ele>
        <time>2024-09-05T13:10:27.053Z</time>
      </trkpt>
      <trkpt lat="41.140445" lon="-8.612163333333333">
        <ele>25.529809757202266</ele>
        <time>2024-09-05T13:10:52.055Z</time>
      </trkpt>
      <trkpt lat="41.14060833333333" lon="-8.612508333333333">
        <ele>25.529778799202028</ele>
        <time>2024-09-05T13:11:03.086Z</time>
      </trkpt>
      <trkpt lat="41.14054666666666" lon="-8.612860000000001">
        <ele>24.730018338485777</ele>
        <time>2024-09-05T13:11:08.091Z</time>
      </trkpt>
      <trkpt lat="41.14040333333334" lon="-8.612878333333333">
        <ele>14.730244732409275</ele>
        <time>2024-09-05T13:11:36.063Z</time>
      </trkpt>
      <trkpt lat="41.140344999999996" lon="-8.612658333333334">
        <ele>10.330212681012043</ele>
        <time>2024-09-05T13:12:01.058Z</time>
      </trkpt>
      <trkpt lat="41.140269999999994" lon="-8.61271">
        <ele>9.13033861549382</ele>
        <time>2024-09-05T13:32:13.099Z</time>
      </trkpt>
      <trkpt lat="41.14040166666667" lon="-8.612670000000001">
        <ele>12.430151452387648</ele>
        <time>2024-09-05T13:45:51.049Z</time>
      </trkpt>
      <trkpt lat="41.140451666666664" lon="-8.612546666666667">
        <ele>10.630010662953907</ele>
        <time>2024-09-05T13:46:03.072Z</time>
      </trkpt>
      <trkpt lat="41.14077166666666" lon="-8.610001666666667">
        <ele>19.028224440922507</ele>
        <time>2024-09-05T13:52:02.094Z</time>
      </trkpt>
      <trkpt lat="41.14082666666666" lon="-8.60995">
        <ele>18.728121237792443</ele>
        <time>2024-09-05T13:52:17.049Z</time>
      </trkpt>
      <trkpt lat="41.140775" lon="-8.609731666666667">
        <ele>16.02808188397784</ele>
        <time>2024-09-05T13:52:42.056Z</time>
      </trkpt>
      <trkpt lat="41.14177166666666" lon="-8.605248333333332">
        <ele>14.024326999258186</ele>
        <time>2024-09-05T13:57:49.089Z</time>
      </trkpt>
      <trkpt lat="41.14182000000001" lon="-8.604716666666667">
        <ele>14.423982274655131</ele>
        <time>2024-09-05T13:58:20.091Z</time>
      </trkpt>
      <trkpt lat="41.14175166666667" lon="-8.604006666666667">
        <ele>14.923706729228186</ele>
        <time>2024-09-05T13:59:05.095Z</time>
      </trkpt>
      <trkpt lat="41.141940000000005" lon="-8.602818333333333">
        <ele>10.522825994833283</ele>
        <time>2024-09-05T14:00:20.095Z</time>
      </trkpt>
      <trkpt lat="41.142055" lon="-8.601536666666668">
        <ele>9.321989442294218</ele>
        <time>2024-09-05T14:01:40.105Z</time>
      </trkpt>
      <trkpt lat="41.14207666666666" lon="-8.600458333333334">
        <ele>7.92139387690073</ele>
        <time>2024-09-05T14:02:44.082Z</time>
      </trkpt>
      <trkpt lat="41.14190833333334" lon="-8.599661666666666">
        <ele>7.721204478239585</ele>
        <time>2024-09-05T14:03:37.086Z</time>
      </trkpt>
      <trkpt lat="41.141799999999996" lon="-8.599368333333333">
        <ele>8.12119601345308</ele>
        <time>2024-09-05T14:03:58.046Z</time>
      </trkpt>
      <trkpt lat="41.141724999999994" lon="-8.59935">
        <ele>9.221291114796067</ele>
        <time>2024-09-05T14:04:14.048Z</time>
      </trkpt>
      <trkpt lat="41.141795" lon="-8.59926">
        <ele>7.521156446785589</ele>
        <time>2024-09-05T14:04:59.085Z</time>
      </trkpt>
      <trkpt lat="41.14178333333333" lon="-8.599111666666666">
        <ele>7.321084887465901</ele>
        <time>2024-09-05T14:05:18.101Z</time>
      </trkpt>
      <trkpt lat="41.14183833333333" lon="-8.599221666666667">
        <ele>7.021070651565957</ele>
        <time>2024-09-05T14:05:42.096Z</time>
      </trkpt>
      <trkpt lat="41.141844999999996" lon="-8.599068333333333">
        <ele>18.920989793490058</ele>
        <time>2024-09-05T14:06:35.174Z</time>
      </trkpt>
      <trkpt lat="41.141965" lon="-8.599160000000001">
        <ele>27.720865938054814</ele>
        <time>2024-09-05T14:07:39.101Z</time>
      </trkpt>
      <trkpt lat="41.14181833333334" lon="-8.598645">
        <ele>24.4207955000375</ele>
        <time>2024-09-05T14:08:54.101Z</time>
      </trkpt>
      <trkpt lat="41.14147500000001" lon="-8.598181666666667">
        <ele>34.321029768549444</ele>
        <time>2024-09-05T14:10:47.081Z</time>
      </trkpt>
      <trkpt lat="41.14159500000001" lon="-8.598161666666666">
        <ele>30.320855011885868</ele>
        <time>2024-09-05T14:14:22.082Z</time>
      </trkpt>
      <trkpt lat="41.141506666666665" lon="-8.598193333333334">
        <ele>32.12099167792076</ele>
        <time>2024-09-05T14:16:24.081Z</time>
      </trkpt>
      <trkpt lat="41.141490000000005" lon="-8.598053333333333">
        <ele>28.02093989277919</ele>
        <time>2024-09-05T14:18:46.068Z</time>
      </trkpt>
      <trkpt lat="41.141600000000004" lon="-8.597813333333333">
        <ele>39.520667417281466</ele>
        <time>2024-09-05T14:19:49.058Z</time>
      </trkpt>
      <trkpt lat="41.141445000000004" lon="-8.597815">
        <ele>40.32087674297395</ele>
        <time>2024-09-05T14:20:38.053Z</time>
      </trkpt>
      <trkpt lat="41.141826666666674" lon="-8.59772">
        <ele>39.72030261189633</ele>
        <time>2024-09-05T14:22:36.063Z</time>
      </trkpt>
      <trkpt lat="41.141528333333326" lon="-8.59784">
        <ele>37.12078865470484</ele>
        <time>2024-09-05T14:23:44.088Z</time>
      </trkpt>
      <trkpt lat="41.141465000000004" lon="-8.598035000000001">
        <ele>29.52095355224578</ele>
        <time>2024-09-05T14:24:19.108Z</time>
      </trkpt>
      <trkpt lat="41.14097666666667" lon="-8.596845">
        <ele>34.22107305435836</ele>
        <time>2024-09-05T14:26:45.076Z</time>
      </trkpt>
      <trkpt lat="41.14110000000001" lon="-8.597308333333332">
        <ele>38.92109062665442</ele>
        <time>2024-09-05T14:27:40.089Z</time>
      </trkpt>
      <trkpt lat="41.14151833333334" lon="-8.598158333333334">
        <ele>32.02095415840898</ele>
        <time>2024-09-05T14:30:15.086Z</time>
      </trkpt>
      <trkpt lat="41.141580000000005" lon="-8.598151666666666">
        <ele>30.720936421727828</ele>
        <time>2024-09-05T14:31:05.052Z</time>
      </trkpt>
      <trkpt lat="41.141465000000004" lon="-8.598251666666666">
        <ele>30.62107660120037</ele>
        <time>2024-09-05T14:32:36.101Z</time>
      </trkpt>
      <trkpt lat="41.14157" lon="-8.59813">
        <ele>27.62091258234627</ele>
        <time>2024-09-05T14:33:47.096Z</time>
      </trkpt>
      <trkpt lat="41.141525" lon="-8.598001666666667">
        <ele>27.620866027312395</ele>
        <time>2024-09-05T14:34:02.094Z</time>
      </trkpt>
      <trkpt lat="41.14161833333333" lon="-8.597771666666667">
        <ele>33.12061391932596</ele>
        <time>2024-09-05T14:34:58.101Z</time>
      </trkpt>
      <trkpt lat="41.141670000000005" lon="-8.597825">
        <ele>36.22057613989718</ele>
        <time>2024-09-05T14:35:12.078Z</time>
      </trkpt>
      <trkpt lat="41.141803333333336" lon="-8.597688333333334">
        <ele>41.5203182998715</ele>
        <time>2024-09-05T14:35:33.072Z</time>
      </trkpt>
      <trkpt lat="41.141850000000005" lon="-8.598076666666666">
        <ele>56.720449754530044</ele>
        <time>2024-09-05T14:36:37.088Z</time>
      </trkpt>
      <trkpt lat="41.14191833333333" lon="-8.598091666666667">
        <ele>62.62037186585808</ele>
        <time>2024-09-05T14:36:48.084Z</time>
      </trkpt>
      <trkpt lat="41.142136666666666" lon="-8.598413333333333">
        <ele>69.62023184892502</ele>
        <time>2024-09-05T14:37:29.085Z</time>
      </trkpt>
      <trkpt lat="41.14292833333334" lon="-8.600823333333333">
        <ele>74.42038873335021</ele>
        <time>2024-09-05T14:40:19.102Z</time>
      </trkpt>
      <trkpt lat="41.14292666666667" lon="-8.60185">
        <ele>71.22092360202936</ele>
        <time>2024-09-05T14:41:32.094Z</time>
      </trkpt>
      <trkpt lat="41.14442999999999" lon="-8.602745">
        <ele>97.21930878603658</ele>
        <time>2024-09-05T14:44:24.101Z</time>
      </trkpt>
      <trkpt lat="41.14536833333333" lon="-8.603248333333333">
        <ele>106.91827188817796</ele>
        <time>2024-09-05T14:45:48.058Z</time>
      </trkpt>
      <trkpt lat="41.14541666666667" lon="-8.603196666666665">
        <ele>101.71816135462564</ele>
        <time>2024-09-05T14:45:57.071Z</time>
      </trkpt>
      <trkpt lat="41.14541333333333" lon="-8.603418333333334">
        <ele>98.01827214865806</ele>
        <time>2024-09-05T14:46:30.072Z</time>
      </trkpt>
      <trkpt lat="41.14570666666667" lon="-8.603250000000001">
        <ele>99.23231205432151</ele>
        <time>2024-09-05T14:47:13.473Z</time>
      </trkpt>
      <trkpt lat="41.14581806808417" lon="-8.603288288872477">
        <ele>99.78059491512886</ele>
        <time>2024-09-05T14:48:50.276Z</time>
      </trkpt>
      <trkpt lat="41.145759950142235" lon="-8.60339346782277">
        <ele>99.14206596054379</ele>
        <time>2024-09-05T14:49:09.727Z</time>
      </trkpt>
      <trkpt lat="41.14599499999999" lon="-8.60335">
        <ele>101.01744146890982</ele>
        <time>2024-09-05T15:45:51.332Z</time>
      </trkpt>
      <trkpt lat="41.146058333333336" lon="-8.603485000000001">
        <ele>99.0174156415487</ele>
        <time>2024-09-05T15:46:09.331Z</time>
      </trkpt>
      <trkpt lat="41.14629333333334" lon="-8.60352">
        <ele>98.1171060162211</ele>
        <time>2024-09-05T15:46:29.331Z</time>
      </trkpt>
      <trkpt lat="41.146363333333326" lon="-8.604291666666667">
        <ele>101.01740445726773</ele>
        <time>2024-09-05T15:47:25.322Z</time>
      </trkpt>
      <trkpt lat="41.14657999999999" lon="-8.604643333333334">
        <ele>98.91729709830499</ele>
        <time>2024-09-05T15:49:11.325Z</time>
      </trkpt>
      <trkpt lat="41.14653833333333" lon="-8.604815">
        <ele>94.71741737814708</ele>
        <time>2024-09-05T15:49:21.285Z</time>
      </trkpt>
      <trkpt lat="41.14698333333334" lon="-8.606796666666666">
        <ele>84.11785344273608</ele>
        <time>2024-09-05T15:51:40.325Z</time>
      </trkpt>
      <trkpt lat="41.14694666666666" lon="-8.606868333333333">
        <ele>85.617941011651</ele>
        <time>2024-09-05T15:51:51.327Z</time>
      </trkpt>
      <trkpt lat="41.14703166666666" lon="-8.606948333333333">
        <ele>93.01786730013258</ele>
        <time>2024-09-05T15:52:31.327Z</time>
      </trkpt>
      <trkpt lat="41.14738333333333" lon="-8.608441666666666">
        <ele>71.41815119323672</ele>
        <time>2024-09-05T15:54:20.319Z</time>
      </trkpt>
      <trkpt lat="41.14730666666666" lon="-8.608621666666666">
        <ele>67.41834055921193</ele>
        <time>2024-09-05T15:54:35.319Z</time>
      </trkpt>
      <trkpt lat="41.14678333333333" lon="-8.608965000000001">
        <ele>91.41925297923376</ele>
        <time>2024-09-05T15:55:32.317Z</time>
      </trkpt>
      <trkpt lat="41.14688666666666" lon="-8.609201666666667">
        <ele>92.11924675639236</ele>
        <time>2024-09-05T15:55:48.322Z</time>
      </trkpt>
      <trkpt lat="41.146865" lon="-8.60951">
        <ele>85.21942111512104</ele>
        <time>2024-09-05T15:56:12.329Z</time>
      </trkpt>
      <trkpt lat="41.14665" lon="-8.609771666666667">
        <ele>73.81986885067768</ele>
        <time>2024-09-05T15:56:41.324Z</time>
      </trkpt>
      <trkpt lat="41.14672" lon="-8.609953333333333">
        <ele>75.119859746184</ele>
        <time>2024-09-05T15:56:55.308Z</time>
      </trkpt>
      <trkpt lat="41.146836666666665" lon="-8.609955000000001">
        <ele>79.6197275566476</ele>
        <time>2024-09-05T15:57:05.328Z</time>
      </trkpt>
      <trkpt lat="41.147344999999994" lon="-8.610515">
        <ele>70.81929388291609</ele>
        <time>2024-09-05T15:57:55.318Z</time>
      </trkpt>
      <trkpt lat="41.14745833333333" lon="-8.610430000000001">
        <ele>69.61913364297445</ele>
        <time>2024-09-05T15:58:09.311Z</time>
      </trkpt>
      <trkpt lat="41.14746166666667" lon="-8.610721666666667">
        <ele>67.91923915855487</ele>
        <time>2024-09-05T15:58:30.276Z</time>
      </trkpt>
      <trkpt lat="41.14740666666667" lon="-8.610485">
        <ele>68.41919834451855</ele>
        <time>2024-09-05T15:58:46.329Z</time>
      </trkpt>
      <trkpt lat="41.147014999999996" lon="-8.610131666666666">
        <ele>74.41954706285581</ele>
        <time>2024-09-05T15:59:28.321Z</time>
      </trkpt>
      <trkpt lat="41.146785" lon="-8.610035">
        <ele>67.01981494070719</ele>
        <time>2024-09-05T15:59:47.314Z</time>
      </trkpt>
      <trkpt lat="41.146744999999996" lon="-8.609713333333334">
        <ele>68.31972129509302</ele>
        <time>2024-09-05T16:00:08.318Z</time>
      </trkpt>
      <trkpt lat="41.14681" lon="-8.609596666666667">
        <ele>79.81957904158206</ele>
        <time>2024-09-05T16:00:18.325Z</time>
      </trkpt>
      <trkpt lat="41.147401666666674" lon="-8.609375">
        <ele>85.01863846486668</ele>
        <time>2024-09-05T16:01:16.331Z</time>
      </trkpt>
      <trkpt lat="41.14755333333333" lon="-8.609568333333334">
        <ele>84.01851560089982</ele>
        <time>2024-09-05T16:01:27.317Z</time>
      </trkpt>
      <trkpt lat="41.147785000000006" lon="-8.610818333333333">
        <ele>57.51883699131248</ele>
        <time>2024-09-05T16:02:58.331Z</time>
      </trkpt>
      <trkpt lat="41.14773166666667" lon="-8.61088">
        <ele>58.91889243024724</ele>
        <time>2024-09-05T16:03:44.318Z</time>
      </trkpt>
      <trkpt lat="41.14782166666667" lon="-8.611233333333333">
        <ele>66.21899696755939</ele>
        <time>2024-09-05T16:04:13.328Z</time>
      </trkpt>
      <trkpt lat="41.14778" lon="-8.611369999999999">
        <ele>67.11912577850329</ele>
        <time>2024-09-05T16:04:23.315Z</time>
      </trkpt>
      <trkpt lat="41.148043333333334" lon="-8.611835000000001">
        <ele>64.01901192583209</ele>
        <time>2024-09-05T16:05:06.321Z</time>
      </trkpt>
      <trkpt lat="41.14790333333334" lon="-8.61232">
        <ele>73.51945292800099</ele>
        <time>2024-09-05T16:06:36.335Z</time>
      </trkpt>
      <trkpt lat="41.14798833333332" lon="-8.613014999999999">
        <ele>81.51969406000433</ele>
        <time>2024-09-05T16:07:40.324Z</time>
      </trkpt>
      <trkpt lat="41.14805666666666" lon="-8.613106666666665">
        <ele>84.01964896377635</ele>
        <time>2024-09-05T16:07:47.279Z</time>
      </trkpt>
      <trkpt lat="41.147955" lon="-8.613261666666666">
        <ele>88.01985479669247</ele>
        <time>2024-09-05T16:08:09.298Z</time>
      </trkpt>
      <trkpt lat="41.14700333333334" lon="-8.613603333333334">
        <ele>77.62136001284244</ele>
        <time>2024-09-05T16:09:35.334Z</time>
      </trkpt>
      <trkpt lat="41.14673333333334" lon="-8.613615000000001">
        <ele>70.52175040676295</ele>
        <time>2024-09-05T16:10:03.318Z</time>
      </trkpt>
      <trkpt lat="41.14671166666667" lon="-8.613673333333333">
        <ele>71.1217698667395</ele>
        <time>2024-09-05T16:10:35.318Z</time>
      </trkpt>
      <trkpt lat="41.14677833333334" lon="-8.613683333333334">
        <ele>84.22174453781858</ele>
        <time>2024-09-05T16:11:04.286Z</time>
      </trkpt>
      <trkpt lat="41.14621333333333" lon="-8.613593333333334">
        <ele>73.72247250680473</ele>
        <time>2024-09-05T16:12:33.321Z</time>
      </trkpt>
      <trkpt lat="41.14611333333334" lon="-8.613695">
        <ele>71.62266079724644</ele>
        <time>2024-09-05T16:12:45.318Z</time>
      </trkpt>
      <trkpt lat="41.14600833333334" lon="-8.613615000000001">
        <ele>76.32276656262621</ele>
        <time>2024-09-05T16:12:55.321Z</time>
      </trkpt>
      <trkpt lat="41.14593833333333" lon="-8.613826666666666">
        <ele>75.02298509752083</ele>
        <time>2024-09-05T16:13:59.347Z</time>
      </trkpt>
      <trkpt lat="41.14602333333334" lon="-8.613750000000001">
        <ele>76.12284536181036</ele>
        <time>2024-09-05T16:15:27.317Z</time>
      </trkpt>
      <trkpt lat="41.14626333333334" lon="-8.613871666666666">
        <ele>69.32255757819351</ele>
        <time>2024-09-05T16:15:57.325Z</time>
      </trkpt>
      <trkpt lat="41.146273333333326" lon="-8.614155">
        <ele>73.12267993241437</ele>
        <time>2024-09-05T16:16:11.324Z</time>
      </trkpt>
      <trkpt lat="41.14680333333334" lon="-8.615065">
        <ele>87.32242932125709</ele>
        <time>2024-09-05T16:18:00.308Z</time>
      </trkpt>
      <trkpt lat="41.14691" lon="-8.615078333333335">
        <ele>87.42229276803462</ele>
        <time>2024-09-05T16:18:18.325Z</time>
      </trkpt>
      <trkpt lat="41.14680166666667" lon="-8.615165">
        <ele>90.82247870565647</ele>
        <time>2024-09-05T16:18:49.331Z</time>
      </trkpt>
      <trkpt lat="41.14669166666666" lon="-8.615071666666667">
        <ele>93.42258388917958</ele>
        <time>2024-09-05T16:19:23.285Z</time>
      </trkpt>
      <trkpt lat="41.14710166666667" lon="-8.615018333333333">
        <ele>83.32199623565046</ele>
        <time>2024-09-05T16:20:15.327Z</time>
      </trkpt>
      <trkpt lat="41.14717" lon="-8.614896666666668">
        <ele>83.42182872940211</ele>
        <time>2024-09-05T16:20:29.322Z</time>
      </trkpt>
      <trkpt lat="41.14728166666667" lon="-8.615">
        <ele>85.42173495016752</ele>
        <time>2024-09-05T16:20:43.328Z</time>
      </trkpt>
      <trkpt lat="41.14747166666666" lon="-8.61487">
        <ele>92.22143745292553</ele>
        <time>2024-09-05T16:21:39.327Z</time>
      </trkpt>
      <trkpt lat="41.147389999999994" lon="-8.614815">
        <ele>106.3214531939508</ele>
        <time>2024-09-05T16:23:39.324Z</time>
      </trkpt>
      <trkpt lat="41.14722833333334" lon="-8.614913333333334">
        <ele>102.42173677746794</ele>
        <time>2024-09-05T16:24:02.319Z</time>
      </trkpt>
      <trkpt lat="41.14723000000001" lon="-8.615235">
        <ele>94.92191078555734</ele>
        <time>2024-09-05T16:24:17.328Z</time>
      </trkpt>
      <trkpt lat="41.14712666666666" lon="-8.615264999999999">
        <ele>90.522074589721</ele>
        <time>2024-09-05T16:24:31.321Z</time>
      </trkpt>
      <trkpt lat="41.147198333333336" lon="-8.616000000000001">
        <ele>85.22235857807587</ele>
        <time>2024-09-05T16:26:14.318Z</time>
      </trkpt>
      <trkpt lat="41.14713833333334" lon="-8.616125">
        <ele>89.42250807467161</ele>
        <time>2024-09-05T16:26:32.289Z</time>
      </trkpt>
      <trkpt lat="41.14726" lon="-8.616286666666667">
        <ele>88.32243397460117</ele>
        <time>2024-09-05T16:27:05.306Z</time>
      </trkpt>
      <trkpt lat="41.14736833333333" lon="-8.616269999999998">
        <ele>86.32227824324278</ele>
        <time>2024-09-05T16:27:22.317Z</time>
      </trkpt>
      <trkpt lat="41.14726166666666" lon="-8.616366666666666">
        <ele>86.32244555377635</ele>
        <time>2024-09-05T16:27:40.311Z</time>
      </trkpt>
      <trkpt lat="41.14734333333334" lon="-8.617028333333334">
        <ele>86.02268916398035</ele>
        <time>2024-09-05T16:28:25.317Z</time>
      </trkpt>
      <trkpt lat="41.14729333333333" lon="-8.61776">
        <ele>79.4231380592646</ele>
        <time>2024-09-05T16:29:11.299Z</time>
      </trkpt>
      <trkpt lat="41.14720333333333" lon="-8.617998333333333">
        <ele>90.82339647444968</ele>
        <time>2024-09-05T16:30:14.291Z</time>
      </trkpt>
      <trkpt lat="41.147288333333336" lon="-8.617933333333333">
        <ele>91.72324389834895</ele>
        <time>2024-09-05T16:31:12.284Z</time>
      </trkpt>
      <trkpt lat="41.14721833333333" lon="-8.61811">
        <ele>93.5234348096509</ele>
        <time>2024-09-05T16:31:38.285Z</time>
      </trkpt>
      <trkpt lat="41.147945" lon="-8.618281666666666">
        <ele>85.32252505659606</ele>
        <time>2024-09-05T16:33:01.296Z</time>
      </trkpt>
      <trkpt lat="41.14796666666666" lon="-8.618426666666666">
        <ele>81.32254791588191</ele>
        <time>2024-09-05T16:33:12.321Z</time>
      </trkpt>
      <trkpt lat="41.14778333333334" lon="-8.619753333333334">
        <ele>69.92349385664382</ele>
        <time>2024-09-05T16:34:41.331Z</time>
      </trkpt>
      <trkpt lat="41.147648333333336" lon="-8.620041666666667">
        <ele>80.22384173917246</ele>
        <time>2024-09-05T16:35:00.288Z</time>
      </trkpt>
      <trkpt lat="41.14721833333333" lon="-8.620366666666666">
        <ele>85.02461363226026</ele>
        <time>2024-09-05T16:36:15.305Z</time>
      </trkpt>
      <trkpt lat="41.147315" lon="-8.620521666666667">
        <ele>85.72456503255846</ele>
        <time>2024-09-05T16:40:20.340Z</time>
      </trkpt>
      <trkpt lat="41.14728166666667" lon="-8.620651666666667">
        <ele>86.62466841181589</ele>
        <time>2024-09-05T16:40:45.325Z</time>
      </trkpt>
      <trkpt lat="41.147445" lon="-8.621721666666668">
        <ele>82.12500891354381</ele>
        <time>2024-09-05T16:42:04.328Z</time>
      </trkpt>
      <trkpt lat="41.14732166666666" lon="-8.621736666666667">
        <ele>81.6251798256304</ele>
        <time>2024-09-05T16:43:09.331Z</time>
      </trkpt>
      <trkpt lat="41.147445" lon="-8.621768333333334">
        <ele>84.32510246682344</ele>
        <time>2024-09-05T16:44:11.321Z</time>
      </trkpt>
      <trkpt lat="41.147478333333325" lon="-8.621884999999999">
        <ele>86.82505828784942</ele>
        <time>2024-09-05T16:44:28.325Z</time>
      </trkpt>
      <trkpt lat="41.147356666666674" lon="-8.621836666666667">
        <ele>86.52518847110684</ele>
        <time>2024-09-05T16:45:23.315Z</time>
      </trkpt>
      <trkpt lat="41.147434999999994" lon="-8.621821666666667">
        <ele>83.62508522201527</ele>
        <time>2024-09-05T16:45:39.296Z</time>
      </trkpt>
      <trkpt lat="41.14741333333333" lon="-8.621916666666667">
        <ele>83.82515218125513</ele>
        <time>2024-09-05T16:46:08.275Z</time>
      </trkpt>
      <trkpt lat="41.14736" lon="-8.621876666666667">
        <ele>82.5252027093735</ele>
        <time>2024-09-05T16:46:18.301Z</time>
      </trkpt>
      <trkpt lat="41.14750166666666" lon="-8.62181">
        <ele>85.22499040889656</ele>
        <time>2024-09-05T16:46:40.321Z</time>
      </trkpt>
      <trkpt lat="41.14728" lon="-8.621775000000001">
        <ele>88.72526790137142</ele>
        <time>2024-09-05T16:47:09.328Z</time>
      </trkpt>
      <trkpt lat="41.147470000000006" lon="-8.621806666666666">
        <ele>93.02502835389595</ele>
        <time>2024-09-05T16:47:42.329Z</time>
      </trkpt>
      <trkpt lat="41.147996666666664" lon="-8.623761666666667">
        <ele>79.42530378506649</ele>
        <time>2024-09-05T16:50:12.335Z</time>
      </trkpt>
      <trkpt lat="41.148545" lon="-8.625319999999999">
        <ele>74.32535758294114</ele>
        <time>2024-09-05T16:52:05.319Z</time>
      </trkpt>
      <trkpt lat="41.148258333333324" lon="-8.625505">
        <ele>76.32584177916723</ele>
        <time>2024-09-05T16:52:21.331Z</time>
      </trkpt>
      <trkpt lat="41.148068333333335" lon="-8.62586">
        <ele>81.4262970137975</ele>
        <time>2024-09-05T16:52:50.308Z</time>
      </trkpt>
      <trkpt lat="41.14776666666667" lon="-8.625905">
        <ele>80.92673709873475</ele>
        <time>2024-09-05T16:53:24.325Z</time>
      </trkpt>
      <trkpt lat="41.147845000000004" lon="-8.626788333333334">
        <ele>86.32710531891064</ele>
        <time>2024-09-05T16:54:44.312Z</time>
      </trkpt>
      <trkpt lat="41.147945" lon="-8.627080000000001">
        <ele>79.12712212307868</ele>
        <time>2024-09-05T16:55:17.325Z</time>
      </trkpt>
      <trkpt lat="41.14790500000001" lon="-8.62719">
        <ele>82.52721518267845</ele>
        <time>2024-09-05T16:55:46.325Z</time>
      </trkpt>
      <trkpt lat="41.147973333333326" lon="-8.627233333333333">
        <ele>83.02715752884717</ele>
        <time>2024-09-05T16:56:16.321Z</time>
      </trkpt>
      <trkpt lat="41.14773666666667" lon="-8.627543333333334">
        <ele>73.92764513800518</ele>
        <time>2024-09-05T16:57:06.309Z</time>
      </trkpt>
      <trkpt lat="41.14745333333334" lon="-8.627653333333335">
        <ele>78.52811247740759</ele>
        <time>2024-09-05T16:58:55.318Z</time>
      </trkpt>
      <trkpt lat="41.14738166666666" lon="-8.627696666666667">
        <ele>81.42823026919072</ele>
        <time>2024-09-05T17:00:30.325Z</time>
      </trkpt>
      <trkpt lat="41.14742" lon="-8.62765">
        <ele>82.72815751888922</ele>
        <time>2024-09-05T17:01:04.317Z</time>
      </trkpt>
      <trkpt lat="41.14727666666666" lon="-8.627614999999999">
        <ele>99.02832398826007</ele>
        <time>2024-09-05T17:08:10.328Z</time>
      </trkpt>
      <trkpt lat="41.14686166666667" lon="-8.627761666666666">
        <ele>75.12897587891814</ele>
        <time>2024-09-05T17:08:50.334Z</time>
      </trkpt>
      <trkpt lat="41.14675833333334" lon="-8.628006666666666">
        <ele>61.329270792941344</ele>
        <time>2024-09-05T17:09:21.322Z</time>
      </trkpt>
      <trkpt lat="41.14663666666667" lon="-8.627640000000001">
        <ele>72.72925234980633</ele>
        <time>2024-09-05T17:10:21.282Z</time>
      </trkpt>
      <trkpt lat="41.14607666666667" lon="-8.627696666666667">
        <ele>65.93005335029751</ele>
        <time>2024-09-05T17:12:06.308Z</time>
      </trkpt>
      <trkpt lat="41.14591666666667" lon="-8.627576666666666">
        <ele>73.33023307515712</ele>
        <time>2024-09-05T17:13:33.328Z</time>
      </trkpt>
      <trkpt lat="41.14586333333333" lon="-8.62767">
        <ele>77.93034456131693</ele>
        <time>2024-09-05T17:13:52.294Z</time>
      </trkpt>
      <trkpt lat="41.14564833333334" lon="-8.627273333333333">
        <ele>82.43044507779362</ele>
        <time>2024-09-05T17:15:13.286Z</time>
      </trkpt>
      <trkpt lat="41.14571666666667" lon="-8.626663333333333">
        <ele>71.13003269128306</ele>
        <time>2024-09-05T17:17:53.340Z</time>
      </trkpt>
      <trkpt lat="41.145611666666674" lon="-8.626795">
        <ele>76.33024164639158</ele>
        <time>2024-09-05T17:19:04.295Z</time>
      </trkpt>
      <trkpt lat="41.14567" lon="-8.626710000000001">
        <ele>74.4301272316049</ele>
        <time>2024-09-05T17:19:18.288Z</time>
      </trkpt>
      <trkpt lat="41.14567333333333" lon="-8.626776666666666">
        <ele>75.1301453040911</ele>
        <time>2024-09-05T17:19:33.321Z</time>
      </trkpt>
      <trkpt lat="41.145599999999995" lon="-8.626771666666667">
        <ele>74.63023259914753</ele>
        <time>2024-09-05T17:20:05.289Z</time>
      </trkpt>
      <trkpt lat="41.14569166666667" lon="-8.626731666666666">
        <ele>75.63011928450942</ele>
        <time>2024-09-05T17:20:17.319Z</time>
      </trkpt>
      <trkpt lat="41.14562666666667" lon="-8.626748333333333">
        <ele>74.33020040316927</ele>
        <time>2024-09-05T17:21:56.292Z</time>
      </trkpt>
      <trkpt lat="41.145865" lon="-8.626203333333333">
        <ele>73.52959180566042</ele>
        <time>2024-09-05T17:25:01.318Z</time>
      </trkpt>
      <trkpt lat="41.14597666666667" lon="-8.625648333333334">
        <ele>67.72913686852266</ele>
        <time>2024-09-05T17:25:41.321Z</time>
      </trkpt>
      <trkpt lat="41.14611333333334" lon="-8.625725">
        <ele>69.62898312085146</ele>
        <time>2024-09-05T17:26:11.325Z</time>
      </trkpt>
      <trkpt lat="41.14630666666667" lon="-8.625631666666667">
        <ele>77.6286722142338</ele>
        <time>2024-09-05T17:26:43.325Z</time>
      </trkpt>
      <trkpt lat="41.14644499999999" lon="-8.625726666666667">
        <ele>80.328521128685</ele>
        <time>2024-09-05T17:26:57.329Z</time>
      </trkpt>
      <trkpt lat="41.14638333333334" lon="-8.625843333333334">
        <ele>82.62865756697508</ele>
        <time>2024-09-05T17:27:15.288Z</time>
      </trkpt>
      <trkpt lat="41.146525000000004" lon="-8.626405">
        <ele>78.42875329468636</ele>
        <time>2024-09-05T17:28:16.325Z</time>
      </trkpt>
      <trkpt lat="41.14675166666666" lon="-8.626823333333334">
        <ele>78.82866428612131</ele>
        <time>2024-09-05T17:28:50.329Z</time>
      </trkpt>
      <trkpt lat="41.146905" lon="-8.626886666666667">
        <ele>80.62849069037088</ele>
        <time>2024-09-05T17:29:01.318Z</time>
      </trkpt>
      <trkpt lat="41.14785" lon="-8.626470000000001">
        <ele>80.02695210404119</ele>
        <time>2024-09-05T17:30:34.328Z</time>
      </trkpt>
      <trkpt lat="41.14758833333334" lon="-8.625793333333332">
        <ele>82.22695660684812</ele>
        <time>2024-09-05T17:31:29.328Z</time>
      </trkpt>
      <trkpt lat="41.14763166666667" lon="-8.625675">
        <ele>80.42683439461268</ele>
        <time>2024-09-05T17:31:36.322Z</time>
      </trkpt>
      <trkpt lat="41.14779166666667" lon="-8.625656666666666">
        <ele>108.5266065740413</ele>
        <time>2024-09-05T17:31:54.321Z</time>
      </trkpt>
      <trkpt lat="41.147838333333326" lon="-8.625373333333332">
        <ele>85.42638938803341</ele>
        <time>2024-09-05T17:32:17.319Z</time>
      </trkpt>
      <trkpt lat="41.14835333333334" lon="-8.625454999999999">
        <ele>77.82570932202924</ele>
        <time>2024-09-05T17:33:03.331Z</time>
      </trkpt>
      <trkpt lat="41.14863833333334" lon="-8.625816666666667">
        <ele>77.5254910788062</ele>
        <time>2024-09-05T17:33:37.311Z</time>
      </trkpt>
      <trkpt lat="41.148804999999996" lon="-8.626661666666667">
        <ele>84.92569176223265</ele>
        <time>2024-09-05T17:34:35.324Z</time>
      </trkpt>
      <trkpt lat="41.1486" lon="-8.627136666666667">
        <ele>79.02620543919755</ele>
        <time>2024-09-05T17:35:10.322Z</time>
      </trkpt>
      <trkpt lat="41.148095" lon="-8.627171666666667">
        <ele>75.12694548589471</ele>
        <time>2024-09-05T17:35:47.321Z</time>
      </trkpt>
      <trkpt lat="41.14791833333334" lon="-8.627383333333334">
        <ele>67.72729320026684</ele>
        <time>2024-09-05T17:36:03.322Z</time>
      </trkpt>
      <trkpt lat="41.14784833333333" lon="-8.627853333333332">
        <ele>60.92765488078534</ele>
        <time>2024-09-05T17:36:35.322Z</time>
      </trkpt>
      <trkpt lat="41.147915" lon="-8.628138333333334">
        <ele>57.727715239451314</ele>
        <time>2024-09-05T17:37:10.328Z</time>
      </trkpt>
      <trkpt lat="41.14787" lon="-8.628408333333335">
        <ele>57.727913335722675</ele>
        <time>2024-09-05T17:37:31.318Z</time>
      </trkpt>
      <trkpt lat="41.14792166666666" lon="-8.628525">
        <ele>56.92790697663589</ele>
        <time>2024-09-05T17:37:43.328Z</time>
      </trkpt>
      <trkpt lat="41.148035" lon="-8.628483333333332">
        <ele>59.427728996931755</ele>
        <time>2024-09-05T17:37:58.315Z</time>
      </trkpt>
      <trkpt lat="41.14789833333332" lon="-8.628476666666668">
        <ele>60.827912004099176</ele>
        <time>2024-09-05T17:38:18.322Z</time>
      </trkpt>
      <trkpt lat="41.14789166666666" lon="-8.628018333333333">
        <ele>59.227669226048405</ele>
        <time>2024-09-05T17:39:03.288Z</time>
      </trkpt>
      <trkpt lat="41.14780166666666" lon="-8.62848">
        <ele>58.92805093794607</ele>
        <time>2024-09-05T17:39:34.315Z</time>
      </trkpt>
      <trkpt lat="41.147536666666674" lon="-8.628738333333333">
        <ele>45.72854860610477</ele>
        <time>2024-09-05T17:40:06.327Z</time>
      </trkpt>
      <trkpt lat="41.147843333333334" lon="-8.629528333333333">
        <ele>34.12854612402675</ele>
        <time>2024-09-05T17:42:00.286Z</time>
      </trkpt>
      <trkpt lat="41.14764166666667" lon="-8.62964">
        <ele>45.828882095618404</ele>
        <time>2024-09-05T17:42:29.327Z</time>
      </trkpt>
      <trkpt lat="41.14764166666667" lon="-8.630013333333332">
        <ele>27.029089233700383</ele>
        <time>2024-09-05T17:43:34.299Z</time>
      </trkpt>
      <trkpt lat="41.147526666666664" lon="-8.630035">
        <ele>32.729240813691014</ele>
        <time>2024-09-05T17:43:59.322Z</time>
      </trkpt>
      <trkpt lat="41.14697666666666" lon="-8.631043333333334">
        <ele>20.3305513389518</ele>
        <time>2024-09-05T17:45:32.321Z</time>
      </trkpt>
      <trkpt lat="41.146834999999996" lon="-8.63117">
        <ele>20.530819533644696</ele>
        <time>2024-09-05T17:46:01.304Z</time>
      </trkpt>
      <trkpt lat="41.147164999999994" lon="-8.631683333333333">
        <ele>12.93063488344714</ele>
        <time>2024-09-05T17:47:19.282Z</time>
      </trkpt>
      <trkpt lat="41.14681333333333" lon="-8.632045">
        <ele>8.531306337845919</ele>
        <time>2024-09-05T17:48:17.295Z</time>
      </trkpt>
      <trkpt lat="41.14705666666667" lon="-8.632551666666666">
        <ele>15.431238854971994</ele>
        <time>2024-09-05T17:49:02.319Z</time>
      </trkpt>
      <trkpt lat="41.14759333333333" lon="-8.633541666666668">
        <ele>6.531008391537206</ele>
        <time>2024-09-05T17:50:52.332Z</time>
      </trkpt>
      <trkpt lat="41.147626666666675" lon="-8.633921666666668">
        <ele>10.131153392719774</ele>
        <time>2024-09-05T17:51:16.305Z</time>
      </trkpt>
      <trkpt lat="41.147805" lon="-8.634398333333333">
        <ele>7.93115720592823</ele>
        <time>2024-09-05T17:51:52.288Z</time>
      </trkpt>
      <trkpt lat="41.14778" lon="-8.634613333333334">
        <ele>10.931306253841292</ele>
        <time>2024-09-05T17:52:12.319Z</time>
      </trkpt>
      <trkpt lat="41.148338333333335" lon="-8.636696666666667">
        <ele>12.23161537361112</ele>
        <time>2024-09-05T17:54:56.319Z</time>
      </trkpt>
      <trkpt lat="41.148356666666665" lon="-8.636866666666666">
        <ele>12.23167486525498</ele>
        <time>2024-09-05T17:55:06.325Z</time>
      </trkpt>
      <trkpt lat="41.14825333333333" lon="-8.636906666666667">
        <ele>13.031823754561636</ele>
        <time>2024-09-05T17:55:20.321Z</time>
      </trkpt>
      <trkpt lat="41.14823666666666" lon="-8.637063333333334">
        <ele>12.531947512685129</ele>
        <time>2024-09-05T17:56:04.329Z</time>
      </trkpt>
      <trkpt lat="41.148293333333335" lon="-8.637771666666668">
        <ele>11.032243515296948</ele>
        <time>2024-09-05T17:57:19.322Z</time>
      </trkpt>
      <trkpt lat="41.148430000000005" lon="-8.638305">
        <ele>-11.467669228468402</ele>
        <time>2024-09-05T17:59:04.328Z</time>
      </trkpt>
      <trkpt lat="41.14845999999999" lon="-8.638836666666666">
        <ele>-8.26743674033839</ele>
        <time>2024-09-05T17:59:41.311Z</time>
      </trkpt>
      <trkpt lat="41.14840666666667" lon="-8.638938333333334">
        <ele>-3.567313972143893</ele>
        <time>2024-09-05T18:00:03.324Z</time>
      </trkpt>
      <trkpt lat="41.14850333333334" lon="-8.640005">
        <ele>-6.766880610367977</ele>
        <time>2024-09-05T18:01:15.334Z</time>
      </trkpt>
      <trkpt lat="41.148121666666675" lon="-8.641901666666666">
        <ele>1.6346610556194676</ele>
        <time>2024-09-05T18:03:43.318Z</time>
      </trkpt>
      <trkpt lat="41.148031666666675" lon="-8.642041666666668">
        <ele>7.334856235908411</ele>
        <time>2024-09-05T18:04:23.302Z</time>
      </trkpt>
      <trkpt lat="41.14792666666667" lon="-8.643111666666666">
        <ele>13.835555545304082</ele>
        <time>2024-09-05T18:07:13.318Z</time>
      </trkpt>
      <trkpt lat="41.147935000000004" lon="-8.6433">
        <ele>13.435643641823873</ele>
        <time>2024-09-05T18:07:41.318Z</time>
      </trkpt>
      <trkpt lat="41.148043333333334" lon="-8.643323333333333">
        <ele>8.235525014659082</ele>
        <time>2024-09-05T18:08:58.325Z</time>
      </trkpt>
      <trkpt lat="41.14809833333334" lon="-8.643481666666666">
        <ele>6.435526160559284</ele>
        <time>2024-09-05T18:09:19.325Z</time>
      </trkpt>
      <trkpt lat="41.14844166666667" lon="-8.645836666666666">
        <ele>17.736288980291746</ele>
        <time>2024-09-05T18:11:43.318Z</time>
      </trkpt>
      <trkpt lat="41.14838833333333" lon="-8.646075">
        <ele>12.536471516940189</ele>
        <time>2024-09-05T18:12:00.315Z</time>
      </trkpt>
      <trkpt lat="41.14845166666667" lon="-8.646721666666668">
        <ele>15.13673610600707</ele>
        <time>2024-09-05T18:12:43.324Z</time>
      </trkpt>
      <trkpt lat="41.14839666666667" lon="-8.647233333333332">
        <ele>11.637078856117824</ele>
        <time>2024-09-05T18:13:17.315Z</time>
      </trkpt>
      <trkpt lat="41.147838333333326" lon="-8.649631666666666">
        <ele>15.439129316009932</ele>
        <time>2024-09-05T18:17:17.325Z</time>
      </trkpt>
      <trkpt lat="41.14800166666667" lon="-8.650905">
        <ele>13.43957840188861</ele>
        <time>2024-09-05T18:18:41.325Z</time>
      </trkpt>
      <trkpt lat="41.148123333333324" lon="-8.651295000000001">
        <ele>16.33961316232667</ele>
        <time>2024-09-05T18:19:07.341Z</time>
      </trkpt>
      <trkpt lat="41.148185" lon="-8.6533">
        <ele>14.04058420254347</ele>
        <time>2024-09-05T18:21:12.328Z</time>
      </trkpt>
      <trkpt lat="41.147119999999994" lon="-8.656821666666668">
        <ele>13.043953482913736</ele>
        <time>2024-09-05T18:25:18.318Z</time>
      </trkpt>
      <trkpt lat="41.14714000000001" lon="-8.656928333333333">
        <ele>15.54398844204357</ele>
        <time>2024-09-05T18:25:27.328Z</time>
      </trkpt>
      <trkpt lat="41.14672333333333" lon="-8.657795">
        <ele>12.14504163946117</ele>
        <time>2024-09-05T18:26:28.292Z</time>
      </trkpt>
      <trkpt lat="41.14664666666666" lon="-8.658231666666667">
        <ele>9.445375945241494</ele>
        <time>2024-09-05T18:26:54.321Z</time>
      </trkpt>
      <trkpt lat="41.146658333333335" lon="-8.658726666666666">
        <ele>9.245629169079145</ele>
        <time>2024-09-05T18:27:24.319Z</time>
      </trkpt>
      <trkpt lat="41.146755" lon="-8.65901">
        <ele>9.845642958263099</ele>
        <time>2024-09-05T18:27:42.329Z</time>
      </trkpt>
      <trkpt lat="41.14681833333334" lon="-8.659686666666666">
        <ele>11.245914124806717</ele>
        <time>2024-09-05T18:28:25.328Z</time>
      </trkpt>
      <trkpt lat="41.146840000000005" lon="-8.660795">
        <ele>8.246459700126245</ele>
        <time>2024-09-05T18:29:31.319Z</time>
      </trkpt>
      <trkpt lat="41.14709833333333" lon="-8.66245">
        <ele>7.2469757554452485</ele>
        <time>2024-09-05T18:31:16.328Z</time>
      </trkpt>
      <trkpt lat="41.14738333333333" lon="-8.663413333333333">
        <ele>11.647089998730785</ele>
        <time>2024-09-05T18:32:18.324Z</time>
      </trkpt>
      <trkpt lat="41.14782" lon="-8.664005">
        <ele>13.546791017489035</ele>
        <time>2024-09-05T18:33:07.322Z</time>
      </trkpt>
      <trkpt lat="41.148066666666665" lon="-8.664543333333334">
        <ele>19.646710639955728</ele>
        <time>2024-09-05T18:33:45.328Z</time>
      </trkpt>
      <trkpt lat="41.147976666666665" lon="-8.665189999999999">
        <ele>9.947175514040083</ele>
        <time>2024-09-05T18:34:26.315Z</time>
      </trkpt>
      <trkpt lat="41.147286666666666" lon="-8.666834999999999">
        <ele>10.649030929050333</ele>
        <time>2024-09-05T18:36:18.331Z</time>
      </trkpt>
      <trkpt lat="41.14726" lon="-8.667401666666667">
        <ele>12.949354042362522</ele>
        <time>2024-09-05T18:36:52.301Z</time>
      </trkpt>
      <trkpt lat="41.14742666666666" lon="-8.667731666666667">
        <ele>9.949332419728478</ele>
        <time>2024-09-05T18:37:17.315Z</time>
      </trkpt>
      <trkpt lat="41.147405" lon="-8.669291666666668">
        <ele>9.25016913588545</ele>
        <time>2024-09-05T18:38:50.321Z</time>
      </trkpt>
      <trkpt lat="41.147495" lon="-8.67008">
        <ele>6.550476126763115</ele>
        <time>2024-09-05T18:39:40.321Z</time>
      </trkpt>
      <trkpt lat="41.14754500000001" lon="-8.671491666666666">
        <ele>7.351150198093883</ele>
        <time>2024-09-05T18:41:06.329Z</time>
      </trkpt>
      <trkpt lat="41.14749833333334" lon="-8.672556666666667">
        <ele>6.651766934677667</ele>
        <time>2024-09-05T18:42:10.334Z</time>
      </trkpt>
      <trkpt lat="41.14757666666666" lon="-8.673663333333334">
        <ele>11.152272547316258</ele>
        <time>2024-09-05T18:43:42.306Z</time>
      </trkpt>
      <trkpt lat="41.14682333333334" lon="-8.676268333333333">
        <ele>5.654725188028642</ele>
        <time>2024-09-05T18:46:18.324Z</time>
      </trkpt>
      <trkpt lat="41.14483166666667" lon="-8.67942">
        <ele>11.459258721706512</ele>
        <time>2024-09-05T18:53:00.321Z</time>
      </trkpt>
      <trkpt lat="41.14474166666667" lon="-8.679595">
        <ele>10.459500068955073</ele>
        <time>2024-09-05T18:53:13.294Z</time>
      </trkpt>
      <trkpt lat="41.144815" lon="-8.679741666666667">
        <ele>11.059481389751745</ele>
        <time>2024-09-05T18:53:31.285Z</time>
      </trkpt>
      <trkpt lat="41.144776666666665" lon="-8.679506666666667">
        <ele>12.159408421848575</ele>
        <time>2024-09-05T18:54:28.295Z</time>
      </trkpt>
      <trkpt lat="41.146838333333335" lon="-8.67631">
        <ele>14.654758412644867</ele>
        <time>2024-09-05T18:59:06.332Z</time>
      </trkpt>
      <trkpt lat="41.14774333333333" lon="-8.672948333333332">
        <ele>11.451648357643982</ele>
        <time>2024-09-05T19:02:48.332Z</time>
      </trkpt>
      <trkpt lat="41.147806666666675" lon="-8.673066666666667">
        <ele>11.151622409747233</ele>
        <time>2024-09-05T19:03:12.328Z</time>
      </trkpt>
      <trkpt lat="41.147748333333325" lon="-8.67303">
        <ele>9.851685911775071</ele>
        <time>2024-09-05T19:03:32.325Z</time>
      </trkpt>
      <trkpt lat="41.147704999999995" lon="-8.672564999999999">
        <ele>10.55150267010658</ele>
        <time>2024-09-05T19:04:05.327Z</time>
      </trkpt>
      <trkpt lat="41.14763166666667" lon="-8.668471666666667">
        <ele>12.34943220401869</ele>
        <time>2024-09-05T19:08:34.331Z</time>
      </trkpt>
      <trkpt lat="41.14750333333333" lon="-8.668090000000001">
        <ele>12.249406553997865</ele>
        <time>2024-09-05T19:09:00.329Z</time>
      </trkpt>
      <trkpt lat="41.14749833333334" lon="-8.667531666666667">
        <ele>10.64912605973965</ele>
        <time>2024-09-05T19:09:36.327Z</time>
      </trkpt>
      <trkpt lat="41.14734833333333" lon="-8.666853333333334">
        <ele>15.348974081227183</ele>
        <time>2024-09-05T19:10:16.312Z</time>
      </trkpt>
      <trkpt lat="41.147445" lon="-8.666516666666666">
        <ele>12.648663086966295</ele>
        <time>2024-09-05T19:10:40.325Z</time>
      </trkpt>
      <trkpt lat="41.147625" lon="-8.666435">
        <ele>10.948362719720457</ele>
        <time>2024-09-05T19:11:05.334Z</time>
      </trkpt>
      <trkpt lat="41.14807333333333" lon="-8.66558">
        <ele>7.747276113181087</ele>
        <time>2024-09-05T19:12:10.321Z</time>
      </trkpt>
      <trkpt lat="41.14815166666667" lon="-8.665323333333333">
        <ele>10.747024303636977</ele>
        <time>2024-09-05T19:12:29.321Z</time>
      </trkpt>
      <trkpt lat="41.148176666666664" lon="-8.664745">
        <ele>8.046674971641387</ele>
        <time>2024-09-05T19:13:06.318Z</time>
      </trkpt>
      <trkpt lat="41.148115000000004" lon="-8.664068333333335">
        <ele>8.14640013801634</ele>
        <time>2024-09-05T19:13:49.325Z</time>
      </trkpt>
      <trkpt lat="41.14784833333333" lon="-8.662905">
        <ele>12.74615696131061</ele>
        <time>2024-09-05T19:15:15.329Z</time>
      </trkpt>
      <trkpt lat="41.14778833333333" lon="-8.66217">
        <ele>11.145863951537386</ele>
        <time>2024-09-05T19:16:03.327Z</time>
      </trkpt>
      <trkpt lat="41.14761" lon="-8.661656666666666">
        <ele>9.445833953423971</ele>
        <time>2024-09-05T19:16:36.318Z</time>
      </trkpt>
      <trkpt lat="41.147595" lon="-8.661361666666666">
        <ele>11.745707300998454</ele>
        <time>2024-09-05T19:16:52.328Z</time>
      </trkpt>
      <trkpt lat="41.14710333333334" lon="-8.659989999999999">
        <ele>14.34566926218114</ele>
        <time>2024-09-05T19:18:28.312Z</time>
      </trkpt>
      <trkpt lat="41.14680166666667" lon="-8.658055">
        <ele>14.54507672523009</ele>
        <time>2024-09-05T19:20:30.329Z</time>
      </trkpt>
      <trkpt lat="41.147344999999994" lon="-8.656823333333334">
        <ele>19.84366069523584</ele>
        <time>2024-09-05T19:21:54.334Z</time>
      </trkpt>
      <trkpt lat="41.14877499999999" lon="-8.654098333333334">
        <ele>9.440172361377797</ele>
        <time>2024-09-05T19:25:22.324Z</time>
      </trkpt>
      <trkpt lat="41.148786666666666" lon="-8.653459999999999">
        <ele>17.13982715733342</ele>
        <time>2024-09-05T19:26:39.329Z</time>
      </trkpt>
      <trkpt lat="41.148571666666676" lon="-8.653158333333332">
        <ele>17.839961314998497</ele>
        <time>2024-09-05T19:27:04.328Z</time>
      </trkpt>
      <trkpt lat="41.14837166666666" lon="-8.653036666666667">
        <ele>13.4401838971745</ele>
        <time>2024-09-05T19:27:22.319Z</time>
      </trkpt>
      <trkpt lat="41.14827666666667" lon="-8.65265">
        <ele>13.540114599722642</ele>
        <time>2024-09-05T19:27:48.331Z</time>
      </trkpt>
      <trkpt lat="41.148154999999996" lon="-8.65193">
        <ele>22.139915115223175</ele>
        <time>2024-09-05T19:28:29.311Z</time>
      </trkpt>
      <trkpt lat="41.14816333333333" lon="-8.651188333333332">
        <ele>14.339511233829917</ele>
        <time>2024-09-05T19:29:13.325Z</time>
      </trkpt>
      <trkpt lat="41.148031666666675" lon="-8.650751666666668">
        <ele>17.13946188104019</ele>
        <time>2024-09-05T19:29:43.325Z</time>
      </trkpt>
      <trkpt lat="41.14797" lon="-8.649773333333334">
        <ele>12.939024823269044</ele>
        <time>2024-09-05T19:30:53.332Z</time>
      </trkpt>
      <trkpt lat="41.148015" lon="-8.649759999999999">
        <ele>12.538964675982157</ele>
        <time>2024-09-05T19:31:07.328Z</time>
      </trkpt>
      <trkpt lat="41.14792666666667" lon="-8.64979">
        <ele>15.039066662681655</ele>
        <time>2024-09-05T19:32:06.319Z</time>
      </trkpt>
      <trkpt lat="41.14809166666667" lon="-8.649726666666668">
        <ele>21.2388367799052</ele>
        <time>2024-09-05T19:32:38.319Z</time>
      </trkpt>
      <trkpt lat="41.147941666666675" lon="-8.649743333333333">
        <ele>23.439039925845286</ele>
        <time>2024-09-05T19:32:55.322Z</time>
      </trkpt>
      <trkpt lat="41.148015" lon="-8.649783333333334">
        <ele>25.23897612456266</ele>
        <time>2024-09-05T19:33:09.318Z</time>
      </trkpt>
      <trkpt lat="41.147965000000006" lon="-8.649785000000001">
        <ele>26.53904363336948</ele>
        <time>2024-09-05T19:33:25.321Z</time>
      </trkpt>
      <trkpt lat="41.148041666666664" lon="-8.649711666666667">
        <ele>27.038912554995726</ele>
        <time>2024-09-05T19:33:30.317Z</time>
      </trkpt>
      <trkpt lat="41.147980000000004" lon="-8.649623333333333">
        <ele>18.63894229010195</ele>
        <time>2024-09-05T19:33:40.315Z</time>
      </trkpt>
      <trkpt lat="41.148266666666665" lon="-8.649004999999999">
        <ele>14.838218811033556</ele>
        <time>2024-09-05T19:34:33.327Z</time>
      </trkpt>
      <trkpt lat="41.148573333333324" lon="-8.647735">
        <ele>16.137117608853977</ele>
        <time>2024-09-05T19:36:04.328Z</time>
      </trkpt>
      <trkpt lat="41.148581666666665" lon="-8.646508333333333">
        <ele>18.03644659686394</ele>
        <time>2024-09-05T19:37:22.325Z</time>
      </trkpt>
      <trkpt lat="41.14845833333334" lon="-8.646013333333334">
        <ele>30.736356199923613</ele>
        <time>2024-09-05T19:37:50.319Z</time>
      </trkpt>
      <trkpt lat="41.14846666666667" lon="-8.645651666666668">
        <ele>33.436156347039365</ele>
        <time>2024-09-05T19:38:18.314Z</time>
      </trkpt>
      <trkpt lat="41.14834333333333" lon="-8.645413333333332">
        <ele>33.33619868191432</ele>
        <time>2024-09-05T19:38:39.325Z</time>
      </trkpt>
      <trkpt lat="41.148215" lon="-8.644601666666667">
        <ele>38.83595600783644</ele>
        <time>2024-09-05T19:39:34.319Z</time>
      </trkpt>
      <trkpt lat="41.148018333333326" lon="-8.642776666666666">
        <ele>28.135280315511096</ele>
        <time>2024-09-05T19:41:39.324Z</time>
      </trkpt>
      <trkpt lat="41.14818333333333" lon="-8.641566666666668">
        <ele>13.63439345620045</ele>
        <time>2024-09-05T19:42:52.294Z</time>
      </trkpt>
      <trkpt lat="41.14823500000001" lon="-8.641609999999998">
        <ele>12.634359265619473</ele>
        <time>2024-09-05T19:43:01.285Z</time>
      </trkpt>
      <trkpt lat="41.14833" lon="-8.641485">
        <ele>15.834149431300133</ele>
        <time>2024-09-05T19:43:14.279Z</time>
      </trkpt>
      <trkpt lat="41.148393333333324" lon="-8.641588333333335">
        <ele>20.534140312066576</ele>
        <time>2024-09-05T19:45:11.308Z</time>
      </trkpt>
      <trkpt lat="41.148293333333335" lon="-8.641531666666667">
        <ele>20.134221619041263</ele>
        <time>2024-09-05T19:47:33.314Z</time>
      </trkpt>
      <trkpt lat="41.148671666666665" lon="-8.640591666666667">
        <ele>29.1332105665431</ele>
        <time>2024-09-05T19:49:19.321Z</time>
      </trkpt>
      <trkpt lat="41.14861166666666" lon="-8.640508333333335">
        <ele>26.93324947941693</ele>
        <time>2024-09-05T19:49:34.325Z</time>
      </trkpt>
      <trkpt lat="41.148671666666665" lon="-8.639946666666667">
        <ele>18.53287079325697</ele>
        <time>2024-09-05T19:50:06.315Z</time>
      </trkpt>
      <trkpt lat="41.148618333333324" lon="-8.639923333333334">
        <ele>22.932920191224973</ele>
        <time>2024-09-05T19:50:17.319Z</time>
      </trkpt>
      <trkpt lat="41.148485" lon="-8.638785">
        <ele>20.132515174807025</ele>
        <time>2024-09-05T19:51:31.322Z</time>
      </trkpt>
      <trkpt lat="41.148608333333335" lon="-8.637506666666667">
        <ele>17.231684950821816</ele>
        <time>2024-09-05T19:52:49.325Z</time>
      </trkpt>
      <trkpt lat="41.14856499999999" lon="-8.637021666666667">
        <ele>14.23148563796584</ele>
        <time>2024-09-05T19:53:18.327Z</time>
      </trkpt>
      <trkpt lat="41.148288333333326" lon="-8.636421666666667">
        <ele>24.731526165547983</ele>
        <time>2024-09-05T19:54:01.328Z</time>
      </trkpt>
      <trkpt lat="41.148025000000004" lon="-8.635098333333334">
        <ele>18.431220572376105</ele>
        <time>2024-09-05T19:55:22.325Z</time>
      </trkpt>
      <trkpt lat="41.14781333333334" lon="-8.634641666666665">
        <ele>19.231276255682943</ele>
        <time>2024-09-05T19:55:54.327Z</time>
      </trkpt>
      <trkpt lat="41.14772333333334" lon="-8.634153333333334">
        <ele>18.13114938758065</ele>
        <time>2024-09-05T19:56:26.318Z</time>
      </trkpt>
      <trkpt lat="41.14753166666666" lon="-8.633618333333335">
        <ele>14.931135129198886</ele>
        <time>2024-09-05T19:58:06.318Z</time>
      </trkpt>
      <trkpt lat="41.14713333333334" lon="-8.632943333333333">
        <ele>14.231335137499556</ele>
        <time>2024-09-05T19:58:59.335Z</time>
      </trkpt>
      <trkpt lat="41.147194999999996" lon="-8.632713333333333">
        <ele>21.031127960763058</ele>
        <time>2024-09-05T19:59:32.328Z</time>
      </trkpt>
      <trkpt lat="41.147065000000005" lon="-8.632585">
        <ele>25.43124197991</ele>
        <time>2024-09-05T19:59:46.318Z</time>
      </trkpt>
      <trkpt lat="41.14649166666666" lon="-8.631325">
        <ele>20.33138963765456</ele>
        <time>2024-09-05T20:01:12.331Z</time>
      </trkpt>
      <trkpt lat="41.14629" lon="-8.631061666666666">
        <ele>22.431534092816023</ele>
        <time>2024-09-05T20:01:39.325Z</time>
      </trkpt>
      <trkpt lat="41.14593333333334" lon="-8.630915">
        <ele>21.131949911250203</ele>
        <time>2024-09-05T20:02:11.328Z</time>
      </trkpt>
      <trkpt lat="41.14566833333333" lon="-8.630546666666667">
        <ele>13.132133584286507</ele>
        <time>2024-09-05T20:02:47.856Z</time>
      </trkpt>
      <trkpt lat="41.14570160354509" lon="-8.629836147391785">
        <ele>12.7531593109174</ele>
        <time>2024-09-05T20:03:33.351Z</time>
      </trkpt>
      <trkpt lat="41.14555281633662" lon="-8.629870331495681">
        <ele>9.500993836630597</ele>
        <time>2024-09-05T20:03:45.983Z</time>
      </trkpt>
      <trkpt lat="41.14521666666666" lon="-8.629185">
        <ele>21.13205141109934</ele>
        <time>2024-09-05T21:22:53.295Z</time>
      </trkpt>
      <trkpt lat="41.145194999999994" lon="-8.62895">
        <ele>12.731970553042089</ele>
        <time>2024-09-05T21:23:08.302Z</time>
      </trkpt>
      <trkpt lat="41.14488333333334" lon="-8.628105">
        <ele>7.9319596270512776</ele>
        <time>2024-09-05T21:24:05.322Z</time>
      </trkpt>
      <trkpt lat="41.144833333333324" lon="-8.627368333333333">
        <ele>14.931650208226003</ele>
        <time>2024-09-05T21:24:50.331Z</time>
      </trkpt>
      <trkpt lat="41.14491666666666" lon="-8.625098333333334">
        <ele>10.130334135074548</ele>
        <time>2024-09-05T21:27:07.331Z</time>
      </trkpt>
      <trkpt lat="41.14444333333333" lon="-8.623573333333333">
        <ele>6.930199778454934</ele>
        <time>2024-09-05T21:28:43.327Z</time>
      </trkpt>
      <trkpt lat="41.14420833333334" lon="-8.623108333333333">
        <ele>17.330274270125265</ele>
        <time>2024-09-05T21:29:16.331Z</time>
      </trkpt>
      <trkpt lat="41.14398166666667" lon="-8.622403333333333">
        <ele>16.53022833770261</ele>
        <time>2024-09-05T21:30:04.318Z</time>
      </trkpt>
      <trkpt lat="41.143966666666664" lon="-8.621945">
        <ele>20.530011891113936</ele>
        <time>2024-09-05T21:30:27.318Z</time>
      </trkpt>
      <trkpt lat="41.14381" lon="-8.621691666666667">
        <ele>17.030098630895573</ele>
        <time>2024-09-05T21:30:50.317Z</time>
      </trkpt>
      <trkpt lat="41.143675" lon="-8.621625">
        <ele>17.93024518534935</ele>
        <time>2024-09-05T21:31:01.325Z</time>
      </trkpt>
      <trkpt lat="41.14334999999999" lon="-8.621026666666667">
        <ele>17.330399148251423</ele>
        <time>2024-09-05T21:31:47.334Z</time>
      </trkpt>
      <trkpt lat="41.14275666666667" lon="-8.620415000000001">
        <ele>12.4308907525281</ele>
        <time>2024-09-05T21:32:50.327Z</time>
      </trkpt>
      <trkpt lat="41.14211166666667" lon="-8.61949">
        <ele>14.431316613231616</ele>
        <time>2024-09-05T21:34:05.334Z</time>
      </trkpt>
      <trkpt lat="41.141265000000004" lon="-8.617966666666666">
        <ele>18.131708354858056</ele>
        <time>2024-09-05T21:36:54.324Z</time>
      </trkpt>
      <trkpt lat="41.14059166666666" lon="-8.616475000000001">
        <ele>20.031877699298562</ele>
        <time>2024-09-05T21:38:44.328Z</time>
      </trkpt>
      <trkpt lat="41.14064833333334" lon="-8.616028333333333">
        <ele>28.6315608325868</ele>
        <time>2024-09-05T21:39:12.331Z</time>
      </trkpt>
      <trkpt lat="41.14088166666667" lon="-8.6154">
        <ele>25.130919384842436</ele>
        <time>2024-09-05T21:39:59.286Z</time>
      </trkpt>
      <trkpt lat="41.14082833333334" lon="-8.61539">
        <ele>30.130972752018664</ele>
        <time>2024-09-05T21:40:18.306Z</time>
      </trkpt>
      <trkpt lat="41.14116166666666" lon="-8.614671666666668">
        <ele>22.930145647953253</ele>
        <time>2024-09-05T21:41:36.321Z</time>
      </trkpt>
      <trkpt lat="41.141961666666674" lon="-8.614561666666667">
        <ele>36.82895941645584</ele>
        <time>2024-09-05T21:43:24.328Z</time>
      </trkpt>
      <trkpt lat="41.14271833333334" lon="-8.614323333333335">
        <ele>54.22779134519194</ele>
        <time>2024-09-05T21:44:32.325Z</time>
      </trkpt>
      <trkpt lat="41.143004999999995" lon="-8.614716666666668">
        <ele>54.72755303732566</ele>
        <time>2024-09-05T21:45:08.325Z</time>
      </trkpt>
      <trkpt lat="41.143409999999996" lon="-8.614631666666666">
        <ele>75.12698117893527</ele>
        <time>2024-09-05T21:45:48.324Z</time>
      </trkpt>
      <trkpt lat="41.14413" lon="-8.613408333333332">
        <ele>57.72531497651311</ele>
        <time>2024-09-05T21:47:27.314Z</time>
      </trkpt>
      <trkpt lat="41.14523666666667" lon="-8.611211666666666">
        <ele>49.92260211427605</ele>
        <time>2024-09-05T21:50:27.311Z</time>
      </trkpt>
      <trkpt lat="41.145889999999994" lon="-8.61101">
        <ele>63.321606589838694</ele>
        <time>2024-09-05T21:51:33.328Z</time>
      </trkpt>
      <trkpt lat="41.146161666666664" lon="-8.610713333333333">
        <ele>68.32105502123767</ele>
        <time>2024-09-05T21:52:08.325Z</time>
      </trkpt>
      <trkpt lat="41.14623666666667" lon="-8.610961666666666">
        <ele>62.42107201936053</ele>
        <time>2024-09-05T21:52:29.331Z</time>
      </trkpt>
      <trkpt lat="41.14692333333334" lon="-8.610816666666667">
        <ele>54.02005936326959</ele>
        <time>2024-09-05T21:53:33.325Z</time>
      </trkpt>
      <trkpt lat="41.14686" lon="-8.610476666666667">
        <ele>61.21994714522925</ele>
        <time>2024-09-05T21:53:55.315Z</time>
      </trkpt>
      <trkpt lat="41.14667833333333" lon="-8.610391666666667">
        <ele>77.92015263081781</ele>
        <time>2024-09-05T22:06:46.319Z</time>
      </trkpt>
      <trkpt lat="41.146703333333335" lon="-8.610475000000001">
        <ele>81.22016390781222</ele>
        <time>2024-09-05T22:07:13.328Z</time>
      </trkpt>
      <trkpt lat="41.14684833333334" lon="-8.610430000000001">
        <ele>84.01994340102058</ele>
        <time>2024-09-05T22:09:37.318Z</time>
      </trkpt>
      <trkpt lat="41.146879999999996" lon="-8.610783333333334">
        <ele>75.6200727708486</ele>
        <time>2024-09-05T22:11:20.315Z</time>
      </trkpt>
      <trkpt lat="41.14679833333333" lon="-8.610895">
        <ele>71.72023919951303</ele>
        <time>2024-09-05T22:11:33.318Z</time>
      </trkpt>
      <trkpt lat="41.14664833333333" lon="-8.610878333333334">
        <ele>69.32045979289663</ele>
        <time>2024-09-05T22:11:51.288Z</time>
      </trkpt>
      <trkpt lat="41.14659333333334" lon="-8.611163333333334">
        <ele>83.52065291390593</ele>
        <time>2024-09-05T22:12:15.334Z</time>
      </trkpt>
      <trkpt lat="41.14648666666667" lon="-8.611028333333334">
        <ele>77.6207436976086</ele>
        <time>2024-09-05T22:12:25.324Z</time>
      </trkpt>
      <trkpt lat="41.146208333333334" lon="-8.611025000000001">
        <ele>73.62113653224586</ele>
        <time>2024-09-05T22:12:57.299Z</time>
      </trkpt>
      <trkpt lat="41.146184999999996" lon="-8.610766666666667">
        <ele>72.32105178004514</ele>
        <time>2024-09-05T22:13:17.315Z</time>
      </trkpt>
      <trkpt lat="41.145981666666664" lon="-8.610943333333333">
        <ele>74.22139632208106</ele>
        <time>2024-09-05T22:13:54.328Z</time>
      </trkpt>
      <trkpt lat="41.145914999999995" lon="-8.610866666666668">
        <ele>72.62145774178853</ele>
        <time>2024-09-05T22:14:05.298Z</time>
      </trkpt>
      <trkpt lat="41.14524166666667" lon="-8.610978333333332">
        <ele>79.12245874170003</ele>
        <time>2024-09-05T22:15:28.315Z</time>
      </trkpt>
      <trkpt lat="41.144923333333324" lon="-8.611483333333332">
        <ele>60.42316137896262</ele>
        <time>2024-09-05T22:16:14.317Z</time>
      </trkpt>
      <trkpt lat="41.14503500000001" lon="-8.611559999999999">
        <ele>60.22313776018735</ele>
        <time>2024-09-05T22:16:39.281Z</time>
      </trkpt>
      <trkpt lat="41.144969999999994" lon="-8.61165">
        <ele>58.62319300917241</ele>
        <time>2024-09-05T22:16:48.305Z</time>
      </trkpt>
      <trkpt lat="41.145194999999994" lon="-8.611261666666667">
        <ele>62.02270573033765</ele>
        <time>2024-09-05T22:17:18.286Z</time>
      </trkpt>
      <trkpt lat="41.14497333333334" lon="-8.611025000000001">
        <ele>82.2228651797947</ele>
        <time>2024-09-05T22:18:31.331Z</time>
      </trkpt>
      <trkpt lat="41.14498333333333" lon="-8.610713333333333">
        <ele>70.52269241592683</ele>
        <time>2024-09-05T22:19:18.328Z</time>
      </trkpt>
      <trkpt lat="41.14389166666667" lon="-8.610306666666666">
        <ele>76.22399201951468</ele>
        <time>2024-09-05T22:20:45.299Z</time>
      </trkpt>
      <trkpt lat="41.143675" lon="-8.61031">
        <ele>84.82431035720448</ele>
        <time>2024-09-05T22:21:06.309Z</time>
      </trkpt>
      <trkpt lat="41.14393666666667" lon="-8.610126666666668">
        <ele>84.42386038729131</ele>
        <time>2024-09-05T22:21:32.341Z</time>
      </trkpt>
      <trkpt lat="41.14415" lon="-8.609631666666667">
        <ele>75.6233020902811</ele>
        <time>2024-09-05T22:22:17.332Z</time>
      </trkpt>
      <trkpt lat="41.14435666666667" lon="-8.609603333333332">
        <ele>75.02305771433865</ele>
        <time>2024-09-05T22:22:28.325Z</time>
      </trkpt>
      <trkpt lat="41.144236666666664" lon="-8.60923">
        <ele>75.3229577281032</ele>
        <time>2024-09-05T22:22:45.328Z</time>
      </trkpt>
      <trkpt lat="41.14435666666667" lon="-8.609145000000002">
        <ele>78.62281419722386</ele>
        <time>2024-09-05T22:23:10.284Z</time>
      </trkpt>
      <trkpt lat="41.14440666666666" lon="-8.608961666666666">
        <ele>78.32259154338509</ele>
        <time>2024-09-05T22:23:22.318Z</time>
      </trkpt>
      <trkpt lat="41.14426166666667" lon="-8.6089">
        <ele>81.42273775424044</ele>
        <time>2024-09-05T22:23:38.288Z</time>
      </trkpt>
      <trkpt lat="41.14424999999999" lon="-8.608735">
        <ele>81.52267668185038</ele>
        <time>2024-09-05T22:23:46.288Z</time>
      </trkpt>
      <trkpt lat="41.14416500000001" lon="-8.608996666666666">
        <ele>85.5229575718706</ele>
        <time>2024-09-05T22:25:54.334Z</time>
      </trkpt>
      <trkpt lat="41.14426" lon="-8.608801666666666">
        <ele>81.42272731769202</ele>
        <time>2024-09-05T22:26:11.318Z</time>
      </trkpt>
      <trkpt lat="41.144175" lon="-8.6088">
        <ele>81.52279459389933</ele>
        <time>2024-09-05T22:26:21.329Z</time>
      </trkpt>
      <trkpt lat="41.14416333333334" lon="-8.609006666666666">
        <ele>53.922947386553496</ele>
        <time>2024-09-05T22:29:16.315Z</time>
      </trkpt>
      <trkpt lat="41.14420166666667" lon="-8.608375">
        <ele>44.72255808648777</ele>
        <time>2024-09-05T22:30:12.321Z</time>
      </trkpt>
      <trkpt lat="41.14418333333333" lon="-8.609366666666666">
        <ele>57.82300527734428</ele>
        <time>2024-09-05T22:37:28.318Z</time>
      </trkpt>
      <trkpt lat="41.14418333333333" lon="-8.60924">
        <ele>68.92310445562927</ele>
        <time>2024-09-05T22:37:29.318Z</time>
      </trkpt>
    </trkseg>
  </trk>
</gpx>
