<?xml version="1.0" encoding="UTF-8"?>
<gpx version="1.1" creator="Export" xmlns="http://www.topografix.com/GPX/1/1" xmlns:xsi="http://www.w3.org/2001/XMLSchema-instance" xsi:schemaLocation="http://www.topografix.com/GPX/1/1 http://www.topografix.com/GPX/1/1/gpx.xsd http://www.garmin.com/xmlschemas/GpxExtensions/v3 http://www.garmin.com/xmlschemas/GpxExtensionsv3.xsd http://www.garmin.com/xmlschemas/TrackPointExtension/v1 http://www.garmin.com/xmlschemas/TrackPointExtensionv1.xsd http://www.garmin.com/xmlschemas/PowerExtension/v1 http://www.garmin.com/xmlschemas/PowerExtensionv1.xsd http://www.topografix.com/GPX/gpx_style/0/2 http://www.topografix.com/GPX/gpx_style/0/2/gpx_style.xsd" xmlns:gpxtpx="http://www.garmin.com/xmlschemas/TrackPointExtension/v1" xmlns:gpxx="http://www.garmin.com/xmlschemas/GpxExtensions/v3" xmlns:gpxpx="http://www.garmin.com/xmlschemas/PowerExtension/v1" xmlns:gpx_style="http://www.topografix.com/GPX/gpx_style/0/2">
  <metadata>
    <name>activity_207_2024-09-11</name>
    <author>
      <name>gpx.studio</name>
      <link href="https://gpx.studio"/>
    </author>
  </metadata>
  <wpt lat="41.381557" lon="2.135573">
    <ele>47.94969940239182</ele>
    <name>Vivari</name>
    <sym>Convenience Store</sym>
  </wpt>
  <wpt lat="41.37756" lon="2.137465">
    <ele>42.57830585846326</ele>
    <name>Tapa Tape</name>
    <sym>Restaurant</sym>
  </wpt>
  <trk>
    <name>activity_207_2024-09-11</name>
    <trkseg>
      <trkpt lat="41.37899632658727" lon="2.1394486078510226">
        <ele>45.592075944356985</ele>
        <time>2024-09-11T12:42:04.619Z</time>
      </trkpt>
      <trkpt lat="41.37895112462681" lon="2.1388625740054295">
        <ele>35.64307077900314</ele>
        <time>2024-09-11T12:42:43.802Z</time>
      </trkpt>
      <trkpt lat="41.378975916475355" lon="2.138234810000256">
        <ele>36.008600140231145</ele>
        <time>2024-09-11T12:43:25.613Z</time>
      </trkpt>
      <trkpt lat="41.37885500000001" lon="2.13814">
        <ele>36.331729777717555</ele>
        <time>2024-09-11T12:43:38.048Z</time>
      </trkpt>
      <trkpt lat="41.378815" lon="2.138278333333333">
        <ele>50.503677618664994</ele>
        <time>2024-09-11T12:43:48.028Z</time>
      </trkpt>
      <trkpt lat="41.37885833333333" lon="2.138565">
        <ele>47.80319676228941</ele>
        <time>2024-09-11T12:43:58.005Z</time>
      </trkpt>
      <trkpt lat="41.37884666666667" lon="2.1389766666666667">
        <ele>43.702534454092756</ele>
        <time>2024-09-11T12:44:13.018Z</time>
      </trkpt>
      <trkpt lat="41.37881333333333" lon="2.139078333333333">
        <ele>39.00233682289274</ele>
        <time>2024-09-11T12:44:21.017Z</time>
      </trkpt>
      <trkpt lat="41.378605" lon="2.1393050000000002">
        <ele>25.20184723874661</ele>
        <time>2024-09-11T12:44:51.020Z</time>
      </trkpt>
      <trkpt lat="41.37856166666667" lon="2.1396183333333334">
        <ele>24.201303581461232</ele>
        <time>2024-09-11T12:45:10.014Z</time>
      </trkpt>
      <trkpt lat="41.37839999999999" lon="2.1396683333333333">
        <ele>26.101126582729982</ele>
        <time>2024-09-11T12:45:21.031Z</time>
      </trkpt>
      <trkpt lat="41.37828" lon="2.139855">
        <ele>32.300745785619924</ele>
        <time>2024-09-11T12:45:42.023Z</time>
      </trkpt>
      <trkpt lat="41.37825333333333" lon="2.1397183333333336">
        <ele>45.20095182922702</ele>
        <time>2024-09-11T12:46:01.021Z</time>
      </trkpt>
      <trkpt lat="41.37820166666667" lon="2.1397600000000003">
        <ele>42.00085658815683</ele>
        <time>2024-09-11T12:46:15.005Z</time>
      </trkpt>
      <trkpt lat="41.37801666666666" lon="2.139371666666667">
        <ele>31.101417189836916</ele>
        <time>2024-09-11T12:46:54.011Z</time>
      </trkpt>
      <trkpt lat="41.37797666666667" lon="2.139396666666667">
        <ele>31.30136133752653</ele>
        <time>2024-09-11T12:47:03.027Z</time>
      </trkpt>
      <trkpt lat="41.37794166666666" lon="2.139325">
        <ele>31.90144604851777</ele>
        <time>2024-09-11T12:47:09.014Z</time>
      </trkpt>
      <trkpt lat="41.37786166666667" lon="2.1393766666666663">
        <ele>32.40135168454785</ele>
        <time>2024-09-11T12:47:16.013Z</time>
      </trkpt>
      <trkpt lat="41.377653333333335" lon="2.1392883333333335">
        <ele>31.401383504874822</ele>
        <time>2024-09-11T12:47:30.020Z</time>
      </trkpt>
      <trkpt lat="41.37759166666667" lon="2.1393600000000004">
        <ele>35.80124805994606</ele>
        <time>2024-09-11T12:47:39.988Z</time>
      </trkpt>
      <trkpt lat="41.37755666666667" lon="2.1395983333333333">
        <ele>33.800819521121674</ele>
        <time>2024-09-11T12:48:03.985Z</time>
      </trkpt>
      <trkpt lat="41.37750333333334" lon="2.1396333333333333">
        <ele>34.40072906276527</ele>
        <time>2024-09-11T12:48:19.002Z</time>
      </trkpt>
      <trkpt lat="41.37747833333333" lon="2.1395833333333334">
        <ele>33.800802299837976</ele>
        <time>2024-09-11T12:48:36.021Z</time>
      </trkpt>
      <trkpt lat="41.377604999999996" lon="2.1393050000000002">
        <ele>29.201294721855774</ele>
        <time>2024-09-11T12:50:42.997Z</time>
      </trkpt>
      <trkpt lat="41.37759500000001" lon="2.1390433333333334">
        <ele>32.90175629901026</ele>
        <time>2024-09-11T12:50:59.991Z</time>
      </trkpt>
      <trkpt lat="41.37752999999999" lon="2.1389583333333335">
        <ele>33.00184854265385</ele>
        <time>2024-09-11T12:51:07.030Z</time>
      </trkpt>
      <trkpt lat="41.37752666666667" lon="2.138805">
        <ele>31.502136324400418</ele>
        <time>2024-09-11T12:51:18.010Z</time>
      </trkpt>
      <trkpt lat="41.37743166666667" lon="2.1385383333333334">
        <ele>25.802511304526483</ele>
        <time>2024-09-11T12:51:38.001Z</time>
      </trkpt>
      <trkpt lat="41.37718499999999" lon="2.137993333333333">
        <ele>25.403303326262424</ele>
        <time>2024-09-11T12:52:23.994Z</time>
      </trkpt>
      <trkpt lat="41.37734999999999" lon="2.1377533333333334">
        <ele>27.50375949926417</ele>
        <time>2024-09-11T12:53:30.021Z</time>
      </trkpt>
      <trkpt lat="41.37732333333334" lon="2.137491666666667">
        <ele>32.904208128214414</ele>
        <time>2024-09-11T12:54:22.024Z</time>
      </trkpt>
      <trkpt lat="41.37718666666667" lon="2.1373266666666666">
        <ele>31.004425385209657</ele>
        <time>2024-09-11T12:54:54.037Z</time>
      </trkpt>
      <trkpt lat="41.377055000000006" lon="2.137331666666667">
        <ele>31.80435213877135</ele>
        <time>2024-09-11T12:55:48.025Z</time>
      </trkpt>
      <trkpt lat="41.376558333333335" lon="2.1366799999999997">
        <ele>34.50520769231511</ele>
        <time>2024-09-11T12:56:59.037Z</time>
      </trkpt>
      <trkpt lat="41.37655333333334" lon="2.136525">
        <ele>31.705436660279155</ele>
        <time>2024-09-11T12:57:11.015Z</time>
      </trkpt>
      <trkpt lat="41.376459999999994" lon="2.13627">
        <ele>29.605825215117093</ele>
        <time>2024-09-11T12:57:32.020Z</time>
      </trkpt>
      <trkpt lat="41.376215" lon="2.1360650000000003">
        <ele>28.7060585530347</ele>
        <time>2024-09-11T12:57:59.021Z</time>
      </trkpt>
      <trkpt lat="41.37613666666666" lon="2.1359316666666666">
        <ele>33.506246573805136</ele>
        <time>2024-09-11T12:58:34.980Z</time>
      </trkpt>
      <trkpt lat="41.37612000000001" lon="2.135975">
        <ele>33.70623288635245</ele>
        <time>2024-09-11T12:58:55.017Z</time>
      </trkpt>
      <trkpt lat="41.37630833333333" lon="2.1361266666666667">
        <ele>30.506019570817358</ele>
        <time>2024-09-11T12:59:12.023Z</time>
      </trkpt>
      <trkpt lat="41.37647333333333" lon="2.1361966666666663">
        <ele>23.10598352624242</ele>
        <time>2024-09-11T12:59:32.034Z</time>
      </trkpt>
      <trkpt lat="41.376673333333336" lon="2.1365616666666667">
        <ele>18.305467787298753</ele>
        <time>2024-09-11T12:59:53.017Z</time>
      </trkpt>
      <trkpt lat="41.37689333333333" lon="2.1366583333333335">
        <ele>17.20540716285459</ele>
        <time>2024-09-11T13:00:35.038Z</time>
      </trkpt>
      <trkpt lat="41.37707333333333" lon="2.1368933333333335">
        <ele>21.905108781103387</ele>
        <time>2024-09-11T13:01:21.021Z</time>
      </trkpt>
      <trkpt lat="41.377415000000006" lon="2.1371266666666666">
        <ele>21.804885316834778</ele>
        <time>2024-09-11T13:02:02.023Z</time>
      </trkpt>
      <trkpt lat="41.377505000000006" lon="2.1372483333333334">
        <ele>19.704746533329256</ele>
        <time>2024-09-11T13:02:13.027Z</time>
      </trkpt>
      <trkpt lat="41.37752999999999" lon="2.137423333333333">
        <ele>21.5045079728489</ele>
        <time>2024-09-11T13:02:31.033Z</time>
      </trkpt>
      <trkpt lat="41.377359999999996" lon="2.1373216666666663">
        <ele>24.60452520787514</ele>
        <time>2024-09-11T13:02:49.034Z</time>
      </trkpt>
      <trkpt lat="41.377235000000006" lon="2.1371616666666666">
        <ele>25.60473267580811</ele>
        <time>2024-09-11T13:03:08.040Z</time>
      </trkpt>
      <trkpt lat="41.37717166666666" lon="2.1372883333333332">
        <ele>26.904582655988158</ele>
        <time>2024-09-11T13:03:34.027Z</time>
      </trkpt>
      <trkpt lat="41.37719833333334" lon="2.137376666666667">
        <ele>30.604356954852683</ele>
        <time>2024-09-11T13:03:49.015Z</time>
      </trkpt>
      <trkpt lat="41.377188333333336" lon="2.1373166666666665">
        <ele>30.504440466907212</ele>
        <time>2024-09-11T13:04:00.014Z</time>
      </trkpt>
      <trkpt lat="41.37711833333333" lon="2.1373966666666666">
        <ele>35.104282898001976</ele>
        <time>2024-09-11T13:05:18.034Z</time>
      </trkpt>
      <trkpt lat="41.37734166666667" lon="2.1376183333333336">
        <ele>37.904032700862885</ele>
        <time>2024-09-11T13:05:59.034Z</time>
      </trkpt>
      <trkpt lat="41.37734333333333" lon="2.137576666666667">
        <ele>36.30406287363077</ele>
        <time>2024-09-11T13:06:47.024Z</time>
      </trkpt>
      <trkpt lat="41.37739666666666" lon="2.1376183333333336">
        <ele>33.404045289553935</ele>
        <time>2024-09-11T13:06:55.033Z</time>
      </trkpt>
      <trkpt lat="41.377383333333334" lon="2.1375666666666664">
        <ele>33.2041165224201</ele>
        <time>2024-09-11T13:07:03.031Z</time>
      </trkpt>
      <trkpt lat="41.37735666666667" lon="2.1375866666666665">
        <ele>34.90408634337189</ele>
        <time>2024-09-11T13:07:24.015Z</time>
      </trkpt>
      <trkpt lat="41.37739666666666" lon="2.137661666666667">
        <ele>38.30398914035705</ele>
        <time>2024-09-11T13:09:03.028Z</time>
      </trkpt>
      <trkpt lat="41.377326666666676" lon="2.137655">
        <ele>35.6039547614662</ele>
        <time>2024-09-11T13:14:33.030Z</time>
      </trkpt>
      <trkpt lat="41.377338333333334" lon="2.137758333333333">
        <ele>54.30372457408258</ele>
        <time>2024-09-11T13:45:39.044Z</time>
      </trkpt>
      <trkpt lat="41.37749166666667" lon="2.13751">
        <ele>45.0042671370637</ele>
        <time>2024-09-11T13:46:05.020Z</time>
      </trkpt>
      <trkpt lat="41.37759166666667" lon="2.137471666666667">
        <ele>44.004377805532485</ele>
        <time>2024-09-11T13:46:13.034Z</time>
      </trkpt>
      <trkpt lat="41.37748333333334" lon="2.1374983333333333">
        <ele>43.80439457575394</ele>
        <time>2024-09-11T13:51:53.975Z</time>
      </trkpt>
      <trkpt lat="41.37735166666666" lon="2.137705">
        <ele>26.90398773668111</ele>
        <time>2024-09-11T13:51:58.024Z</time>
      </trkpt>
      <trkpt lat="41.377406666666666" lon="2.1376783333333336">
        <ele>42.20392460604133</ele>
        <time>2024-09-11T13:52:02.040Z</time>
      </trkpt>
      <trkpt lat="41.377404999999996" lon="2.1377266666666666">
        <ele>39.203881589641036</ele>
        <time>2024-09-11T13:52:07.978Z</time>
      </trkpt>
      <trkpt lat="41.377551666666676" lon="2.1375699999999997">
        <ele>34.40420010651119</ele>
        <time>2024-09-11T13:53:04.007Z</time>
      </trkpt>
      <trkpt lat="41.37795333333334" lon="2.138025">
        <ele>29.903654216573294</ele>
        <time>2024-09-11T13:53:45.027Z</time>
      </trkpt>
      <trkpt lat="41.37840666666666" lon="2.1376216666666665">
        <ele>26.004537132045307</ele>
        <time>2024-09-11T13:54:22.024Z</time>
      </trkpt>
      <trkpt lat="41.378521666666664" lon="2.1376183333333336">
        <ele>24.004609284211128</ele>
        <time>2024-09-11T13:54:29.002Z</time>
      </trkpt>
      <trkpt lat="41.378748333333334" lon="2.1374633333333337">
        <ele>21.504971094358652</ele>
        <time>2024-09-11T13:54:50.001Z</time>
      </trkpt>
      <trkpt lat="41.37898666666667" lon="2.1374">
        <ele>25.40519262633603</ele>
        <time>2024-09-11T13:55:02.034Z</time>
      </trkpt>
      <trkpt lat="41.37937333333333" lon="2.1370666666666667">
        <ele>44.80595540327177</ele>
        <time>2024-09-11T13:55:28.031Z</time>
      </trkpt>
      <trkpt lat="41.38142" lon="2.1356683333333333">
        <ele>22.209340635144606</ele>
        <time>2024-09-11T13:58:16.017Z</time>
      </trkpt>
      <trkpt lat="41.38147166666666" lon="2.135705">
        <ele>21.809320039397775</ele>
        <time>2024-09-11T13:58:26.014Z</time>
      </trkpt>
      <trkpt lat="41.38126333333333" lon="2.1357716666666664">
        <ele>28.709083116466886</ele>
        <time>2024-09-11T14:01:07.038Z</time>
      </trkpt>
      <trkpt lat="41.38151666666666" lon="2.135638333333333">
        <ele>20.2094581129694</ele>
        <time>2024-09-11T14:01:30.795Z</time>
      </trkpt>
      <trkpt lat="41.38156916432692" lon="2.1355212198476465">
        <ele>47.70900524208838</ele>
        <time>2024-09-11T14:01:41.937Z</time>
      </trkpt>
      <trkpt lat="41.38169" lon="2.136085">
        <ele>49.138811022229994</ele>
        <time>2024-09-11T14:02:29.825Z</time>
      </trkpt>
      <trkpt lat="41.38178666666666" lon="2.1361583333333334">
        <ele>43.008717132507556</ele>
        <time>2024-09-11T14:02:49.169Z</time>
      </trkpt>
      <trkpt lat="41.381808333333325" lon="2.13633">
        <ele>42.90847976847077</ele>
        <time>2024-09-11T14:03:00.166Z</time>
      </trkpt>
      <trkpt lat="41.38184833333333" lon="2.136353333333333">
        <ele>40.70842888758954</ele>
        <time>2024-09-11T14:03:03.184Z</time>
      </trkpt>
      <trkpt lat="41.38176833333333" lon="2.136468333333333">
        <ele>36.10819749962863</ele>
        <time>2024-09-11T14:03:12.169Z</time>
      </trkpt>
      <trkpt lat="41.38153666666667" lon="2.136545">
        <ele>29.70793402673207</ele>
        <time>2024-09-11T14:03:30.177Z</time>
      </trkpt>
      <trkpt lat="41.38137333333334" lon="2.136745">
        <ele>25.307527918156026</ele>
        <time>2024-09-11T14:03:50.189Z</time>
      </trkpt>
      <trkpt lat="41.380570000000006" lon="2.137295">
        <ele>33.20621514640043</ele>
        <time>2024-09-11T14:05:09.166Z</time>
      </trkpt>
      <trkpt lat="41.37979166666667" lon="2.1377983333333335">
        <ele>22.90496537142694</ele>
        <time>2024-09-11T14:06:27.212Z</time>
      </trkpt>
      <trkpt lat="41.37963500000001" lon="2.137806666666667">
        <ele>21.10488478046252</ele>
        <time>2024-09-11T14:06:39.228Z</time>
      </trkpt>
      <trkpt lat="41.37926833333333" lon="2.1380683333333335">
        <ele>27.40428123483767</ele>
        <time>2024-09-11T14:07:01.174Z</time>
      </trkpt>
      <trkpt lat="41.379286666666665" lon="2.138116666666667">
        <ele>28.10418867840596</ele>
        <time>2024-09-11T14:07:05.176Z</time>
      </trkpt>
      <trkpt lat="41.378991666666664" lon="2.1386283333333336">
        <ele>34.703201725824904</ele>
        <time>2024-09-11T14:07:39.193Z</time>
      </trkpt>
      <trkpt lat="41.37898833333334" lon="2.1389050000000003">
        <ele>25.302732578173526</ele>
        <time>2024-09-11T14:07:53.199Z</time>
      </trkpt>
      <trkpt lat="41.37905333333333" lon="2.1390916666666664">
        <ele>26.002457969007743</ele>
        <time>2024-09-11T14:08:02.207Z</time>
      </trkpt>
      <trkpt lat="41.37857666666667" lon="2.139348333333333">
        <ele>35.20170248458281</ele>
        <time>2024-09-11T14:14:18.200Z</time>
      </trkpt>
      <trkpt lat="41.378611666666664" lon="2.139225">
        <ele>34.50192020438202</ele>
        <time>2024-09-11T14:14:23.220Z</time>
      </trkpt>
      <trkpt lat="41.37845833333334" lon="2.1391833333333334">
        <ele>34.20195525477534</ele>
        <time>2024-09-11T14:14:27.232Z</time>
      </trkpt>
      <trkpt lat="41.378339999999994" lon="2.139248333333333">
        <ele>18.401810911686376</ele>
        <time>2024-09-11T14:15:40.222Z</time>
      </trkpt>
      <trkpt lat="41.378433333333334" lon="2.1392933333333333">
        <ele>22.601778387704428</ele>
        <time>2024-09-11T14:15:54.182Z</time>
      </trkpt>
      <trkpt lat="41.378384999999994" lon="2.1392916666666664">
        <ele>22.90172309035816</ele>
        <time>2024-09-11T14:16:00.229Z</time>
      </trkpt>
      <trkpt lat="41.378335" lon="2.1395766666666662">
        <ele>23.401339079087798</ele>
        <time>2024-09-11T14:16:16.219Z</time>
      </trkpt>
      <trkpt lat="41.37840833333333" lon="2.1395733333333333">
        <ele>23.40126385398319</ele>
        <time>2024-09-11T14:16:19.228Z</time>
      </trkpt>
      <trkpt lat="41.378875" lon="2.1390833333333332">
        <ele>21.7022911958068</ele>
        <time>2024-09-11T14:17:15.199Z</time>
      </trkpt>
      <trkpt lat="41.378930000000004" lon="2.139256666666667">
        <ele>44.302102991163935</ele>
        <time>2024-09-11T14:17:20.197Z</time>
      </trkpt>
      <trkpt lat="41.378968333333326" lon="2.13924">
        <ele>43.50207419540315</ele>
        <time>2024-09-11T14:17:21.223Z</time>
      </trkpt>
      <trkpt lat="41.37906833333333" lon="2.139385">
        <ele>40.501543369789225</ele>
        <time>2024-09-11T14:23:10.166Z</time>
      </trkpt>
      <trkpt lat="41.379025" lon="2.1392733333333336">
        <ele>74.4020715823939</ele>
        <time>2024-09-11T14:23:13.215Z</time>
      </trkpt>
      <trkpt lat="41.379073333333324" lon="2.1392516666666666">
        <ele>85.9021241036631</ele>
        <time>2024-09-11T14:23:17.220Z</time>
      </trkpt>
      <trkpt lat="41.379148333333326" lon="2.139368333333333">
        <ele>88.30200659724282</ele>
        <time>2024-09-11T14:23:22.210Z</time>
      </trkpt>
      <trkpt lat="41.37908833333333" lon="2.1393600000000004">
        <ele>83.00197812008668</ele>
        <time>2024-09-11T14:23:28.167Z</time>
      </trkpt>
      <trkpt lat="41.37917000000001" lon="2.1397516666666667">
        <ele>89.00137740976632</ele>
        <time>2024-09-11T14:24:00.193Z</time>
      </trkpt>
      <trkpt lat="41.37918666666666" lon="2.1396083333333333">
        <ele>89.7016075165078</ele>
        <time>2024-09-11T14:24:14.166Z</time>
      </trkpt>
      <trkpt lat="41.378793333333334" lon="2.138926666666667">
        <ele>90.00250176847499</ele>
        <time>2024-09-11T14:24:36.173Z</time>
      </trkpt>
      <trkpt lat="41.37842833333334" lon="2.1385516666666664">
        <ele>89.80297302254702</ele>
        <time>2024-09-11T14:24:55.162Z</time>
      </trkpt>
      <trkpt lat="41.37835499999999" lon="2.1385349999999996">
        <ele>89.8029998902008</ele>
        <time>2024-09-11T14:24:59.203Z</time>
      </trkpt>
      <trkpt lat="41.378750000000004" lon="2.1389733333333334">
        <ele>89.70252979961653</ele>
        <time>2024-09-11T14:25:04.209Z</time>
      </trkpt>
      <trkpt lat="41.37899666666667" lon="2.1391166666666668">
        <ele>89.70235624975044</ele>
        <time>2024-09-11T14:25:13.223Z</time>
      </trkpt>
      <trkpt lat="41.379014999999995" lon="2.1392233333333333">
        <ele>89.70219937714381</ele>
        <time>2024-09-11T14:25:18.202Z</time>
      </trkpt>
      <trkpt lat="41.37919166666667" lon="2.139456666666667">
        <ele>99.10186030156288</ele>
        <time>2024-09-11T14:25:35.199Z</time>
      </trkpt>
      <trkpt lat="41.379108333333335" lon="2.1394">
        <ele>79.20192273100798</ele>
        <time>2024-09-11T14:25:46.189Z</time>
      </trkpt>
      <trkpt lat="41.379025" lon="2.13919">
        <ele>86.30219962950451</ele>
        <time>2024-09-11T14:26:00.199Z</time>
      </trkpt>
      <trkpt lat="41.37920333333333" lon="2.1395649999999997">
        <ele>85.80177865933592</ele>
        <time>2024-09-11T14:26:25.196Z</time>
      </trkpt>
      <trkpt lat="41.37918500000001" lon="2.1395150000000003">
        <ele>86.20176410675975</ele>
        <time>2024-09-11T14:26:28.200Z</time>
      </trkpt>
      <trkpt lat="41.37938333333333" lon="2.13974">
        <ele>86.60150184434926</ele>
        <time>2024-09-11T14:26:38.207Z</time>
      </trkpt>
    </trkseg>
  </trk>
</gpx>
