<?xml version="1.0" encoding="UTF-8"?>
<gpx version="1.1" creator="Export" xmlns="http://www.topografix.com/GPX/1/1" xmlns:xsi="http://www.w3.org/2001/XMLSchema-instance" xsi:schemaLocation="http://www.topografix.com/GPX/1/1 http://www.topografix.com/GPX/1/1/gpx.xsd http://www.garmin.com/xmlschemas/GpxExtensions/v3 http://www.garmin.com/xmlschemas/GpxExtensionsv3.xsd http://www.garmin.com/xmlschemas/TrackPointExtension/v1 http://www.garmin.com/xmlschemas/TrackPointExtensionv1.xsd http://www.garmin.com/xmlschemas/PowerExtension/v1 http://www.garmin.com/xmlschemas/PowerExtensionv1.xsd http://www.topografix.com/GPX/gpx_style/0/2 http://www.topografix.com/GPX/gpx_style/0/2/gpx_style.xsd" xmlns:gpxtpx="http://www.garmin.com/xmlschemas/TrackPointExtension/v1" xmlns:gpxx="http://www.garmin.com/xmlschemas/GpxExtensions/v3" xmlns:gpxpx="http://www.garmin.com/xmlschemas/PowerExtension/v1" xmlns:gpx_style="http://www.topografix.com/GPX/gpx_style/0/2">
  <metadata>
    <name>activity_208_2024-09-11</name>
    <author>
      <name>gpx.studio</name>
      <link href="https://gpx.studio"/>
    </author>
  </metadata>
  <wpt lat="43.292947" lon="5.3832">
    <ele>44.90385321843002</ele>
    <sym>Restaurant</sym>
  </wpt>
  <wpt lat="43.29128" lon="5.371793">
    <ele>28.71004460444708</ele>
    <name>Vertigo Hostel</name>
    <sym>Lodging</sym>
  </wpt>
  <trk>
    <name>activity_208_2024-09-11</name>
    <trkseg>
      <trkpt lat="43.30282005552016" lon="5.380550040036837">
        <ele>56.28475955049611</ele>
        <time>2024-09-11T21:08:44.381Z</time>
      </trkpt>
      <trkpt lat="43.30258769893513" lon="5.380582739951929">
        <ele>55.08974065531859</ele>
        <time>2024-09-11T21:09:11.552Z</time>
      </trkpt>
      <trkpt lat="43.30214037888254" lon="5.380645692020778">
        <ele>47.98258270090539</ele>
        <time>2024-09-11T21:10:03.860Z</time>
      </trkpt>
      <trkpt lat="43.30209116110497" lon="5.380651234740038">
        <ele>46.62136908215279</ele>
        <time>2024-09-11T21:10:09.605Z</time>
      </trkpt>
      <trkpt lat="43.30164300361244" lon="5.380701704535467">
        <ele>39.36680947398394</ele>
        <time>2024-09-11T21:11:01.913Z</time>
      </trkpt>
      <trkpt lat="43.301194846119905" lon="5.380752174330896">
        <ele>40.93441646805259</ele>
        <time>2024-09-11T21:11:54.221Z</time>
      </trkpt>
      <trkpt lat="43.30074668862737" lon="5.380802644126325">
        <ele>41.069101848030606</ele>
        <time>2024-09-11T21:12:46.529Z</time>
      </trkpt>
      <trkpt lat="43.30029853113484" lon="5.380853113921754">
        <ele>38.255169247178465</ele>
        <time>2024-09-11T21:13:38.837Z</time>
      </trkpt>
      <trkpt lat="43.29985037364231" lon="5.380903583717182">
        <ele>28.19949635807514</ele>
        <time>2024-09-11T21:14:31.145Z</time>
      </trkpt>
      <trkpt lat="43.29940221614978" lon="5.380954053512611">
        <ele>25.802407946484642</ele>
        <time>2024-09-11T21:15:23.453Z</time>
      </trkpt>
      <trkpt lat="43.298954058657245" lon="5.38100452330804">
        <ele>25.949331182801416</ele>
        <time>2024-09-11T21:16:15.761Z</time>
      </trkpt>
      <trkpt lat="43.29850590116471" lon="5.3810549931034695">
        <ele>23.663864638209304</ele>
        <time>2024-09-11T21:17:08.069Z</time>
      </trkpt>
      <trkpt lat="43.29805774367218" lon="5.381105462898898">
        <ele>21.779521380824526</ele>
        <time>2024-09-11T21:18:00.377Z</time>
      </trkpt>
      <trkpt lat="43.29760958617965" lon="5.381155932694327">
        <ele>23.657498084986656</ele>
        <time>2024-09-11T21:18:52.685Z</time>
      </trkpt>
      <trkpt lat="43.29750655449174" lon="5.381175580366056">
        <ele>24.7996600833668</ele>
        <time>2024-09-11T21:19:04.785Z</time>
      </trkpt>
      <trkpt lat="43.29706116359464" lon="5.381260514373401">
        <ele>26.133586234829043</ele>
        <time>2024-09-11T21:19:57.093Z</time>
      </trkpt>
      <trkpt lat="43.296615772697535" lon="5.381345448380745">
        <ele>24.698550073430265</ele>
        <time>2024-09-11T21:20:49.401Z</time>
      </trkpt>
      <trkpt lat="43.29617038180044" lon="5.381430382388089">
        <ele>27.132447900670737</ele>
        <time>2024-09-11T21:21:41.709Z</time>
      </trkpt>
      <trkpt lat="43.296101035927244" lon="5.381564139435033">
        <ele>28.466679623770688</ele>
        <time>2024-09-11T21:21:55.612Z</time>
      </trkpt>
      <trkpt lat="43.2958401517718" lon="5.38206734305223">
        <ele>32.322868685146105</ele>
        <time>2024-09-11T21:22:47.920Z</time>
      </trkpt>
      <trkpt lat="43.29557926761635" lon="5.382570546669427">
        <ele>37.790081853350294</ele>
        <time>2024-09-11T21:23:40.228Z</time>
      </trkpt>
      <trkpt lat="43.29538025254324" lon="5.382688772581499">
        <ele>42.703069713083714</ele>
        <time>2024-09-11T21:24:05.450Z</time>
      </trkpt>
      <trkpt lat="43.29496751985193" lon="5.382933958527017">
        <ele>45.84923949479173</ele>
        <time>2024-09-11T21:24:57.758Z</time>
      </trkpt>
      <trkpt lat="43.29455478716062" lon="5.383179144472535">
        <ele>48.464144606095346</ele>
        <time>2024-09-11T21:25:50.066Z</time>
      </trkpt>
      <trkpt lat="43.29419527816062" lon="5.3833111482270315">
        <ele>46.18013939987947</ele>
        <time>2024-09-11T21:26:33.354Z</time>
      </trkpt>
      <trkpt lat="43.2937608638437" lon="5.383470655557422">
        <ele>46.311503357627586</ele>
        <time>2024-09-11T21:27:25.662Z</time>
      </trkpt>
      <trkpt lat="43.293326449526774" lon="5.383630162887812">
        <ele>47.85317929152059</ele>
        <time>2024-09-11T21:28:17.970Z</time>
      </trkpt>
      <trkpt lat="43.29301250349312" lon="5.383655400232191">
        <ele>47.465258452952</ele>
        <time>2024-09-11T21:28:54.553Z</time>
      </trkpt>
      <trkpt lat="43.29256361104598" lon="5.383691485584649">
        <ele>47.48642479870546</ele>
        <time>2024-09-11T21:29:46.862Z</time>
      </trkpt>
      <trkpt lat="43.292351666666676" lon="5.383228333333333">
        <ele>45.94029452293435</ele>
        <time>2024-09-11T21:30:33.185Z</time>
      </trkpt>
      <trkpt lat="43.29219333333334" lon="5.383568333333333">
        <ele>54.30932558163598</ele>
        <time>2024-09-11T21:31:07.413Z</time>
      </trkpt>
      <trkpt lat="43.29229166666667" lon="5.383640000000001">
        <ele>55.409243649546156</ele>
        <time>2024-09-11T21:31:30.459Z</time>
      </trkpt>
      <trkpt lat="43.29219" lon="5.383631666666668">
        <ele>55.30921228203991</ele>
        <time>2024-09-11T21:31:39.445Z</time>
      </trkpt>
      <trkpt lat="43.292093333333334" lon="5.383449999999999">
        <ele>55.009507594053346</ele>
        <time>2024-09-11T21:31:53.446Z</time>
      </trkpt>
      <trkpt lat="43.292296666666665" lon="5.383556666666667">
        <ele>54.30939616375152</ele>
        <time>2024-09-11T21:32:00.442Z</time>
      </trkpt>
      <trkpt lat="43.29215333333333" lon="5.383593333333333">
        <ele>50.20928773259117</ele>
        <time>2024-09-11T21:32:12.458Z</time>
      </trkpt>
      <trkpt lat="43.29183" lon="5.3840650000000005">
        <ele>42.60837426656222</ele>
        <time>2024-09-11T21:33:03.410Z</time>
      </trkpt>
      <trkpt lat="43.29173833333333" lon="5.384388333333334">
        <ele>47.807829278053674</ele>
        <time>2024-09-11T21:33:36.443Z</time>
      </trkpt>
      <trkpt lat="43.29139833333333" lon="5.385018333333333">
        <ele>54.80665153673753</ele>
        <time>2024-09-11T21:34:48.435Z</time>
      </trkpt>
      <trkpt lat="43.291385000000005" lon="5.38488">
        <ele>55.60683618839074</ele>
        <time>2024-09-11T21:34:57.439Z</time>
      </trkpt>
      <trkpt lat="43.29117833333333" lon="5.384876666666666">
        <ele>56.70682306984189</ele>
        <time>2024-09-11T21:35:12.439Z</time>
      </trkpt>
      <trkpt lat="43.29146666666667" lon="5.385038333333333">
        <ele>56.70681359082866</ele>
        <time>2024-09-11T21:35:38.452Z</time>
      </trkpt>
      <trkpt lat="43.29123166666667" lon="5.384974999999999">
        <ele>53.60667193498777</ele>
        <time>2024-09-11T21:35:49.448Z</time>
      </trkpt>
      <trkpt lat="43.291090000000004" lon="5.38485">
        <ele>56.50679410676722</ele>
        <time>2024-09-11T21:35:56.466Z</time>
      </trkpt>
      <trkpt lat="43.29133333333333" lon="5.385228333333333">
        <ele>56.206833631704185</ele>
        <time>2024-09-11T21:37:01.409Z</time>
      </trkpt>
      <trkpt lat="43.29199666666667" lon="5.385154999999999">
        <ele>103.70657942340367</ele>
        <time>2024-09-11T21:37:24.410Z</time>
      </trkpt>
      <trkpt lat="43.29179166666666" lon="5.385009999999999">
        <ele>105.20659216641042</ele>
        <time>2024-09-11T21:37:29.422Z</time>
      </trkpt>
      <trkpt lat="43.29145666666667" lon="5.384566666666666">
        <ele>106.40738315022455</ele>
        <time>2024-09-11T21:37:39.466Z</time>
      </trkpt>
      <trkpt lat="43.29140166666666" lon="5.384921666666666">
        <ele>106.00741889784192</ele>
        <time>2024-09-11T21:41:55.462Z</time>
      </trkpt>
      <trkpt lat="43.291345" lon="5.384938333333334">
        <ele>72.20680090063354</ele>
        <time>2024-09-11T21:41:56.455Z</time>
      </trkpt>
      <trkpt lat="43.29141" lon="5.385009999999999">
        <ele>68.90674755322246</ele>
        <time>2024-09-11T21:41:58.458Z</time>
      </trkpt>
      <trkpt lat="43.291496666666674" lon="5.384941666666666">
        <ele>57.3067822411774</ele>
        <time>2024-09-11T21:42:28.452Z</time>
      </trkpt>
      <trkpt lat="43.29164166666666" lon="5.384966666666666">
        <ele>51.80679569195933</ele>
        <time>2024-09-11T21:42:51.452Z</time>
      </trkpt>
      <trkpt lat="43.291978333333326" lon="5.384294999999999">
        <ele>50.90797453381674</ele>
        <time>2024-09-11T21:43:59.461Z</time>
      </trkpt>
      <trkpt lat="43.292080000000006" lon="5.384271666666666">
        <ele>53.20806151548924</ele>
        <time>2024-09-11T21:44:13.446Z</time>
      </trkpt>
      <trkpt lat="43.292359999999995" lon="5.383706666666666">
        <ele>41.209128144481994</ele>
        <time>2024-09-11T21:45:02.464Z</time>
      </trkpt>
      <trkpt lat="43.292485000000006" lon="5.383849999999999">
        <ele>40.60893908254796</ele>
        <time>2024-09-11T21:45:24.453Z</time>
      </trkpt>
      <trkpt lat="43.29275833333333" lon="5.383748333333333">
        <ele>55.10917136602616</ele>
        <time>2024-09-11T21:45:57.495Z</time>
      </trkpt>
      <trkpt lat="43.29297321387028" lon="5.383343097743875">
        <ele>45.670167438221114</ele>
        <time>2024-09-11T21:46:34.276Z</time>
      </trkpt>
      <trkpt lat="43.29296074372314" lon="5.3832251520816214">
        <ele>45.080578751862305</ele>
        <time>2024-09-11T21:46:43.019Z</time>
      </trkpt>
      <trkpt lat="43.2930076621314" lon="5.383310521800212">
        <ele>45.628635607194575</ele>
        <time>2024-09-11T21:47:00.099Z</time>
      </trkpt>
      <trkpt lat="43.29330166666667" lon="5.382993333333333">
        <ele>43.81797214793187</ele>
        <time>2024-09-11T21:47:37.525Z</time>
      </trkpt>
      <trkpt lat="43.29318" lon="5.38309">
        <ele>38.31042877025966</ele>
        <time>2024-09-11T22:32:44.452Z</time>
      </trkpt>
      <trkpt lat="43.293131666666675" lon="5.383431666666667">
        <ele>61.00987246581317</ele>
        <time>2024-09-11T22:41:18.481Z</time>
      </trkpt>
      <trkpt lat="43.293040000000005" lon="5.383423333333334">
        <ele>63.709789168833815</ele>
        <time>2024-09-11T22:41:32.429Z</time>
      </trkpt>
      <trkpt lat="43.293018333333336" lon="5.38371">
        <ele>93.10932099383163</ele>
        <time>2024-09-11T22:41:47.446Z</time>
      </trkpt>
      <trkpt lat="43.29334833333334" lon="5.383075000000001">
        <ele>64.1104876399497</ele>
        <time>2024-09-11T22:42:21.466Z</time>
      </trkpt>
      <trkpt lat="43.293566666666656" lon="5.382968333333334">
        <ele>50.61074324991602</ele>
        <time>2024-09-11T22:42:51.476Z</time>
      </trkpt>
      <trkpt lat="43.29353" lon="5.382928333333333">
        <ele>50.310799011766775</ele>
        <time>2024-09-11T22:43:17.452Z</time>
      </trkpt>
      <trkpt lat="43.293705" lon="5.383048333333333">
        <ele>57.01064459591051</ele>
        <time>2024-09-11T22:43:37.442Z</time>
      </trkpt>
      <trkpt lat="43.294129999999996" lon="5.383118333333334">
        <ele>44.71064261271483</ele>
        <time>2024-09-11T22:44:23.462Z</time>
      </trkpt>
      <trkpt lat="43.294315000000005" lon="5.383123333333333">
        <ele>47.2107089211643</ele>
        <time>2024-09-11T22:44:45.453Z</time>
      </trkpt>
      <trkpt lat="43.294873333333335" lon="5.3828933333333335">
        <ele>56.31123706753176</ele>
        <time>2024-09-11T22:45:45.451Z</time>
      </trkpt>
      <trkpt lat="43.294965000000005" lon="5.383023333333333">
        <ele>56.31109931397793</ele>
        <time>2024-09-11T22:46:04.455Z</time>
      </trkpt>
      <trkpt lat="43.295035000000006" lon="5.382915000000001">
        <ele>60.51115704279512</ele>
        <time>2024-09-11T22:49:12.458Z</time>
      </trkpt>
      <trkpt lat="43.295044999999995" lon="5.383021666666667">
        <ele>60.811073257601066</ele>
        <time>2024-09-11T22:49:16.459Z</time>
      </trkpt>
      <trkpt lat="43.29488" lon="5.383031666666667">
        <ele>30.110929905801953</ele>
        <time>2024-09-11T23:17:28.459Z</time>
      </trkpt>
      <trkpt lat="43.294863333333325" lon="5.382895">
        <ele>29.511325107164204</ele>
        <time>2024-09-11T23:17:38.452Z</time>
      </trkpt>
      <trkpt lat="43.294905" lon="5.38289">
        <ele>29.211255051607246</ele>
        <time>2024-09-11T23:17:42.451Z</time>
      </trkpt>
      <trkpt lat="43.294945000000006" lon="5.382911666666667">
        <ele>29.01122901259898</ele>
        <time>2024-09-11T23:17:45.456Z</time>
      </trkpt>
      <trkpt lat="43.29486833333333" lon="5.383028333333334">
        <ele>28.011018881174664</ele>
        <time>2024-09-11T23:17:51.446Z</time>
      </trkpt>
      <trkpt lat="43.29484000000001" lon="5.382895">
        <ele>57.71121151016029</ele>
        <time>2024-09-11T23:22:44.456Z</time>
      </trkpt>
      <trkpt lat="43.29512" lon="5.382648333333333">
        <ele>66.81172087311359</ele>
        <time>2024-09-11T23:36:04.745Z</time>
      </trkpt>
      <trkpt lat="43.29401464311886" lon="5.383459403244473">
        <ele>45.38016070281287</ele>
        <time>2024-09-11T23:39:22.765Z</time>
      </trkpt>
      <trkpt lat="43.29355994325644" lon="5.382926788386044">
        <ele>43.21833191665383</ele>
        <time>2024-09-11T23:40:57.186Z</time>
      </trkpt>
      <trkpt lat="43.292609999999996" lon="5.378886666666667">
        <ele>2.3174059197495183</ele>
        <time>2024-09-11T23:48:35.714Z</time>
      </trkpt>
      <trkpt lat="43.29231333333334" lon="5.378915000000001">
        <ele>25.917285161255045</ele>
        <time>2024-09-11T23:49:33.694Z</time>
      </trkpt>
      <trkpt lat="43.292158333333326" lon="5.379061666666667">
        <ele>19.717007885657623</ele>
        <time>2024-09-11T23:49:51.723Z</time>
      </trkpt>
      <trkpt lat="43.291799999999995" lon="5.37916">
        <ele>22.7167200313678</ele>
        <time>2024-09-11T23:50:31.722Z</time>
      </trkpt>
      <trkpt lat="43.29165833333333" lon="5.379356666666666">
        <ele>22.616367418329276</ele>
        <time>2024-09-11T23:50:53.710Z</time>
      </trkpt>
      <trkpt lat="43.291293333333336" lon="5.3794949999999995">
        <ele>25.416010459898523</ele>
        <time>2024-09-11T23:51:35.709Z</time>
      </trkpt>
      <trkpt lat="43.29095166666666" lon="5.379796666666666">
        <ele>15.41538556179919</ele>
        <time>2024-09-11T23:52:31.693Z</time>
      </trkpt>
      <trkpt lat="43.29099333333333" lon="5.379691666666668">
        <ele>16.01556481554401</ele>
        <time>2024-09-11T23:53:04.714Z</time>
      </trkpt>
      <trkpt lat="43.29080166666666" lon="5.379368333333334">
        <ele>14.616083204897194</ele>
        <time>2024-09-11T23:53:46.707Z</time>
      </trkpt>
      <trkpt lat="43.290524999999995" lon="5.378116666666667">
        <ele>9.018106089466336</ele>
        <time>2024-09-11T23:55:34.703Z</time>
      </trkpt>
      <trkpt lat="43.290245000000006" lon="5.378195">
        <ele>16.31790664221468</ele>
        <time>2024-09-11T23:56:13.699Z</time>
      </trkpt>
      <trkpt lat="43.29026333333333" lon="5.3776649999999995">
        <ele>18.218819264813156</ele>
        <time>2024-09-11T23:57:25.703Z</time>
      </trkpt>
      <trkpt lat="43.29039719284759" lon="5.377482889164071">
        <ele>18.63500670632436</ele>
        <time>2024-09-11T23:57:54.234Z</time>
      </trkpt>
      <trkpt lat="43.28995959788003" lon="5.372616349931604">
        <ele>30.535577609762797</ele>
        <time>2024-09-12T00:04:02.630Z</time>
      </trkpt>
      <trkpt lat="43.29082513600241" lon="5.372396144497742">
        <ele>29.739458822040636</ele>
        <time>2024-09-12T00:05:33.485Z</time>
      </trkpt>
      <trkpt lat="43.29106918238199" lon="5.3721950063712995">
        <ele>29.72363847544529</ele>
        <time>2024-09-12T00:06:02.859Z</time>
      </trkpt>
      <trkpt lat="43.291303333333325" lon="5.371881666666667">
        <ele>18.318637564196145</ele>
        <time>2024-09-12T00:20:45.774Z</time>
      </trkpt>
      <trkpt lat="43.291293333333336" lon="5.3718200000000005">
        <ele>20.229023555755937</ele>
        <time>2024-09-12T00:20:54.479Z</time>
      </trkpt>
    </trkseg>
  </trk>
</gpx>
