<?xml version="1.0" encoding="UTF-8"?>
<gpx version="1.1" creator="Export" xmlns="http://www.topografix.com/GPX/1/1" xmlns:xsi="http://www.w3.org/2001/XMLSchema-instance" xsi:schemaLocation="http://www.topografix.com/GPX/1/1 http://www.topografix.com/GPX/1/1/gpx.xsd http://www.garmin.com/xmlschemas/GpxExtensions/v3 http://www.garmin.com/xmlschemas/GpxExtensionsv3.xsd http://www.garmin.com/xmlschemas/TrackPointExtension/v1 http://www.garmin.com/xmlschemas/TrackPointExtensionv1.xsd http://www.garmin.com/xmlschemas/PowerExtension/v1 http://www.garmin.com/xmlschemas/PowerExtensionv1.xsd http://www.topografix.com/GPX/gpx_style/0/2 http://www.topografix.com/GPX/gpx_style/0/2/gpx_style.xsd" xmlns:gpxtpx="http://www.garmin.com/xmlschemas/TrackPointExtension/v1" xmlns:gpxx="http://www.garmin.com/xmlschemas/GpxExtensions/v3" xmlns:gpxpx="http://www.garmin.com/xmlschemas/PowerExtension/v1" xmlns:gpx_style="http://www.topografix.com/GPX/gpx_style/0/2">
  <metadata>
    <name>activity_204_2024-09-11</name>
    <author>
      <name>gpx.studio</name>
      <link href="https://gpx.studio"/>
    </author>
  </metadata>
  <wpt lat="39.472972" lon="-0.371917">
    <ele>25.79724819676372</ele>
    <name>Hostel</name>
    <sym>Lodging</sym>
  </wpt>
  <wpt lat="39.473418" lon="-0.379064">
    <ele>26.08512789353227</ele>
    <name>Mercat Central</name>
    <sym>Restaurant</sym>
  </wpt>
  <trk>
    <name>activity_204_2024-09-11</name>
    <trkseg>
      <trkpt lat="39.47298474265017" lon="-0.3719128310772817">
        <ele>25.81442904206571</ele>
        <time>2024-09-11T06:43:56.480Z</time>
      </trkpt>
      <trkpt lat="39.47321126684902" lon="-0.37221300091145">
        <ele>24.835551750856208</ele>
        <time>2024-09-11T06:44:26.964Z</time>
      </trkpt>
      <trkpt lat="39.47324666666667" lon="-0.3723666666666666">
        <ele>-0.09015251202310992</ele>
        <time>2024-09-11T06:44:42.084Z</time>
      </trkpt>
      <trkpt lat="39.47351333333334" lon="-0.37376666666666664">
        <ele>0.4107141118992246</ele>
        <time>2024-09-11T06:46:24.081Z</time>
      </trkpt>
      <trkpt lat="39.47347333333333" lon="-0.37381333333333333">
        <ele>2.410693617656662</ele>
        <time>2024-09-11T06:46:33.088Z</time>
      </trkpt>
      <trkpt lat="39.47383677793425" lon="-0.3755004576827048">
        <ele>29.496174165955807</ele>
        <time>2024-09-11T06:48:33.062Z</time>
      </trkpt>
      <trkpt lat="39.473927462686675" lon="-0.3767059078559214">
        <ele>23.932840969786575</ele>
        <time>2024-09-11T06:49:49.081Z</time>
      </trkpt>
      <trkpt lat="39.473335" lon="-0.37757166666666664">
        <ele>9.111966002044888</ele>
        <time>2024-09-11T06:52:10.101Z</time>
      </trkpt>
      <trkpt lat="39.47340333333333" lon="-0.377745">
        <ele>15.212097966643704</ele>
        <time>2024-09-11T06:52:27.091Z</time>
      </trkpt>
      <trkpt lat="39.47351166666667" lon="-0.377765">
        <ele>20.312245400518627</ele>
        <time>2024-09-11T06:53:04.263Z</time>
      </trkpt>
      <trkpt lat="39.4733282394391" lon="-0.3791522264996843">
        <ele>26.728222548770923</ele>
        <time>2024-09-11T06:54:46.036Z</time>
      </trkpt>
      <trkpt lat="39.47326833333333" lon="-0.37838">
        <ele>49.112236712716204</ele>
        <time>2024-09-11T07:32:50.055Z</time>
      </trkpt>
      <trkpt lat="39.473528333333334" lon="-0.37772">
        <ele>25.81224013663921</ele>
        <time>2024-09-11T07:34:35.075Z</time>
      </trkpt>
      <trkpt lat="39.473373333333335" lon="-0.37780166666666665">
        <ele>25.212116709930584</ele>
        <time>2024-09-11T07:35:04.049Z</time>
      </trkpt>
      <trkpt lat="39.472838333333335" lon="-0.37693499999999996">
        <ele>12.511136955493342</ele>
        <time>2024-09-11T07:42:05.062Z</time>
      </trkpt>
      <trkpt lat="39.47275166666667" lon="-0.3769633333333333">
        <ele>17.311062651579938</ele>
        <time>2024-09-11T07:42:22.094Z</time>
      </trkpt>
      <trkpt lat="39.47264333333333" lon="-0.37657999999999997">
        <ele>13.110782507637786</ele>
        <time>2024-09-11T07:42:56.055Z</time>
      </trkpt>
      <trkpt lat="39.47376666666666" lon="-0.3756716666666666">
        <ele>12.41173971380534</ele>
        <time>2024-09-11T07:45:11.072Z</time>
      </trkpt>
      <trkpt lat="39.4737" lon="-0.3753783333333333">
        <ele>10.611585075500784</ele>
        <time>2024-09-11T07:45:33.063Z</time>
      </trkpt>
      <trkpt lat="39.47360333333334" lon="-0.3752566666666667">
        <ele>15.611418961400958</ele>
        <time>2024-09-11T07:45:46.095Z</time>
      </trkpt>
      <trkpt lat="39.47346833333334" lon="-0.3744366666666667">
        <ele>19.810934766254775</ele>
        <time>2024-09-11T07:46:40.105Z</time>
      </trkpt>
      <trkpt lat="39.47350333333333" lon="-0.37433833333333333">
        <ele>19.110920428851927</ele>
        <time>2024-09-11T07:46:47.085Z</time>
      </trkpt>
      <trkpt lat="39.47344666666667" lon="-0.37426">
        <ele>24.31089587680249</ele>
        <time>2024-09-11T07:47:12.079Z</time>
      </trkpt>
      <trkpt lat="39.47316" lon="-0.372435">
        <ele>13.309787151425958</ele>
        <time>2024-09-11T07:49:32.094Z</time>
      </trkpt>
      <trkpt lat="39.47297912466058" lon="-0.3719260443741632">
        <ele>25.805626498293083</ele>
        <time>2024-09-11T07:50:12.622Z</time>
      </trkpt>
      <trkpt lat="39.47307961493226" lon="-0.37213264801596324">
        <ele>25.729161496553917</ele>
        <time>2024-09-11T07:50:29.096Z</time>
      </trkpt>
      <trkpt lat="39.47314333333334" lon="-0.3724016666666667">
        <ele>25.646490612287703</ele>
        <time>2024-09-11T07:50:48.109Z</time>
      </trkpt>
      <trkpt lat="39.47310166666667" lon="-0.3724133333333333">
        <ele>19.509698557049852</ele>
        <time>2024-09-11T08:12:24.088Z</time>
      </trkpt>
      <trkpt lat="39.4733" lon="-0.37262500000000004">
        <ele>21.810015088170537</ele>
        <time>2024-09-11T08:12:43.089Z</time>
      </trkpt>
      <trkpt lat="39.47342833333333" lon="-0.3730316666666667">
        <ele>24.8103211404174</ele>
        <time>2024-09-11T08:13:19.105Z</time>
      </trkpt>
      <trkpt lat="39.473378333333336" lon="-0.37324">
        <ele>24.810351613101858</ele>
        <time>2024-09-11T08:13:30.084Z</time>
      </trkpt>
      <trkpt lat="39.47347833333333" lon="-0.37351833333333334">
        <ele>17.210584117085304</ele>
        <time>2024-09-11T08:13:57.088Z</time>
      </trkpt>
      <trkpt lat="39.472856666666665" lon="-0.3737333333333333">
        <ele>6.409937874086559</ele>
        <time>2024-09-11T08:15:13.088Z</time>
      </trkpt>
      <trkpt lat="39.472721666666665" lon="-0.37369833333333335">
        <ele>13.609767638469599</ele>
        <time>2024-09-11T08:15:43.059Z</time>
      </trkpt>
      <trkpt lat="39.47271" lon="-0.37420000000000003">
        <ele>22.509945525455784</ele>
        <time>2024-09-11T08:16:27.079Z</time>
      </trkpt>
      <trkpt lat="39.472788333333334" lon="-0.374245">
        <ele>23.110043364467025</ele>
        <time>2024-09-11T08:16:36.061Z</time>
      </trkpt>
      <trkpt lat="39.47275333333334" lon="-0.37437">
        <ele>28.310061442030296</ele>
        <time>2024-09-11T08:16:49.092Z</time>
      </trkpt>
      <trkpt lat="39.47264333333333" lon="-0.37440833333333334">
        <ele>30.609957324573287</ele>
        <time>2024-09-11T08:16:57.055Z</time>
      </trkpt>
      <trkpt lat="39.472006666666665" lon="-0.3743283333333334">
        <ele>21.509181879095287</ele>
        <time>2024-09-11T08:18:06.088Z</time>
      </trkpt>
      <trkpt lat="39.47176666666667" lon="-0.3741316666666667">
        <ele>16.50881614783342</ele>
        <time>2024-09-11T08:18:30.094Z</time>
      </trkpt>
      <trkpt lat="39.470620000000004" lon="-0.3740383333333333">
        <ele>16.407431746773305</ele>
        <time>2024-09-11T08:20:45.078Z</time>
      </trkpt>
      <trkpt lat="39.470479999999995" lon="-0.3744283333333333">
        <ele>11.807403570362489</ele>
        <time>2024-09-11T08:21:18.096Z</time>
      </trkpt>
      <trkpt lat="39.47045333333333" lon="-0.37505166666666667">
        <ele>10.507615070236326</ele>
        <time>2024-09-11T08:22:06.065Z</time>
      </trkpt>
      <trkpt lat="39.47049666666667" lon="-0.37501500000000004">
        <ele>11.607637623609165</ele>
        <time>2024-09-11T08:22:15.049Z</time>
      </trkpt>
      <trkpt lat="39.47053666666667" lon="-0.3751166666666667">
        <ele>10.50773207256971</ele>
        <time>2024-09-11T08:22:26.094Z</time>
      </trkpt>
      <trkpt lat="39.47053666666667" lon="-0.3755183333333333">
        <ele>14.507882649865827</ele>
        <time>2024-09-11T08:23:00.092Z</time>
      </trkpt>
      <trkpt lat="39.47044166666667" lon="-0.3757016666666667">
        <ele>14.907860466896409</ele>
        <time>2024-09-11T08:23:15.085Z</time>
      </trkpt>
      <trkpt lat="39.47009833333333" lon="-0.375755">
        <ele>14.907484049237667</ele>
        <time>2024-09-11T08:23:34.066Z</time>
      </trkpt>
      <trkpt lat="39.46718713152296" lon="-0.3749821683529717">
        <ele>27.461259754002572</ele>
        <time>2024-09-11T08:28:27.705Z</time>
      </trkpt>
      <trkpt lat="39.468095" lon="-0.3797116666666666">
        <ele>14.506596539932879</ele>
        <time>2024-09-11T08:37:37.084Z</time>
      </trkpt>
      <trkpt lat="39.467890000000004" lon="-0.37982333333333335">
        <ele>17.506407835570506</ele>
        <time>2024-09-11T08:38:17.049Z</time>
      </trkpt>
      <trkpt lat="39.467636666666664" lon="-0.38019833333333336">
        <ele>7.8062554312699675</ele>
        <time>2024-09-11T08:41:27.259Z</time>
      </trkpt>
      <trkpt lat="39.467636666666664" lon="-0.38019833333333336">
        <ele>20.536836029635875</ele>
        <time>2024-09-11T08:41:27.259Z</time>
      </trkpt>
      <trkpt lat="39.467864999999996" lon="-0.38003666666666663">
        <ele>21.130279100400088</ele>
        <time>2024-09-11T08:43:35.923Z</time>
      </trkpt>
      <trkpt lat="39.467864999999996" lon="-0.38003666666666663">
        <ele>8.006424475122571</ele>
        <time>2024-09-11T08:43:35.923Z</time>
      </trkpt>
      <trkpt lat="39.467864999999996" lon="-0.38003666666666663">
        <ele>21.130279100400088</ele>
        <time>2024-09-11T08:43:35.923Z</time>
      </trkpt>
      <trkpt lat="39.467558333333336" lon="-0.3803183333333333">
        <ele>21.405966048711534</ele>
        <time>2024-09-11T08:44:46.192Z</time>
      </trkpt>
      <trkpt lat="39.467558333333336" lon="-0.3803183333333333">
        <ele>91.30620311758321</ele>
        <time>2024-09-11T08:44:46.192Z</time>
      </trkpt>
      <trkpt lat="39.467558333333336" lon="-0.3803183333333333">
        <ele>21.405966048711534</ele>
        <time>2024-09-11T08:44:46.192Z</time>
      </trkpt>
      <trkpt lat="39.467710000000004" lon="-0.38010166666666667">
        <ele>20.732271951759156</ele>
        <time>2024-09-11T08:47:56.481Z</time>
      </trkpt>
      <trkpt lat="39.467710000000004" lon="-0.38010166666666667">
        <ele>49.20631994963674</ele>
        <time>2024-09-11T08:47:56.481Z</time>
      </trkpt>
      <trkpt lat="39.467710000000004" lon="-0.38010166666666667">
        <ele>20.732271951759156</ele>
        <time>2024-09-11T08:49:37.145Z</time>
      </trkpt>
      <trkpt lat="39.46733" lon="-0.380315">
        <ele>23.807125393318206</ele>
        <time>2024-09-11T08:50:10.583Z</time>
      </trkpt>
      <trkpt lat="39.46733" lon="-0.380315">
        <ele>42.10593416101757</ele>
        <time>2024-09-11T08:50:10.583Z</time>
      </trkpt>
      <trkpt lat="39.46731" lon="-0.38053000000000003">
        <ele>36.90597866448871</ele>
        <time>2024-09-11T08:50:24.080Z</time>
      </trkpt>
      <trkpt lat="39.467063333333336" lon="-0.3808033333333333">
        <ele>35.005820442251405</ele>
        <time>2024-09-11T08:50:59.088Z</time>
      </trkpt>
      <trkpt lat="39.46707" lon="-0.38089666666666666">
        <ele>33.405832874986096</ele>
        <time>2024-09-11T08:52:07.097Z</time>
      </trkpt>
      <trkpt lat="39.467171666666665" lon="-0.38077666666666665">
        <ele>33.105921028707414</ele>
        <time>2024-09-11T08:52:34.064Z</time>
      </trkpt>
      <trkpt lat="39.46706166666667" lon="-0.380765">
        <ele>38.90578871199063</ele>
        <time>2024-09-11T08:52:57.054Z</time>
      </trkpt>
      <trkpt lat="39.46684666666667" lon="-0.3809983333333333">
        <ele>39.905620016066315</ele>
        <time>2024-09-11T08:53:24.060Z</time>
      </trkpt>
      <trkpt lat="39.466681666666666" lon="-0.3808866666666667">
        <ele>34.70538263297016</ele>
        <time>2024-09-11T08:53:45.078Z</time>
      </trkpt>
      <trkpt lat="39.46635666666667" lon="-0.3812116666666666">
        <ele>16.005116520796115</ele>
        <time>2024-09-11T08:54:38.087Z</time>
      </trkpt>
      <trkpt lat="39.46619166666667" lon="-0.3811666666666667">
        <ele>17.004923317842007</ele>
        <time>2024-09-11T08:54:51.086Z</time>
      </trkpt>
      <trkpt lat="39.465538333333335" lon="-0.3812583333333333">
        <ele>11.304184469354247</ele>
        <time>2024-09-11T08:55:50.078Z</time>
      </trkpt>
      <trkpt lat="39.464705" lon="-0.38065">
        <ele>11.502978154876061</ele>
        <time>2024-09-11T08:57:23.100Z</time>
      </trkpt>
      <trkpt lat="39.4641" lon="-0.379785">
        <ele>-5.798059664378215</ele>
        <time>2024-09-11T08:58:40.113Z</time>
      </trkpt>
      <trkpt lat="39.463633333333334" lon="-0.3799033333333333">
        <ele>1.7014270728119385</ele>
        <time>2024-09-11T08:59:22.114Z</time>
      </trkpt>
      <trkpt lat="39.463494999999995" lon="-0.37966">
        <ele>0.9011747511325723</ele>
        <time>2024-09-11T08:59:56.114Z</time>
      </trkpt>
      <trkpt lat="39.46332666666667" lon="-0.378945">
        <ele>4.400710251308155</ele>
        <time>2024-09-11T09:00:41.110Z</time>
      </trkpt>
      <trkpt lat="39.46327" lon="-0.3789433333333333">
        <ele>4.300644544467055</ele>
        <time>2024-09-11T09:00:45.109Z</time>
      </trkpt>
      <trkpt lat="39.46300833333333" lon="-0.37906666666666666">
        <ele>1.4003725905567563</ele>
        <time>2024-09-11T09:01:12.103Z</time>
      </trkpt>
      <trkpt lat="39.463028333333334" lon="-0.379185">
        <ele>1.100435140497261</ele>
        <time>2024-09-11T09:01:23.117Z</time>
      </trkpt>
      <trkpt lat="39.462898333333335" lon="-0.3793316666666666">
        <ele>-1.4996533444204587</ele>
        <time>2024-09-11T09:01:37.113Z</time>
      </trkpt>
      <trkpt lat="39.461621666666666" lon="-0.37982">
        <ele>0.29902999999536206</ele>
        <time>2024-09-11T09:03:35.116Z</time>
      </trkpt>
      <trkpt lat="39.46142833333333" lon="-0.38017666666666666">
        <ele>4.498925787848812</ele>
        <time>2024-09-11T09:04:04.100Z</time>
      </trkpt>
      <trkpt lat="39.46125333333334" lon="-0.38009">
        <ele>6.998706430283228</ele>
        <time>2024-09-11T09:04:12.104Z</time>
      </trkpt>
      <trkpt lat="39.460950000000004" lon="-0.3802083333333333">
        <ele>10.2983845173421</ele>
        <time>2024-09-11T09:04:37.103Z</time>
      </trkpt>
      <trkpt lat="39.460921666666664" lon="-0.38015333333333334">
        <ele>13.598326659663208</ele>
        <time>2024-09-11T09:04:50.093Z</time>
      </trkpt>
      <trkpt lat="39.46076333333333" lon="-0.38058333333333333">
        <ele>16.398291508887773</ele>
        <time>2024-09-11T09:05:24.113Z</time>
      </trkpt>
      <trkpt lat="39.460478333333334" lon="-0.3808566666666667">
        <ele>18.49806553313193</ele>
        <time>2024-09-11T09:05:55.093Z</time>
      </trkpt>
      <trkpt lat="39.46036166666667" lon="-0.38083833333333333">
        <ele>23.397915797508077</ele>
        <time>2024-09-11T09:06:07.084Z</time>
      </trkpt>
      <trkpt lat="39.46003833333334" lon="-0.381055">
        <ele>22.897613300595978</ele>
        <time>2024-09-11T09:06:47.097Z</time>
      </trkpt>
      <trkpt lat="39.459975" lon="-0.38119333333333333">
        <ele>21.89758435516142</ele>
        <time>2024-09-11T09:07:26.088Z</time>
      </trkpt>
      <trkpt lat="39.460015" lon="-0.38125333333333333">
        <ele>21.797648991363992</ele>
        <time>2024-09-11T09:07:38.086Z</time>
      </trkpt>
      <trkpt lat="39.45999" lon="-0.38113833333333336">
        <ele>13.297579732308051</ele>
        <time>2024-09-11T09:08:25.096Z</time>
      </trkpt>
      <trkpt lat="39.45981666666667" lon="-0.3812366666666666">
        <ele>4.897419325974532</ele>
        <time>2024-09-11T09:09:29.104Z</time>
      </trkpt>
      <trkpt lat="39.45985833333334" lon="-0.38117833333333334">
        <ele>-2.702557052635605</ele>
        <time>2024-09-11T09:10:18.087Z</time>
      </trkpt>
      <trkpt lat="39.459745" lon="-0.3807283333333333">
        <ele>17.39714825659214</ele>
        <time>2024-09-11T09:10:57.090Z</time>
      </trkpt>
      <trkpt lat="39.45977666666667" lon="-0.38066">
        <ele>20.497151088196887</ele>
        <time>2024-09-11T09:11:04.100Z</time>
      </trkpt>
      <trkpt lat="39.45982166666667" lon="-0.380725">
        <ele>20.29722484103967</ele>
        <time>2024-09-11T09:11:20.101Z</time>
      </trkpt>
      <trkpt lat="39.45993166666666" lon="-0.3806816666666667">
        <ele>19.097348057555905</ele>
        <time>2024-09-11T09:12:02.100Z</time>
      </trkpt>
      <trkpt lat="39.45979166666667" lon="-0.38061833333333334">
        <ele>11.797169618060977</ele>
        <time>2024-09-11T09:12:44.104Z</time>
      </trkpt>
      <trkpt lat="39.45852" lon="-0.38087499999999996">
        <ele>13.595767395950688</ele>
        <time>2024-09-11T09:14:39.103Z</time>
      </trkpt>
      <trkpt lat="39.458495" lon="-0.3809416666666667">
        <ele>13.095744130254126</ele>
        <time>2024-09-11T09:14:47.094Z</time>
      </trkpt>
      <trkpt lat="39.458578333333335" lon="-0.3810016666666666">
        <ele>16.595868134084682</ele>
        <time>2024-09-11T09:16:56.859Z</time>
      </trkpt>
    </trkseg>
  </trk>
</gpx>
