<?xml version="1.0" encoding="UTF-8"?>
<gpx version="1.1" creator="Export" xmlns="http://www.topografix.com/GPX/1/1" xmlns:xsi="http://www.w3.org/2001/XMLSchema-instance" xsi:schemaLocation="http://www.topografix.com/GPX/1/1 http://www.topografix.com/GPX/1/1/gpx.xsd http://www.garmin.com/xmlschemas/GpxExtensions/v3 http://www.garmin.com/xmlschemas/GpxExtensionsv3.xsd http://www.garmin.com/xmlschemas/TrackPointExtension/v1 http://www.garmin.com/xmlschemas/TrackPointExtensionv1.xsd http://www.garmin.com/xmlschemas/PowerExtension/v1 http://www.garmin.com/xmlschemas/PowerExtensionv1.xsd http://www.topografix.com/GPX/gpx_style/0/2 http://www.topografix.com/GPX/gpx_style/0/2/gpx_style.xsd" xmlns:gpxtpx="http://www.garmin.com/xmlschemas/TrackPointExtension/v1" xmlns:gpxx="http://www.garmin.com/xmlschemas/GpxExtensions/v3" xmlns:gpxpx="http://www.garmin.com/xmlschemas/PowerExtension/v1" xmlns:gpx_style="http://www.topografix.com/GPX/gpx_style/0/2">
  <metadata>
    <name>activity_169_2024-08-26</name>
    <author>
      <name>gpx.studio</name>
      <link href="https://gpx.studio"/>
    </author>
  </metadata>
  <wpt lat="48.859203" lon="2.351669">
    <ele>50.59297038223628</ele>
    <name>Crepes</name>
    <sym>Restaurant</sym>
  </wpt>
  <wpt lat="48.879498" lon="2.358405">
    <ele>63.67138029824017</ele>
    <name>St. Christopher&apos;s Inn</name>
    <sym>Lodging</sym>
  </wpt>
  <trk>
    <name>activity_169_2024-08-26</name>
    <trkseg>
      <trkpt lat="48.879959450425616" lon="2.3561782189137546">
        <ele>56.27813535309504</ele>
        <time>2024-08-26T10:18:33.596Z</time>
      </trkpt>
      <trkpt lat="48.87956333333333" lon="2.3572100000000002">
        <ele>61.60167834968895</ele>
        <time>2024-08-26T10:20:04.147Z</time>
      </trkpt>
      <trkpt lat="48.87951450046663" lon="2.3575649567364962">
        <ele>61.56304998947358</ele>
        <time>2024-08-26T10:20:28.365Z</time>
      </trkpt>
      <trkpt lat="48.8795158932021" lon="2.3584014730152205">
        <ele>63.71379922917635</ele>
        <time>2024-08-26T10:21:24.231Z</time>
      </trkpt>
      <trkpt lat="48.879504783354946" lon="2.357679181792065">
        <ele>61.80449564540059</ele>
        <time>2024-08-26T10:22:12.481Z</time>
      </trkpt>
      <trkpt lat="48.87957333333334" lon="2.3572800000000003">
        <ele>62.60372657160916</ele>
        <time>2024-08-26T11:52:17.091Z</time>
      </trkpt>
      <trkpt lat="48.87952833333334" lon="2.357141666666667">
        <ele>65.80365993058598</ele>
        <time>2024-08-26T11:52:36.081Z</time>
      </trkpt>
      <trkpt lat="48.879625000000004" lon="2.356933333333333">
        <ele>60.60358529267874</ele>
        <time>2024-08-26T11:52:57.091Z</time>
      </trkpt>
      <trkpt lat="48.879703333333325" lon="2.356508333333333">
        <ele>64.20342260787908</ele>
        <time>2024-08-26T11:53:20.143Z</time>
      </trkpt>
      <trkpt lat="48.87964333333333" lon="2.3564683333333334">
        <ele>67.30338235208754</ele>
        <time>2024-08-26T11:53:25.120Z</time>
      </trkpt>
      <trkpt lat="48.879535000000004" lon="2.356625">
        <ele>64.60342039458563</ele>
        <time>2024-08-26T11:53:38.601Z</time>
      </trkpt>
      <trkpt lat="48.87945500000001" lon="2.3569383333333334">
        <ele>63.50352655265789</ele>
        <time>2024-08-26T11:55:08.100Z</time>
      </trkpt>
      <trkpt lat="48.87949333333333" lon="2.3573983333333337">
        <ele>64.50374885026454</ele>
        <time>2024-08-26T11:56:22.115Z</time>
      </trkpt>
      <trkpt lat="48.87945833333333" lon="2.35768">
        <ele>62.10386393835011</ele>
        <time>2024-08-26T11:56:36.101Z</time>
      </trkpt>
      <trkpt lat="48.87887666666667" lon="2.3586383333333334">
        <ele>59.5041678591728</ele>
        <time>2024-08-26T11:58:06.081Z</time>
      </trkpt>
      <trkpt lat="48.87768166666667" lon="2.3582266666666665">
        <ele>48.20368975763057</ele>
        <time>2024-08-26T12:00:22.091Z</time>
      </trkpt>
      <trkpt lat="48.877559999999995" lon="2.358245">
        <ele>51.10366655430258</ele>
        <time>2024-08-26T12:00:40.111Z</time>
      </trkpt>
      <trkpt lat="48.876495000000006" lon="2.3576550000000003">
        <ele>47.60313746504909</ele>
        <time>2024-08-26T12:02:30.120Z</time>
      </trkpt>
      <trkpt lat="48.87626333333333" lon="2.3581483333333333">
        <ele>45.303298719610126</ele>
        <time>2024-08-26T12:03:17.077Z</time>
      </trkpt>
      <trkpt lat="48.876066666666674" lon="2.3580683333333337">
        <ele>41.60321585422392</ele>
        <time>2024-08-26T12:03:45.078Z</time>
      </trkpt>
      <trkpt lat="48.87600666666667" lon="2.3584933333333336">
        <ele>41.803388213708736</ele>
        <time>2024-08-26T12:04:19.084Z</time>
      </trkpt>
      <trkpt lat="48.87593833333334" lon="2.358365">
        <ele>40.003323013656825</ele>
        <time>2024-08-26T12:04:42.087Z</time>
      </trkpt>
      <trkpt lat="48.87540833333334" lon="2.35796">
        <ele>31.20300946190534</ele>
        <time>2024-08-26T12:05:48.091Z</time>
      </trkpt>
      <trkpt lat="48.87503666666667" lon="2.3577333333333335">
        <ele>31.40285235396881</ele>
        <time>2024-08-26T12:06:39.127Z</time>
      </trkpt>
      <trkpt lat="48.87486666666667" lon="2.3577266666666667">
        <ele>33.302766761414595</ele>
        <time>2024-08-26T12:06:56.098Z</time>
      </trkpt>
      <trkpt lat="48.87483666666667" lon="2.35763">
        <ele>33.30271793071797</ele>
        <time>2024-08-26T12:07:09.084Z</time>
      </trkpt>
      <trkpt lat="48.87452666666666" lon="2.357445">
        <ele>34.20255844258923</ele>
        <time>2024-08-26T12:07:39.095Z</time>
      </trkpt>
      <trkpt lat="48.874001666666665" lon="2.357943333333333">
        <ele>38.80264434703269</ele>
        <time>2024-08-26T12:08:34.107Z</time>
      </trkpt>
      <trkpt lat="48.87403833333333" lon="2.357911666666667">
        <ele>39.7026430941995</ele>
        <time>2024-08-26T12:08:38.088Z</time>
      </trkpt>
      <trkpt lat="48.87410166666667" lon="2.358015">
        <ele>40.9026961536844</ele>
        <time>2024-08-26T12:08:45.108Z</time>
      </trkpt>
      <trkpt lat="48.87426000000001" lon="2.35802">
        <ele>46.90274531349076</ele>
        <time>2024-08-26T12:08:56.105Z</time>
      </trkpt>
      <trkpt lat="48.87476" lon="2.3575783333333336">
        <ele>55.70267439622865</ele>
        <time>2024-08-26T12:09:35.117Z</time>
      </trkpt>
      <trkpt lat="48.87462166666666" lon="2.3573383333333333">
        <ele>55.40254443682184</ele>
        <time>2024-08-26T12:09:44.137Z</time>
      </trkpt>
      <trkpt lat="48.87451666666666" lon="2.3572716666666667">
        <ele>48.10247343840968</ele>
        <time>2024-08-26T12:09:52.133Z</time>
      </trkpt>
      <trkpt lat="48.87464" lon="2.3569316666666666">
        <ele>50.602360173006126</ele>
        <time>2024-08-26T12:10:54.080Z</time>
      </trkpt>
      <trkpt lat="48.87445833333333" lon="2.3561833333333335">
        <ele>39.401975399293335</ele>
        <time>2024-08-26T12:11:43.077Z</time>
      </trkpt>
      <trkpt lat="48.87434" lon="2.3553916666666668">
        <ele>42.101591384973425</ele>
        <time>2024-08-26T12:12:29.080Z</time>
      </trkpt>
      <trkpt lat="48.87278666666666" lon="2.3544466666666666">
        <ele>45.100764570902996</ele>
        <time>2024-08-26T12:15:24.075Z</time>
      </trkpt>
      <trkpt lat="48.87278" lon="2.3543133333333337">
        <ele>45.00071185637109</ele>
        <time>2024-08-26T12:15:37.081Z</time>
      </trkpt>
      <trkpt lat="48.871628333333334" lon="2.353665">
        <ele>33.6001258821368</ele>
        <time>2024-08-26T12:17:35.087Z</time>
      </trkpt>
      <trkpt lat="48.87178166666666" lon="2.3536916666666663">
        <ele>34.20015648499674</ele>
        <time>2024-08-26T12:17:47.081Z</time>
      </trkpt>
      <trkpt lat="48.871804999999995" lon="2.3537766666666666">
        <ele>34.5002067801016</ele>
        <time>2024-08-26T12:17:51.097Z</time>
      </trkpt>
      <trkpt lat="48.87175666666667" lon="2.35385">
        <ele>34.50023442939409</ele>
        <time>2024-08-26T12:17:54.082Z</time>
      </trkpt>
      <trkpt lat="48.871585" lon="2.353911666666667">
        <ele>37.60022790758599</ele>
        <time>2024-08-26T12:18:03.074Z</time>
      </trkpt>
      <trkpt lat="48.871691666666656" lon="2.3537916666666665">
        <ele>38.10019653546652</ele>
        <time>2024-08-26T12:18:10.108Z</time>
      </trkpt>
      <trkpt lat="48.87154" lon="2.353645">
        <ele>40.600106655444506</ele>
        <time>2024-08-26T12:18:22.088Z</time>
      </trkpt>
      <trkpt lat="48.86987166666666" lon="2.3527133333333334">
        <ele>42.49925578903719</ele>
        <time>2024-08-26T12:22:31.091Z</time>
      </trkpt>
      <trkpt lat="48.869775" lon="2.352863333333333">
        <ele>41.29929364484476</ele>
        <time>2024-08-26T12:22:50.098Z</time>
      </trkpt>
      <trkpt lat="48.86960166666666" lon="2.3528516666666666">
        <ele>40.499251223724464</ele>
        <time>2024-08-26T12:23:03.118Z</time>
      </trkpt>
      <trkpt lat="48.86947166666667" lon="2.352663333333333">
        <ele>34.299133833532075</ele>
        <time>2024-08-26T12:23:19.124Z</time>
      </trkpt>
      <trkpt lat="48.86915833333334" lon="2.3524183333333335">
        <ele>51.89894897349831</ele>
        <time>2024-08-26T12:23:50.111Z</time>
      </trkpt>
      <trkpt lat="48.86921" lon="2.3523916666666667">
        <ele>50.59893901732078</ele>
        <time>2024-08-26T12:24:08.071Z</time>
      </trkpt>
      <trkpt lat="48.869170000000004" lon="2.3523366666666665">
        <ele>48.49891028993102</ele>
        <time>2024-08-26T12:24:14.077Z</time>
      </trkpt>
      <trkpt lat="48.86891833333334" lon="2.352185">
        <ele>48.798777450874525</ele>
        <time>2024-08-26T12:24:33.120Z</time>
      </trkpt>
      <trkpt lat="48.86781333333333" lon="2.3517050000000004">
        <ele>40.89827098391299</ele>
        <time>2024-08-26T12:26:34.124Z</time>
      </trkpt>
      <trkpt lat="48.86778833333333" lon="2.3516233333333334">
        <ele>42.9982312919513</ele>
        <time>2024-08-26T12:26:52.084Z</time>
      </trkpt>
      <trkpt lat="48.86774333333333" lon="2.3516733333333333">
        <ele>38.79823357512523</ele>
        <time>2024-08-26T12:26:59.081Z</time>
      </trkpt>
      <trkpt lat="48.86770833333333" lon="2.351576666666667">
        <ele>37.99819387885517</ele>
        <time>2024-08-26T12:27:11.115Z</time>
      </trkpt>
      <trkpt lat="48.86732" lon="2.351563333333333">
        <ele>39.6980826912321</ele>
        <time>2024-08-26T12:27:47.121Z</time>
      </trkpt>
      <trkpt lat="48.866550000000004" lon="2.3512133333333334">
        <ele>51.6977316163363</ele>
        <time>2024-08-26T12:29:08.087Z</time>
      </trkpt>
      <trkpt lat="48.866188333333334" lon="2.3508983333333333">
        <ele>44.99749727906185</ele>
        <time>2024-08-26T12:30:22.077Z</time>
      </trkpt>
      <trkpt lat="48.86532166666666" lon="2.350423333333333">
        <ele>41.89705620383571</ele>
        <time>2024-08-26T12:31:50.117Z</time>
      </trkpt>
      <trkpt lat="48.86534166666667" lon="2.350276666666667">
        <ele>40.996994076783515</ele>
        <time>2024-08-26T12:32:25.114Z</time>
      </trkpt>
      <trkpt lat="48.865159999999996" lon="2.350395">
        <ele>39.89699777488036</ele>
        <time>2024-08-26T12:32:48.127Z</time>
      </trkpt>
      <trkpt lat="48.864304999999995" lon="2.350201666666667">
        <ele>56.996696583121846</ele>
        <time>2024-08-26T12:34:33.128Z</time>
      </trkpt>
      <trkpt lat="48.864246666666666" lon="2.3500316666666667">
        <ele>51.49660471070036</ele>
        <time>2024-08-26T12:34:48.120Z</time>
      </trkpt>
      <trkpt lat="48.86368833333333" lon="2.35006">
        <ele>36.09647015157504</ele>
        <time>2024-08-26T12:35:59.081Z</time>
      </trkpt>
      <trkpt lat="48.86357666666666" lon="2.3499783333333335">
        <ele>36.69641305529582</ele>
        <time>2024-08-26T12:36:07.094Z</time>
      </trkpt>
      <trkpt lat="48.863715" lon="2.3499566666666665">
        <ele>39.39642831173899</ele>
        <time>2024-08-26T12:36:19.088Z</time>
      </trkpt>
      <trkpt lat="48.863706666666666" lon="2.3498216666666663">
        <ele>38.8963751776155</ele>
        <time>2024-08-26T12:36:39.072Z</time>
      </trkpt>
      <trkpt lat="48.86367166666667" lon="2.34992">
        <ele>40.59639534788026</ele>
        <time>2024-08-26T12:36:49.077Z</time>
      </trkpt>
      <trkpt lat="48.863448333333324" lon="2.3499633333333336">
        <ele>48.5963653226824</ele>
        <time>2024-08-26T12:37:30.121Z</time>
      </trkpt>
      <trkpt lat="48.86327333333334" lon="2.349885">
        <ele>43.896284492317996</ele>
        <time>2024-08-26T12:37:48.128Z</time>
      </trkpt>
      <trkpt lat="48.86323333333333" lon="2.3497416666666666">
        <ele>44.996253760719455</ele>
        <time>2024-08-26T12:39:09.123Z</time>
      </trkpt>
      <trkpt lat="48.86213833333333" lon="2.349305">
        <ele>34.8957323916383</ele>
        <time>2024-08-26T12:41:08.126Z</time>
      </trkpt>
      <trkpt lat="48.862095" lon="2.350115">
        <ele>42.796085316237665</ele>
        <time>2024-08-26T12:42:52.113Z</time>
      </trkpt>
      <trkpt lat="48.861846666666665" lon="2.350515">
        <ele>41.39620309895397</ele>
        <time>2024-08-26T12:44:05.111Z</time>
      </trkpt>
      <trkpt lat="48.86176333333333" lon="2.3508316666666667">
        <ele>40.8963172411815</ele>
        <time>2024-08-26T12:44:29.081Z</time>
      </trkpt>
      <trkpt lat="48.86184166666667" lon="2.3508483333333334">
        <ele>42.5963558275951</ele>
        <time>2024-08-26T12:44:37.082Z</time>
      </trkpt>
      <trkpt lat="48.86177333333333" lon="2.3511516666666665">
        <ele>41.49647329929434</ele>
        <time>2024-08-26T12:45:13.138Z</time>
      </trkpt>
      <trkpt lat="48.86172666666666" lon="2.351156666666667">
        <ele>40.69647125241436</ele>
        <time>2024-08-26T12:45:46.097Z</time>
      </trkpt>
      <trkpt lat="48.86165166666667" lon="2.3515916666666663">
        <ele>45.296641188837796</ele>
        <time>2024-08-26T12:46:19.107Z</time>
      </trkpt>
      <trkpt lat="48.86178333333334" lon="2.3517083333333333">
        <ele>41.9967289520621</ele>
        <time>2024-08-26T12:46:30.081Z</time>
      </trkpt>
      <trkpt lat="48.86163666666666" lon="2.351745">
        <ele>42.49671394319003</ele>
        <time>2024-08-26T12:46:52.088Z</time>
      </trkpt>
      <trkpt lat="48.861463333333326" lon="2.3525183333333337">
        <ele>41.09701375607085</ele>
        <time>2024-08-26T12:47:47.084Z</time>
      </trkpt>
      <trkpt lat="48.86137166666667" lon="2.352568333333333">
        <ele>39.09701573561979</ele>
        <time>2024-08-26T12:47:57.124Z</time>
      </trkpt>
      <trkpt lat="48.86116333333333" lon="2.353395">
        <ele>36.897346116425574</ele>
        <time>2024-08-26T12:48:59.111Z</time>
      </trkpt>
      <trkpt lat="48.861239999999995" lon="2.3533433333333336">
        <ele>37.697323514127966</ele>
        <time>2024-08-26T12:49:16.111Z</time>
      </trkpt>
      <trkpt lat="48.861126666666664" lon="2.3536883333333334">
        <ele>39.59746318821072</ele>
        <time>2024-08-26T12:49:47.095Z</time>
      </trkpt>
      <trkpt lat="48.86118" lon="2.3538316666666663">
        <ele>37.59753987345778</ele>
        <time>2024-08-26T12:50:00.128Z</time>
      </trkpt>
      <trkpt lat="48.86114333333333" lon="2.354023333333333">
        <ele>36.39762575634297</ele>
        <time>2024-08-26T12:50:14.130Z</time>
      </trkpt>
      <trkpt lat="48.860933333333335" lon="2.354718333333333">
        <ele>35.09788717362938</ele>
        <time>2024-08-26T12:51:24.117Z</time>
      </trkpt>
      <trkpt lat="48.861308333333334" lon="2.353701666666667">
        <ele>33.69753361641886</ele>
        <time>2024-08-26T12:52:51.104Z</time>
      </trkpt>
      <trkpt lat="48.861248333333336" lon="2.3534983333333335">
        <ele>37.79741727463798</ele>
        <time>2024-08-26T12:53:00.072Z</time>
      </trkpt>
      <trkpt lat="48.860981666666675" lon="2.353355">
        <ele>45.597292209333574</ele>
        <time>2024-08-26T12:53:25.087Z</time>
      </trkpt>
      <trkpt lat="48.86086" lon="2.3531066666666667">
        <ele>57.09714982664992</ele>
        <time>2024-08-26T12:53:37.074Z</time>
      </trkpt>
      <trkpt lat="48.86080333333333" lon="2.3531649999999997">
        <ele>63.59715002241123</ele>
        <time>2024-08-26T12:53:52.111Z</time>
      </trkpt>
      <trkpt lat="48.86066000000001" lon="2.352508333333333">
        <ele>45.99681630405791</ele>
        <time>2024-08-26T12:54:26.091Z</time>
      </trkpt>
      <trkpt lat="48.860506666666666" lon="2.3523666666666667">
        <ele>39.49670305186135</ele>
        <time>2024-08-26T12:54:46.111Z</time>
      </trkpt>
      <trkpt lat="48.860596666666666" lon="2.3523766666666663">
        <ele>42.396734057644245</ele>
        <time>2024-08-26T12:55:02.078Z</time>
      </trkpt>
      <trkpt lat="48.86045833333333" lon="2.3525283333333333">
        <ele>41.69677507788349</ele>
        <time>2024-08-26T12:55:26.120Z</time>
      </trkpt>
      <trkpt lat="48.86017166666667" lon="2.3523733333333334">
        <ele>34.49663231142985</ele>
        <time>2024-08-26T12:55:50.120Z</time>
      </trkpt>
      <trkpt lat="48.86000166666666" lon="2.3524133333333332">
        <ele>29.096600069336304</ele>
        <time>2024-08-26T12:56:06.117Z</time>
      </trkpt>
      <trkpt lat="48.859963333333326" lon="2.3522683333333334">
        <ele>26.696530260147284</ele>
        <time>2024-08-26T12:56:18.117Z</time>
      </trkpt>
      <trkpt lat="48.859786666666665" lon="2.3523716666666665">
        <ele>26.596528444244996</ele>
        <time>2024-08-26T12:56:34.078Z</time>
      </trkpt>
      <trkpt lat="48.859743333333334" lon="2.3523">
        <ele>30.296485438780714</ele>
        <time>2024-08-26T12:56:42.107Z</time>
      </trkpt>
      <trkpt lat="48.859885" lon="2.3520000000000003">
        <ele>38.19638651944229</ele>
        <time>2024-08-26T12:57:03.110Z</time>
      </trkpt>
      <trkpt lat="48.85912749514176" lon="2.3512370300525163">
        <ele>50.39440941657983</ele>
        <time>2024-08-26T12:59:58.258Z</time>
      </trkpt>
      <trkpt lat="48.858715" lon="2.351965">
        <ele>50.27069880689689</ele>
        <time>2024-08-26T13:01:04.633Z</time>
      </trkpt>
      <trkpt lat="48.857728333333334" lon="2.3514">
        <ele>65.59555080249044</ele>
        <time>2024-08-26T13:46:04.097Z</time>
      </trkpt>
      <trkpt lat="48.857600000000005" lon="2.351515">
        <ele>70.69557279798488</ele>
        <time>2024-08-26T13:46:22.084Z</time>
      </trkpt>
      <trkpt lat="48.85756666666666" lon="2.3513883333333334">
        <ele>65.99550422199006</ele>
        <time>2024-08-26T13:46:29.078Z</time>
      </trkpt>
      <trkpt lat="48.85775166666667" lon="2.3508716666666665">
        <ele>54.99531355214764</ele>
        <time>2024-08-26T13:47:13.085Z</time>
      </trkpt>
      <trkpt lat="48.85761333333333" lon="2.3508583333333335">
        <ele>47.1952690518265</ele>
        <time>2024-08-26T13:47:49.080Z</time>
      </trkpt>
      <trkpt lat="48.85742666666667" lon="2.3513933333333332">
        <ele>39.59546563495999</ele>
        <time>2024-08-26T13:48:32.121Z</time>
      </trkpt>
      <trkpt lat="48.85728833333333" lon="2.3511783333333334">
        <ele>43.09534301211359</ele>
        <time>2024-08-26T13:48:56.123Z</time>
      </trkpt>
      <trkpt lat="48.85705166666666" lon="2.35105">
        <ele>42.49521666738076</ele>
        <time>2024-08-26T13:49:15.114Z</time>
      </trkpt>
      <trkpt lat="48.85683166666666" lon="2.3511450000000003">
        <ele>42.89519940659958</ele>
        <time>2024-08-26T13:49:37.101Z</time>
      </trkpt>
      <trkpt lat="48.85619333333334" lon="2.3508433333333336">
        <ele>42.39489713138987</ele>
        <time>2024-08-26T13:51:01.126Z</time>
      </trkpt>
      <trkpt lat="48.85612666666666" lon="2.350963333333333">
        <ele>40.294933309490624</ele>
        <time>2024-08-26T13:51:20.078Z</time>
      </trkpt>
      <trkpt lat="48.85578999999999" lon="2.350585">
        <ele>40.29467993523386</ele>
        <time>2024-08-26T13:52:23.081Z</time>
      </trkpt>
      <trkpt lat="48.855219999999996" lon="2.350198333333333">
        <ele>37.89435074048067</ele>
        <time>2024-08-26T13:53:33.077Z</time>
      </trkpt>
      <trkpt lat="48.854949999999995" lon="2.3501266666666667">
        <ele>38.594243437558724</ele>
        <time>2024-08-26T13:53:58.117Z</time>
      </trkpt>
      <trkpt lat="48.854389999999995" lon="2.349776666666667">
        <ele>32.59393777110753</ele>
        <time>2024-08-26T13:55:16.127Z</time>
      </trkpt>
      <trkpt lat="48.85427833333333" lon="2.34992">
        <ele>34.7939676516228</ele>
        <time>2024-08-26T13:55:30.088Z</time>
      </trkpt>
      <trkpt lat="48.85433166666667" lon="2.3498900000000003">
        <ele>35.793975456115355</ele>
        <time>2024-08-26T13:55:41.111Z</time>
      </trkpt>
      <trkpt lat="48.854295" lon="2.349755">
        <ele>36.89390571045866</ele>
        <time>2024-08-26T13:55:52.075Z</time>
      </trkpt>
      <trkpt lat="48.853585" lon="2.349231666666667">
        <ele>38.493475257798416</ele>
        <time>2024-08-26T13:57:10.078Z</time>
      </trkpt>
      <trkpt lat="48.85346500000001" lon="2.3493033333333333">
        <ele>41.19347135720072</ele>
        <time>2024-08-26T13:57:37.081Z</time>
      </trkpt>
      <trkpt lat="48.85337500000001" lon="2.3495783333333335">
        <ele>37.59357688563035</ele>
        <time>2024-08-26T13:57:53.084Z</time>
      </trkpt>
      <trkpt lat="48.85331333333333" lon="2.3495600000000003">
        <ele>39.393559035192844</ele>
        <time>2024-08-26T13:58:12.078Z</time>
      </trkpt>
      <trkpt lat="48.85315333333333" lon="2.3501183333333335">
        <ele>37.59376659715468</ele>
        <time>2024-08-26T13:58:55.081Z</time>
      </trkpt>
      <trkpt lat="48.85304833333333" lon="2.3500300000000003">
        <ele>46.19369965118066</ele>
        <time>2024-08-26T13:59:24.087Z</time>
      </trkpt>
      <trkpt lat="48.85307833333333" lon="2.350155">
        <ele>46.993756478683636</ele>
        <time>2024-08-26T13:59:44.087Z</time>
      </trkpt>
      <trkpt lat="48.85298666666666" lon="2.3503216666666664">
        <ele>45.79380867065114</ele>
        <time>2024-08-26T13:59:53.081Z</time>
      </trkpt>
      <trkpt lat="48.852835000000006" lon="2.350895">
        <ele>43.894031994052966</ele>
        <time>2024-08-26T14:00:36.082Z</time>
      </trkpt>
      <trkpt lat="48.8529" lon="2.351555">
        <ele>40.294354793906976</ele>
        <time>2024-08-26T14:01:34.120Z</time>
      </trkpt>
      <trkpt lat="48.85276833333334" lon="2.3519550000000002">
        <ele>37.394506535308835</ele>
        <time>2024-08-26T14:02:08.126Z</time>
      </trkpt>
      <trkpt lat="48.852595" lon="2.35207">
        <ele>44.194514596709254</ele>
        <time>2024-08-26T14:02:26.120Z</time>
      </trkpt>
      <trkpt lat="48.85255833333334" lon="2.3523283333333334">
        <ele>36.99462430401628</ele>
        <time>2024-08-26T14:02:47.180Z</time>
      </trkpt>
      <trkpt lat="48.852610000000006" lon="2.352355">
        <ele>41.99464568517194</ele>
        <time>2024-08-26T14:03:05.084Z</time>
      </trkpt>
      <trkpt lat="48.85281" lon="2.3532683333333333">
        <ele>41.195116810215474</ele>
        <time>2024-08-26T14:04:15.113Z</time>
      </trkpt>
      <trkpt lat="48.852713333333334" lon="2.3533633333333333">
        <ele>41.49513993015227</ele>
        <time>2024-08-26T14:04:28.128Z</time>
      </trkpt>
      <trkpt lat="48.85251166666667" lon="2.353348333333333">
        <ele>34.99508280194989</ele>
        <time>2024-08-26T14:04:57.072Z</time>
      </trkpt>
      <trkpt lat="48.851618333333334" lon="2.3541616666666663">
        <ele>26.295216776874263</ele>
        <time>2024-08-26T14:07:57.110Z</time>
      </trkpt>
      <trkpt lat="48.85127333333333" lon="2.3557833333333336">
        <ele>25.895861757823162</ele>
        <time>2024-08-26T14:10:25.130Z</time>
      </trkpt>
      <trkpt lat="48.85119833333333" lon="2.355805">
        <ele>25.995860842164767</ele>
        <time>2024-08-26T14:10:32.137Z</time>
      </trkpt>
      <trkpt lat="48.851025" lon="2.355565">
        <ele>29.995703934388523</ele>
        <time>2024-08-26T14:11:03.082Z</time>
      </trkpt>
      <trkpt lat="48.85093" lon="2.355565">
        <ele>30.4956816404842</ele>
        <time>2024-08-26T14:11:47.124Z</time>
      </trkpt>
      <trkpt lat="48.84999166666667" lon="2.354718333333333">
        <ele>37.59504779145528</ele>
        <time>2024-08-26T14:14:02.110Z</time>
      </trkpt>
      <trkpt lat="48.851185" lon="2.3507633333333335">
        <ele>33.69354591990351</ele>
        <time>2024-08-26T14:18:59.078Z</time>
      </trkpt>
      <trkpt lat="48.85128833333333" lon="2.3507083333333334">
        <ele>38.09355119708112</ele>
        <time>2024-08-26T14:19:11.114Z</time>
      </trkpt>
      <trkpt lat="48.85170166666667" lon="2.3496699999999997">
        <ele>33.39318222454023</ele>
        <time>2024-08-26T14:21:20.126Z</time>
      </trkpt>
      <trkpt lat="48.85172166666666" lon="2.349478333333334">
        <ele>31.793106737311078</ele>
        <time>2024-08-26T14:21:39.117Z</time>
      </trkpt>
      <trkpt lat="48.85209499999999" lon="2.3487883333333333">
        <ele>37.39288093840601</ele>
        <time>2024-08-26T14:23:18.091Z</time>
      </trkpt>
      <trkpt lat="48.85259166666666" lon="2.347573333333333">
        <ele>40.4924511425193</ele>
        <time>2024-08-26T14:25:10.107Z</time>
      </trkpt>
      <trkpt lat="48.85247" lon="2.347566666666667">
        <ele>41.99241177912358</ele>
        <time>2024-08-26T14:25:26.080Z</time>
      </trkpt>
      <trkpt lat="48.852383333333336" lon="2.347715">
        <ele>42.39245685032032</ele>
        <time>2024-08-26T14:25:50.078Z</time>
      </trkpt>
      <trkpt lat="48.852248333333335" lon="2.3476266666666668">
        <ele>41.09238269551471</ele>
        <time>2024-08-26T14:26:07.078Z</time>
      </trkpt>
      <trkpt lat="48.85224333333334" lon="2.347706666666667">
        <ele>41.0924160924392</ele>
        <time>2024-08-26T14:26:19.091Z</time>
      </trkpt>
      <trkpt lat="48.85221833333333" lon="2.34749">
        <ele>39.49231236122433</ele>
        <time>2024-08-26T14:26:49.081Z</time>
      </trkpt>
      <trkpt lat="48.852135" lon="2.3473800000000002">
        <ele>40.49224041300369</ele>
        <time>2024-08-26T14:27:09.082Z</time>
      </trkpt>
      <trkpt lat="48.85218499999999" lon="2.34715">
        <ele>44.89214774088219</ele>
        <time>2024-08-26T14:27:37.123Z</time>
      </trkpt>
      <trkpt lat="48.85219666666667" lon="2.347235">
        <ele>43.69217805037852</ele>
        <time>2024-08-26T14:28:05.084Z</time>
      </trkpt>
      <trkpt lat="48.85209166666667" lon="2.3472966666666664">
        <ele>41.99218503642171</ele>
        <time>2024-08-26T14:28:29.120Z</time>
      </trkpt>
      <trkpt lat="48.85230333333334" lon="2.3476033333333333">
        <ele>40.192379226295486</ele>
        <time>2024-08-26T14:29:13.110Z</time>
      </trkpt>
      <trkpt lat="48.85249999999999" lon="2.347598333333333">
        <ele>38.792435101844</ele>
        <time>2024-08-26T14:29:38.137Z</time>
      </trkpt>
      <trkpt lat="48.852531666666664" lon="2.347173333333333">
        <ele>41.99224624585032</ele>
        <time>2024-08-26T14:30:26.081Z</time>
      </trkpt>
      <trkpt lat="48.85261333333333" lon="2.3471849999999996">
        <ele>39.592271169049</ele>
        <time>2024-08-26T14:30:33.077Z</time>
      </trkpt>
      <trkpt lat="48.852705" lon="2.347068333333333">
        <ele>40.8922425449533</ele>
        <time>2024-08-26T14:30:45.088Z</time>
      </trkpt>
      <trkpt lat="48.85276666666667" lon="2.3466483333333334">
        <ele>42.2920677900517</ele>
        <time>2024-08-26T14:31:27.127Z</time>
      </trkpt>
      <trkpt lat="48.85257166666667" lon="2.3463866666666666">
        <ele>38.991898952036316</ele>
        <time>2024-08-26T14:31:50.127Z</time>
      </trkpt>
      <trkpt lat="48.85227666666666" lon="2.3461766666666666">
        <ele>37.69172084710551</ele>
        <time>2024-08-26T14:32:34.124Z</time>
      </trkpt>
      <trkpt lat="48.85215333333334" lon="2.346325">
        <ele>42.7917552336027</ele>
        <time>2024-08-26T14:32:53.111Z</time>
      </trkpt>
      <trkpt lat="48.852345" lon="2.34583">
        <ele>41.391574621807194</ele>
        <time>2024-08-26T14:34:10.101Z</time>
      </trkpt>
      <trkpt lat="48.85232166666666" lon="2.3456383333333335">
        <ele>37.69149171459141</ele>
        <time>2024-08-26T14:34:21.131Z</time>
      </trkpt>
      <trkpt lat="48.852475000000005" lon="2.3451733333333333">
        <ele>41.69130853534214</ele>
        <time>2024-08-26T14:34:58.127Z</time>
      </trkpt>
      <trkpt lat="48.852471666666666" lon="2.3447033333333334">
        <ele>43.491085422863314</ele>
        <time>2024-08-26T14:35:37.080Z</time>
      </trkpt>
      <trkpt lat="48.85248833333333" lon="2.344751666666667">
        <ele>44.19110943958195</ele>
        <time>2024-08-26T14:35:43.107Z</time>
      </trkpt>
      <trkpt lat="48.85261833333334" lon="2.3446483333333332">
        <ele>46.19110000927543</ele>
        <time>2024-08-26T14:35:59.130Z</time>
      </trkpt>
      <trkpt lat="48.85276166666666" lon="2.3440733333333332">
        <ele>40.19087234193889</ele>
        <time>2024-08-26T14:36:43.131Z</time>
      </trkpt>
      <trkpt lat="48.85267" lon="2.34391">
        <ele>37.99077227900956</ele>
        <time>2024-08-26T14:36:58.127Z</time>
      </trkpt>
      <trkpt lat="48.85287666666667" lon="2.3437333333333332">
        <ele>46.49073821922142</ele>
        <time>2024-08-26T14:37:18.134Z</time>
      </trkpt>
      <trkpt lat="48.852895000000004" lon="2.3436016666666664">
        <ele>47.69068892689694</ele>
        <time>2024-08-26T14:37:29.127Z</time>
      </trkpt>
      <trkpt lat="48.852983333333334" lon="2.343503333333333">
        <ele>48.69066400517201</ele>
        <time>2024-08-26T14:37:41.114Z</time>
      </trkpt>
      <trkpt lat="48.85292" lon="2.3432233333333334">
        <ele>45.79051807142158</ele>
        <time>2024-08-26T14:37:56.114Z</time>
      </trkpt>
      <trkpt lat="48.85301833333333" lon="2.3430283333333337">
        <ele>43.890449928062516</ele>
        <time>2024-08-26T14:38:14.117Z</time>
      </trkpt>
      <trkpt lat="48.85303999999999" lon="2.3428033333333333">
        <ele>39.490344632781735</ele>
        <time>2024-08-26T14:38:42.110Z</time>
      </trkpt>
      <trkpt lat="48.853325" lon="2.343058333333333">
        <ele>43.09053519061144</ele>
        <time>2024-08-26T14:39:16.124Z</time>
      </trkpt>
      <trkpt lat="48.853835" lon="2.3438700000000003">
        <ele>35.89105042891555</ele>
        <time>2024-08-26T14:40:54.127Z</time>
      </trkpt>
      <trkpt lat="48.85389" lon="2.3438333333333334">
        <ele>34.99105054931225</ele>
        <time>2024-08-26T14:41:03.121Z</time>
      </trkpt>
      <trkpt lat="48.85381833333333" lon="2.3438499999999998">
        <ele>34.49104236502405</ele>
        <time>2024-08-26T14:41:14.082Z</time>
      </trkpt>
      <trkpt lat="48.853995000000005" lon="2.344063333333333">
        <ele>35.09118019635629</ele>
        <time>2024-08-26T14:42:07.123Z</time>
      </trkpt>
      <trkpt lat="48.853906666666674" lon="2.3442166666666666">
        <ele>35.79122906824487</ele>
        <time>2024-08-26T14:42:24.111Z</time>
      </trkpt>
      <trkpt lat="48.85394333333333" lon="2.3443316666666667">
        <ele>34.99129117354854</ele>
        <time>2024-08-26T14:42:35.110Z</time>
      </trkpt>
      <trkpt lat="48.855045000000004" lon="2.34546">
        <ele>25.292103650577175</ele>
        <time>2024-08-26T14:44:57.118Z</time>
      </trkpt>
      <trkpt lat="48.85551666666667" lon="2.3457999999999997">
        <ele>34.49238304568741</ele>
        <time>2024-08-26T14:45:35.088Z</time>
      </trkpt>
      <trkpt lat="48.85565166666667" lon="2.3459766666666666">
        <ele>44.792507606027335</ele>
        <time>2024-08-26T14:46:07.121Z</time>
      </trkpt>
      <trkpt lat="48.85615166666666" lon="2.346281666666667">
        <ele>36.19277906705351</ele>
        <time>2024-08-26T14:47:06.124Z</time>
      </trkpt>
      <trkpt lat="48.85614166666666" lon="2.3463583333333333">
        <ele>34.79281405309518</ele>
        <time>2024-08-26T14:47:15.087Z</time>
      </trkpt>
      <trkpt lat="48.856305000000006" lon="2.346451666666667">
        <ele>36.4928876239871</ele>
        <time>2024-08-26T14:47:37.110Z</time>
      </trkpt>
      <trkpt lat="48.856316666666665" lon="2.3463866666666666">
        <ele>36.4928742675735</ele>
        <time>2024-08-26T14:47:45.091Z</time>
      </trkpt>
      <trkpt lat="48.85712" lon="2.3468533333333337">
        <ele>39.19329111507006</ele>
        <time>2024-08-26T14:49:33.117Z</time>
      </trkpt>
      <trkpt lat="48.857396666666666" lon="2.346745">
        <ele>38.193318228170185</ele>
        <time>2024-08-26T14:50:03.117Z</time>
      </trkpt>
      <trkpt lat="48.85774166666667" lon="2.34685">
        <ele>35.193454085073114</ele>
        <time>2024-08-26T14:50:46.118Z</time>
      </trkpt>
      <trkpt lat="48.85801333333334" lon="2.3470950000000004">
        <ele>35.893637935775935</ele>
        <time>2024-08-26T14:51:11.124Z</time>
      </trkpt>
      <trkpt lat="48.85871166666667" lon="2.3472716666666664">
        <ele>41.19389897890693</ele>
        <time>2024-08-26T14:52:18.133Z</time>
      </trkpt>
      <trkpt lat="48.858740000000004" lon="2.3472266666666664">
        <ele>41.193888954196275</ele>
        <time>2024-08-26T14:52:22.130Z</time>
      </trkpt>
      <trkpt lat="48.85891" lon="2.3474183333333336">
        <ele>44.694012638251245</ele>
        <time>2024-08-26T14:52:39.130Z</time>
      </trkpt>
      <trkpt lat="48.858828333333335" lon="2.347685">
        <ele>41.09412024728044</ele>
        <time>2024-08-26T14:52:58.130Z</time>
      </trkpt>
      <trkpt lat="48.85886666666667" lon="2.3477266666666665">
        <ele>40.994147828493254</ele>
        <time>2024-08-26T14:53:03.120Z</time>
      </trkpt>
      <trkpt lat="48.858935" lon="2.3477683333333332">
        <ele>40.99418509472783</ele>
        <time>2024-08-26T14:53:09.134Z</time>
      </trkpt>
      <trkpt lat="48.859025" lon="2.347668333333333">
        <ele>42.5941666349855</ele>
        <time>2024-08-26T14:53:19.128Z</time>
      </trkpt>
      <trkpt lat="48.85913333333333" lon="2.34782">
        <ele>44.494263223166406</ele>
        <time>2024-08-26T14:53:39.111Z</time>
      </trkpt>
      <trkpt lat="48.860801666666674" lon="2.3485416666666667">
        <ele>49.495023495097314</ele>
        <time>2024-08-26T14:56:15.128Z</time>
      </trkpt>
      <trkpt lat="48.860976666666666" lon="2.3486433333333334">
        <ele>49.195121905115315</ele>
        <time>2024-08-26T14:56:39.088Z</time>
      </trkpt>
      <trkpt lat="48.860888333333335" lon="2.3487383333333334">
        <ele>47.79513662467925</ele>
        <time>2024-08-26T14:56:54.120Z</time>
      </trkpt>
      <trkpt lat="48.861848333333334" lon="2.349276666666667">
        <ele>51.39563228741089</ele>
        <time>2024-08-26T14:58:39.114Z</time>
      </trkpt>
      <trkpt lat="48.86376666666667" lon="2.350035">
        <ele>42.89647472223668</ele>
        <time>2024-08-26T15:01:51.117Z</time>
      </trkpt>
      <trkpt lat="48.86392666666667" lon="2.349995">
        <ele>45.89649943817888</ele>
        <time>2024-08-26T15:02:12.124Z</time>
      </trkpt>
      <trkpt lat="48.864345" lon="2.3501849999999997">
        <ele>45.89668844969491</ele>
        <time>2024-08-26T15:02:42.127Z</time>
      </trkpt>
      <trkpt lat="48.864361666666674" lon="2.3500283333333334">
        <ele>47.49663410157092</ele>
        <time>2024-08-26T15:02:54.082Z</time>
      </trkpt>
      <trkpt lat="48.864348333333325" lon="2.3501433333333335">
        <ele>50.3966747214473</ele>
        <time>2024-08-26T15:03:22.120Z</time>
      </trkpt>
      <trkpt lat="48.865165" lon="2.350338333333333">
        <ele>35.7969668200502</ele>
        <time>2024-08-26T15:04:33.120Z</time>
      </trkpt>
      <trkpt lat="48.86546" lon="2.3504983333333334">
        <ele>36.897117724649505</ele>
        <time>2024-08-26T15:05:12.118Z</time>
      </trkpt>
      <trkpt lat="48.86548" lon="2.3505633333333336">
        <ele>35.89714824854423</ele>
        <time>2024-08-26T15:05:17.081Z</time>
      </trkpt>
      <trkpt lat="48.865429999999996" lon="2.350598333333333">
        <ele>35.6971631425951</ele>
        <time>2024-08-26T15:05:36.118Z</time>
      </trkpt>
      <trkpt lat="48.866155" lon="2.3509616666666666">
        <ele>36.39750817564387</ele>
        <time>2024-08-26T15:07:04.123Z</time>
      </trkpt>
      <trkpt lat="48.86621333333333" lon="2.3511266666666666">
        <ele>34.49759070656056</ele>
        <time>2024-08-26T15:07:15.117Z</time>
      </trkpt>
      <trkpt lat="48.866415" lon="2.3512666666666666">
        <ele>36.297704061051284</ele>
        <time>2024-08-26T15:07:27.131Z</time>
      </trkpt>
      <trkpt lat="48.86661833333333" lon="2.3512866666666667">
        <ele>40.49777899246285</ele>
        <time>2024-08-26T15:07:47.134Z</time>
      </trkpt>
      <trkpt lat="48.866515" lon="2.3511249999999997">
        <ele>38.29769590301634</ele>
        <time>2024-08-26T15:08:22.105Z</time>
      </trkpt>
      <trkpt lat="48.8666" lon="2.3512399999999998">
        <ele>39.49774693583227</ele>
        <time>2024-08-26T15:08:43.124Z</time>
      </trkpt>
      <trkpt lat="48.86657333333333" lon="2.3511966666666666">
        <ele>42.29772900039729</ele>
        <time>2024-08-26T15:08:50.130Z</time>
      </trkpt>
      <trkpt lat="48.866768333333326" lon="2.351253333333333">
        <ele>46.497794171707675</ele>
        <time>2024-08-26T15:09:03.140Z</time>
      </trkpt>
      <trkpt lat="48.866825" lon="2.351355">
        <ele>48.697855832018156</ele>
        <time>2024-08-26T15:09:10.126Z</time>
      </trkpt>
      <trkpt lat="48.86747333333333" lon="2.3517050000000004">
        <ele>49.49817790746314</ele>
        <time>2024-08-26T15:10:22.140Z</time>
      </trkpt>
      <trkpt lat="48.868790000000004" lon="2.3522966666666667">
        <ele>43.39878551322897</ele>
        <time>2024-08-26T15:12:36.104Z</time>
      </trkpt>
      <trkpt lat="48.86888999999999" lon="2.3521833333333335">
        <ele>44.49877713627019</ele>
        <time>2024-08-26T15:13:14.127Z</time>
      </trkpt>
      <trkpt lat="48.86957333333333" lon="2.3526033333333336">
        <ele>49.39911594018152</ele>
        <time>2024-08-26T15:14:22.147Z</time>
      </trkpt>
      <trkpt lat="48.86958666666666" lon="2.3528033333333336">
        <ele>44.19921040665511</ele>
        <time>2024-08-26T15:14:31.127Z</time>
      </trkpt>
      <trkpt lat="48.86979666666666" lon="2.352883333333333">
        <ele>44.999308284950814</ele>
        <time>2024-08-26T15:14:45.104Z</time>
      </trkpt>
      <trkpt lat="48.869746666666664" lon="2.352935">
        <ele>46.79931596638641</ele>
        <time>2024-08-26T15:14:55.084Z</time>
      </trkpt>
      <trkpt lat="48.869795" lon="2.3529833333333334">
        <ele>46.99932000869228</ele>
        <time>2024-08-26T15:15:04.085Z</time>
      </trkpt>
      <trkpt lat="48.869975000000004" lon="2.3528033333333336">
        <ele>47.39931752070235</ele>
        <time>2024-08-26T15:15:32.134Z</time>
      </trkpt>
      <trkpt lat="48.87226666666667" lon="2.35409">
        <ele>52.600470952850586</ele>
        <time>2024-08-26T15:19:09.117Z</time>
      </trkpt>
      <trkpt lat="48.872943333333325" lon="2.354565">
        <ele>53.00085283340502</ele>
        <time>2024-08-26T15:20:27.128Z</time>
      </trkpt>
      <trkpt lat="48.873181666666675" lon="2.3545783333333334">
        <ele>50.000921751174694</ele>
        <time>2024-08-26T15:20:44.126Z</time>
      </trkpt>
      <trkpt lat="48.87374833333333" lon="2.3548616666666664">
        <ele>43.80119298283169</ele>
        <time>2024-08-26T15:21:41.126Z</time>
      </trkpt>
      <trkpt lat="48.87421500000001" lon="2.355295">
        <ele>42.40150504665561</ele>
        <time>2024-08-26T15:22:35.126Z</time>
      </trkpt>
      <trkpt lat="48.874451666666666" lon="2.3553816666666667">
        <ele>46.70160050699136</ele>
        <time>2024-08-26T15:22:49.078Z</time>
      </trkpt>
      <trkpt lat="48.875775000000004" lon="2.356235">
        <ele>51.60231200013873</ele>
        <time>2024-08-26T15:25:12.130Z</time>
      </trkpt>
      <trkpt lat="48.87579000000001" lon="2.35636">
        <ele>53.00237420178641</ele>
        <time>2024-08-26T15:25:20.126Z</time>
      </trkpt>
      <trkpt lat="48.87557666666667" lon="2.3565400000000003">
        <ele>49.40240796000238</ele>
        <time>2024-08-26T15:25:38.101Z</time>
      </trkpt>
      <trkpt lat="48.875723333333326" lon="2.356755">
        <ele>41.502533973977805</ele>
        <time>2024-08-26T15:25:58.101Z</time>
      </trkpt>
      <trkpt lat="48.87634666666666" lon="2.3562083333333335">
        <ele>37.40245181624082</ele>
        <time>2024-08-26T15:26:56.134Z</time>
      </trkpt>
      <trkpt lat="48.87650833333334" lon="2.356405">
        <ele>45.502570586483365</ele>
        <time>2024-08-26T15:27:13.140Z</time>
      </trkpt>
      <trkpt lat="48.876673333333336" lon="2.356288333333333">
        <ele>52.10256492617731</ele>
        <time>2024-08-26T15:27:28.147Z</time>
      </trkpt>
      <trkpt lat="48.877043333333326" lon="2.3563183333333333">
        <ele>68.30266850509642</ele>
        <time>2024-08-26T15:28:01.127Z</time>
      </trkpt>
      <trkpt lat="48.878054999999996" lon="2.35657">
        <ele>75.80303743589586</ele>
        <time>2024-08-26T15:29:32.136Z</time>
      </trkpt>
      <trkpt lat="48.87937" lon="2.3571833333333334">
        <ele>59.903625910135425</ele>
        <time>2024-08-26T15:31:28.126Z</time>
      </trkpt>
      <trkpt lat="48.87955963026175" lon="2.358233431229138">
        <ele>63.4896136994288</ele>
        <time>2024-08-26T15:32:32.007Z</time>
      </trkpt>
      <trkpt lat="48.87947947894173" lon="2.358422220087391">
        <ele>63.58838077796153</ele>
        <time>2024-08-26T15:33:17.983Z</time>
      </trkpt>
    </trkseg>
  </trk>
</gpx>
