<?xml version="1.0" encoding="UTF-8"?>
<gpx version="1.1" creator="Export" xmlns="http://www.topografix.com/GPX/1/1" xmlns:xsi="http://www.w3.org/2001/XMLSchema-instance" xsi:schemaLocation="http://www.topografix.com/GPX/1/1 http://www.topografix.com/GPX/1/1/gpx.xsd http://www.garmin.com/xmlschemas/GpxExtensions/v3 http://www.garmin.com/xmlschemas/GpxExtensionsv3.xsd http://www.garmin.com/xmlschemas/TrackPointExtension/v1 http://www.garmin.com/xmlschemas/TrackPointExtensionv1.xsd http://www.garmin.com/xmlschemas/PowerExtension/v1 http://www.garmin.com/xmlschemas/PowerExtensionv1.xsd http://www.topografix.com/GPX/gpx_style/0/2 http://www.topografix.com/GPX/gpx_style/0/2/gpx_style.xsd" xmlns:gpxtpx="http://www.garmin.com/xmlschemas/TrackPointExtension/v1" xmlns:gpxx="http://www.garmin.com/xmlschemas/GpxExtensions/v3" xmlns:gpxpx="http://www.garmin.com/xmlschemas/PowerExtension/v1" xmlns:gpx_style="http://www.topografix.com/GPX/gpx_style/0/2">
  <metadata>
    <name>activity_183_2024-09-04</name>
    <author>
      <name>gpx.studio</name>
      <link href="https://gpx.studio"/>
    </author>
  </metadata>
  <trk>
    <name>activity_183_2024-09-04</name>
    <trkseg>
      <trkpt lat="40.43272" lon="-3.6966649999999994">
        <ele>695.0546636156489</ele>
        <time>2024-09-04T07:06:44.572Z</time>
      </trkpt>
      <trkpt lat="40.43275166666667" lon="-3.6965816666666664">
        <ele>679.7546937942967</ele>
        <time>2024-09-04T07:06:50.085Z</time>
      </trkpt>
      <trkpt lat="40.43282166666667" lon="-3.6965733333333333">
        <ele>677.754715738089</ele>
        <time>2024-09-04T07:06:56.085Z</time>
      </trkpt>
      <trkpt lat="40.43284166666667" lon="-3.6965383333333337">
        <ele>677.6547306893812</ele>
        <time>2024-09-04T07:07:00.084Z</time>
      </trkpt>
      <trkpt lat="40.43289" lon="-3.69632">
        <ele>676.9547781336452</ele>
        <time>2024-09-04T07:07:15.045Z</time>
      </trkpt>
      <trkpt lat="40.432853333333334" lon="-3.696188333333333">
        <ele>675.5547901609274</ele>
        <time>2024-09-04T07:07:20.058Z</time>
      </trkpt>
      <trkpt lat="40.432685" lon="-3.696001666666667">
        <ele>675.5547619309827</ele>
        <time>2024-09-04T07:07:31.089Z</time>
      </trkpt>
      <trkpt lat="40.43270166666667" lon="-3.6955916666666666">
        <ele>676.7548287189369</ele>
        <time>2024-09-04T07:07:55.075Z</time>
      </trkpt>
      <trkpt lat="40.43274666666667" lon="-3.6951966666666665">
        <ele>679.8549013517274</ele>
        <time>2024-09-04T07:08:33.092Z</time>
      </trkpt>
      <trkpt lat="40.432768333333335" lon="-3.695163333333333">
        <ele>678.9549104142038</ele>
        <time>2024-09-04T07:08:37.072Z</time>
      </trkpt>
      <trkpt lat="40.43298" lon="-3.695085">
        <ele>677.3549838071633</ele>
        <time>2024-09-04T07:08:49.088Z</time>
      </trkpt>
      <trkpt lat="40.43389833333333" lon="-3.6950266666666662">
        <ele>694.0553029790306</ele>
        <time>2024-09-04T07:10:15.095Z</time>
      </trkpt>
      <trkpt lat="40.43394333333333" lon="-3.6949900000000007">
        <ele>697.4553220597836</ele>
        <time>2024-09-04T07:10:20.052Z</time>
      </trkpt>
      <trkpt lat="40.43393666666667" lon="-3.69494">
        <ele>702.3553284325866</ele>
        <time>2024-09-04T07:10:30.068Z</time>
      </trkpt>
      <trkpt lat="40.434066666666666" lon="-3.6949699999999996">
        <ele>707.155361283691</ele>
        <time>2024-09-04T07:10:44.094Z</time>
      </trkpt>
      <trkpt lat="40.434815" lon="-3.6948733333333337">
        <ele>693.855618789539</ele>
        <time>2024-09-04T07:11:43.085Z</time>
      </trkpt>
      <trkpt lat="40.43497" lon="-3.6948933333333334">
        <ele>685.2556662561403</ele>
        <time>2024-09-04T07:11:51.091Z</time>
      </trkpt>
      <trkpt lat="40.43508166666666" lon="-3.694941666666667">
        <ele>679.9557010509527</ele>
        <time>2024-09-04T07:11:59.094Z</time>
      </trkpt>
      <trkpt lat="40.43511" lon="-3.6951616666666665">
        <ele>675.4556812039382</ele>
        <time>2024-09-04T07:12:13.095Z</time>
      </trkpt>
      <trkpt lat="40.435161666666666" lon="-3.6952199999999995">
        <ele>672.1556881025306</ele>
        <time>2024-09-04T07:12:20.092Z</time>
      </trkpt>
      <trkpt lat="40.435138333333335" lon="-3.6954949999999998">
        <ele>662.6556427065086</ele>
        <time>2024-09-04T07:12:40.094Z</time>
      </trkpt>
      <trkpt lat="40.435093333333334" lon="-3.6974583333333335">
        <ele>685.9553260388163</ele>
        <time>2024-09-04T07:14:24.085Z</time>
      </trkpt>
      <trkpt lat="40.43510166666667" lon="-3.698055">
        <ele>692.3552369142844</ele>
        <time>2024-09-04T07:14:57.075Z</time>
      </trkpt>
      <trkpt lat="40.435050000000004" lon="-3.6980750000000002">
        <ele>696.055216978306</ele>
        <time>2024-09-04T07:15:02.073Z</time>
      </trkpt>
      <trkpt lat="40.43503" lon="-3.6982066666666666">
        <ele>697.755188733288</ele>
        <time>2024-09-04T07:15:07.085Z</time>
      </trkpt>
      <trkpt lat="40.43508166666666" lon="-3.6983283333333334">
        <ele>694.3551804209035</ele>
        <time>2024-09-04T07:15:16.049Z</time>
      </trkpt>
      <trkpt lat="40.43505666666667" lon="-3.6984283333333337">
        <ele>689.2551628518908</ele>
        <time>2024-09-04T07:15:21.048Z</time>
      </trkpt>
      <trkpt lat="40.435073333333335" lon="-3.6984633333333337">
        <ele>685.9551574294686</ele>
        <time>2024-09-04T07:15:31.055Z</time>
      </trkpt>
      <trkpt lat="40.435118333333335" lon="-3.698475">
        <ele>686.7551682241433</ele>
        <time>2024-09-04T07:15:39.048Z</time>
      </trkpt>
      <trkpt lat="40.43515" lon="-3.6985300000000003">
        <ele>686.8551700709992</ele>
        <time>2024-09-04T07:15:46.104Z</time>
      </trkpt>
      <trkpt lat="40.435161666666666" lon="-3.69863">
        <ele>687.0551599524968</ele>
        <time>2024-09-04T07:15:54.088Z</time>
      </trkpt>
      <trkpt lat="40.43522166666666" lon="-3.6986866666666667">
        <ele>686.7551682257499</ele>
        <time>2024-09-04T07:16:02.105Z</time>
      </trkpt>
      <trkpt lat="40.43528833333333" lon="-3.6987000000000005">
        <ele>686.1551830228807</ele>
        <time>2024-09-04T07:16:06.095Z</time>
      </trkpt>
      <trkpt lat="40.435375" lon="-3.6986566666666665">
        <ele>683.1552197842278</ele>
        <time>2024-09-04T07:16:15.086Z</time>
      </trkpt>
      <trkpt lat="40.435410000000005" lon="-3.6987366666666666">
        <ele>683.3552201613053</ele>
        <time>2024-09-04T07:16:23.089Z</time>
      </trkpt>
      <trkpt lat="40.435608333333334" lon="-3.698803333333333">
        <ele>685.0552679829791</ele>
        <time>2024-09-04T07:16:30.082Z</time>
      </trkpt>
      <trkpt lat="40.43579833333333" lon="-3.698895">
        <ele>687.6553166941011</ele>
        <time>2024-09-04T07:16:45.065Z</time>
      </trkpt>
      <trkpt lat="40.43581" lon="-3.6989233333333336">
        <ele>689.0553176638282</ele>
        <time>2024-09-04T07:16:52.051Z</time>
      </trkpt>
      <trkpt lat="40.43678833333333" lon="-3.6993599999999995">
        <ele>696.6555590300064</ele>
        <time>2024-09-04T07:18:16.089Z</time>
      </trkpt>
      <trkpt lat="40.436825" lon="-3.6995066666666663">
        <ele>700.6555511345618</ele>
        <time>2024-09-04T07:18:22.055Z</time>
      </trkpt>
      <trkpt lat="40.43686666666667" lon="-3.6995466666666665">
        <ele>703.8555536883157</ele>
        <time>2024-09-04T07:18:26.075Z</time>
      </trkpt>
      <trkpt lat="40.438073333333335" lon="-3.7000766666666665">
        <ele>724.2558486149578</ele>
        <time>2024-09-04T07:20:16.059Z</time>
      </trkpt>
      <trkpt lat="40.43813" lon="-3.7001583333333334">
        <ele>720.3558529969666</ele>
        <time>2024-09-04T07:20:27.055Z</time>
      </trkpt>
      <trkpt lat="40.43841666666666" lon="-3.7002783333333333">
        <ele>707.8559241769636</ele>
        <time>2024-09-04T07:20:46.055Z</time>
      </trkpt>
      <trkpt lat="40.438428333333334" lon="-3.70021">
        <ele>706.3559408315949</ele>
        <time>2024-09-04T07:20:56.101Z</time>
      </trkpt>
      <trkpt lat="40.438383333333334" lon="-3.7000416666666665">
        <ele>699.3559592580148</ele>
        <time>2024-09-04T07:21:17.052Z</time>
      </trkpt>
      <trkpt lat="40.43839666666667" lon="-3.7000850000000005">
        <ele>697.2559547679498</ele>
        <time>2024-09-04T07:21:30.095Z</time>
      </trkpt>
      <trkpt lat="40.438433333333336" lon="-3.7000616666666666">
        <ele>695.3559630807251</ele>
        <time>2024-09-04T07:21:42.089Z</time>
      </trkpt>
      <trkpt lat="40.43859333333333" lon="-3.700081666666667">
        <ele>691.3560130720392</ele>
        <time>2024-09-04T07:21:58.098Z</time>
      </trkpt>
      <trkpt lat="40.43901166666667" lon="-3.7002700000000006">
        <ele>688.0561167483912</ele>
        <time>2024-09-04T07:22:39.084Z</time>
      </trkpt>
      <trkpt lat="40.439141666666664" lon="-3.7004700000000006">
        <ele>691.0561235822466</ele>
        <time>2024-09-04T07:22:54.101Z</time>
      </trkpt>
      <trkpt lat="40.43924333333334" lon="-3.7004533333333334">
        <ele>693.7561581234277</ele>
        <time>2024-09-04T07:23:05.084Z</time>
      </trkpt>
      <trkpt lat="40.43934333333333" lon="-3.700475">
        <ele>692.2561854599205</ele>
        <time>2024-09-04T07:23:18.095Z</time>
      </trkpt>
      <trkpt lat="40.439465000000006" lon="-3.70043">
        <ele>689.4562320434612</ele>
        <time>2024-09-04T07:23:29.062Z</time>
      </trkpt>
      <trkpt lat="40.43949333333333" lon="-3.7004783333333338">
        <ele>689.1562356885622</ele>
        <time>2024-09-04T07:23:32.096Z</time>
      </trkpt>
      <trkpt lat="40.439645000000006" lon="-3.7005716666666664">
        <ele>687.1562618142378</ele>
        <time>2024-09-04T07:23:38.065Z</time>
      </trkpt>
      <trkpt lat="40.44059166666667" lon="-3.7009666666666665">
        <ele>693.2564982660804</ele>
        <time>2024-09-04T07:24:55.048Z</time>
      </trkpt>
      <trkpt lat="40.4406" lon="-3.7010016666666665">
        <ele>696.9564941378432</ele>
        <time>2024-09-04T07:25:03.052Z</time>
      </trkpt>
      <trkpt lat="40.44184166666666" lon="-3.7015350000000002">
        <ele>695.7567871510063</ele>
        <time>2024-09-04T07:26:59.081Z</time>
      </trkpt>
      <trkpt lat="40.441975" lon="-3.7016799999999996">
        <ele>700.6568046072059</ele>
        <time>2024-09-04T07:27:08.085Z</time>
      </trkpt>
      <trkpt lat="40.44210333333333" lon="-3.7016916666666666">
        <ele>702.9568441213144</ele>
        <time>2024-09-04T07:27:18.094Z</time>
      </trkpt>
      <trkpt lat="40.44317" lon="-3.7021783333333333">
        <ele>713.6570895976221</ele>
        <time>2024-09-04T07:29:05.056Z</time>
      </trkpt>
      <trkpt lat="40.443189999999994" lon="-3.702276666666666">
        <ele>723.057079182638</ele>
        <time>2024-09-04T07:29:13.085Z</time>
      </trkpt>
      <trkpt lat="40.444340000000004" lon="-3.7027316666666668">
        <ele>727.2573539273534</ele>
        <time>2024-09-04T07:30:44.072Z</time>
      </trkpt>
      <trkpt lat="40.444314999999996" lon="-3.7027066666666664">
        <ele>726.1573488390229</ele>
        <time>2024-09-04T07:30:50.059Z</time>
      </trkpt>
      <trkpt lat="40.4443" lon="-3.702746666666667">
        <ele>725.9573417823419</ele>
        <time>2024-09-04T07:30:53.095Z</time>
      </trkpt>
      <trkpt lat="40.44432166666666" lon="-3.7027966666666665">
        <ele>724.0573372085822</ele>
        <time>2024-09-04T07:31:00.086Z</time>
      </trkpt>
      <trkpt lat="40.44436833333334" lon="-3.7027500000000004">
        <ele>723.0573520566385</ele>
        <time>2024-09-04T07:31:04.088Z</time>
      </trkpt>
      <trkpt lat="40.44448833333333" lon="-3.7027733333333335">
        <ele>719.7573914839478</ele>
        <time>2024-09-04T07:31:16.086Z</time>
      </trkpt>
      <trkpt lat="40.44462166666666" lon="-3.702733333333333">
        <ele>719.1574358852395</ele>
        <time>2024-09-04T07:31:24.091Z</time>
      </trkpt>
      <trkpt lat="40.44648666666667" lon="-3.7035500000000003">
        <ele>685.2578660196159</ele>
        <time>2024-09-04T07:34:21.104Z</time>
      </trkpt>
      <trkpt lat="40.44653666666667" lon="-3.7033899999999997">
        <ele>688.1579036132423</ele>
        <time>2024-09-04T07:34:34.091Z</time>
      </trkpt>
      <trkpt lat="40.446663333333326" lon="-3.7033366666666665">
        <ele>693.257951175135</ele>
        <time>2024-09-04T07:34:39.085Z</time>
      </trkpt>
      <trkpt lat="40.44697333333333" lon="-3.703288333333333">
        <ele>697.5580615266626</ele>
        <time>2024-09-04T07:34:48.091Z</time>
      </trkpt>
      <trkpt lat="40.447046666666665" lon="-3.7033266666666664">
        <ele>701.3580790318364</ele>
        <time>2024-09-04T07:34:55.082Z</time>
      </trkpt>
      <trkpt lat="40.44708333333333" lon="-3.7034549999999995">
        <ele>704.3580678589476</ele>
        <time>2024-09-04T07:35:05.086Z</time>
      </trkpt>
      <trkpt lat="40.447199999999995" lon="-3.7034699999999994">
        <ele>705.1580993030128</ele>
        <time>2024-09-04T07:35:21.091Z</time>
      </trkpt>
      <trkpt lat="40.44736" lon="-3.703561666666667">
        <ele>707.1581274186497</ele>
        <time>2024-09-04T07:35:32.108Z</time>
      </trkpt>
      <trkpt lat="40.44742" lon="-3.703606666666667">
        <ele>708.3581387611</ele>
        <time>2024-09-04T07:35:35.094Z</time>
      </trkpt>
      <trkpt lat="40.447455" lon="-3.703701666666667">
        <ele>710.7581343187228</ele>
        <time>2024-09-04T07:35:45.079Z</time>
      </trkpt>
      <trkpt lat="40.448510000000006" lon="-3.7035400000000003">
        <ele>737.9584793556102</ele>
        <time>2024-09-04T07:37:14.085Z</time>
      </trkpt>
      <trkpt lat="40.448586666666664" lon="-3.7037266666666664">
        <ele>741.6584761120158</ele>
        <time>2024-09-04T07:37:22.099Z</time>
      </trkpt>
      <trkpt lat="40.44882" lon="-3.7037449999999996">
        <ele>743.1585422438314</ele>
        <time>2024-09-04T07:37:44.092Z</time>
      </trkpt>
      <trkpt lat="40.450855000000004" lon="-3.7034666666666674">
        <ele>739.2592114955238</ele>
        <time>2024-09-04T07:40:39.059Z</time>
      </trkpt>
      <trkpt lat="40.451339999999995" lon="-3.7033650000000002">
        <ele>745.6593802205437</ele>
        <time>2024-09-04T07:41:32.086Z</time>
      </trkpt>
      <trkpt lat="40.45416" lon="-3.7029316666666667">
        <ele>744.060316832014</ele>
        <time>2024-09-04T07:45:29.056Z</time>
      </trkpt>
      <trkpt lat="40.45415833333333" lon="-3.703011666666667">
        <ele>741.5603021134139</ele>
        <time>2024-09-04T07:45:38.101Z</time>
      </trkpt>
      <trkpt lat="40.45417333333333" lon="-3.703013333333333">
        <ele>741.0603029715974</ele>
        <time>2024-09-04T07:45:40.085Z</time>
      </trkpt>
      <trkpt lat="40.454193333333336" lon="-3.703006666666667">
        <ele>740.7603121046307</ele>
        <time>2024-09-04T07:45:43.055Z</time>
      </trkpt>
      <trkpt lat="40.45419166666667" lon="-3.7029666666666667">
        <ele>740.8603176883304</ele>
        <time>2024-09-04T07:45:47.088Z</time>
      </trkpt>
      <trkpt lat="40.45425" lon="-3.7029433333333337">
        <ele>740.6603410702542</ele>
        <time>2024-09-04T07:45:56.096Z</time>
      </trkpt>
      <trkpt lat="40.45433833333333" lon="-3.7029533333333338">
        <ele>738.7603555533705</ele>
        <time>2024-09-04T07:46:06.088Z</time>
      </trkpt>
      <trkpt lat="40.45512833333333" lon="-3.7027883333333333">
        <ele>748.2606312668428</ele>
        <time>2024-09-04T07:47:07.099Z</time>
      </trkpt>
      <trkpt lat="40.4564" lon="-3.7022549999999996">
        <ele>743.0611119302873</ele>
        <time>2024-09-04T07:49:06.088Z</time>
      </trkpt>
      <trkpt lat="40.45684666666667" lon="-3.7020116666666665">
        <ele>742.6612869527119</ele>
        <time>2024-09-04T07:49:35.092Z</time>
      </trkpt>
      <trkpt lat="40.45742666666667" lon="-3.7016483333333334">
        <ele>746.1615274878843</ele>
        <time>2024-09-04T07:50:30.089Z</time>
      </trkpt>
      <trkpt lat="40.45746666666666" lon="-3.701531666666667">
        <ele>745.8615663349327</ele>
        <time>2024-09-04T07:50:37.104Z</time>
      </trkpt>
      <trkpt lat="40.457435000000004" lon="-3.701488333333333">
        <ele>745.1615673088533</ele>
        <time>2024-09-04T07:50:48.051Z</time>
      </trkpt>
      <trkpt lat="40.457458333333335" lon="-3.7014999999999993">
        <ele>743.7615701474011</ele>
        <time>2024-09-04T07:50:56.088Z</time>
      </trkpt>
      <trkpt lat="40.45748666666667" lon="-3.7014183333333337">
        <ele>743.8615914510165</ele>
        <time>2024-09-04T07:51:07.085Z</time>
      </trkpt>
      <trkpt lat="40.4576" lon="-3.7014016666666665">
        <ele>743.9616270425298</ele>
        <time>2024-09-04T07:51:17.099Z</time>
      </trkpt>
      <trkpt lat="40.45763833333333" lon="-3.7013533333333335">
        <ele>742.6616469487649</ele>
        <time>2024-09-04T07:51:21.108Z</time>
      </trkpt>
      <trkpt lat="40.45774666666667" lon="-3.701341666666666">
        <ele>744.3616822025489</ele>
        <time>2024-09-04T07:51:30.089Z</time>
      </trkpt>
      <trkpt lat="40.45790833333333" lon="-3.7011249999999998">
        <ele>739.96177027719</ele>
        <time>2024-09-04T07:51:46.095Z</time>
      </trkpt>
      <trkpt lat="40.458443333333335" lon="-3.7006766666666664">
        <ele>732.3620107975283</ele>
        <time>2024-09-04T07:52:37.105Z</time>
      </trkpt>
      <trkpt lat="40.458909999999996" lon="-3.700178333333333">
        <ele>735.2622389621266</ele>
        <time>2024-09-04T07:53:25.107Z</time>
      </trkpt>
      <trkpt lat="40.45935166666666" lon="-3.6996366666666667">
        <ele>734.7624688887681</ele>
        <time>2024-09-04T07:54:21.042Z</time>
      </trkpt>
      <trkpt lat="40.459401666666665" lon="-3.6996233333333333">
        <ele>735.6624850422045</ele>
        <time>2024-09-04T07:54:32.069Z</time>
      </trkpt>
      <trkpt lat="40.459804999999996" lon="-3.699186666666666">
        <ele>745.6626838942738</ele>
        <time>2024-09-04T07:55:25.092Z</time>
      </trkpt>
      <trkpt lat="40.46050833333334" lon="-3.698533333333333">
        <ele>743.8630023484268</ele>
        <time>2024-09-04T07:56:40.059Z</time>
      </trkpt>
      <trkpt lat="40.460525" lon="-3.6984633333333337">
        <ele>743.2630221182818</ele>
        <time>2024-09-04T07:56:46.075Z</time>
      </trkpt>
      <trkpt lat="40.46057333333333" lon="-3.6984416666666666">
        <ele>743.6630383243725</ele>
        <time>2024-09-04T07:56:53.053Z</time>
      </trkpt>
      <trkpt lat="40.46058666666667" lon="-3.698406666666667">
        <ele>744.5630476058426</ele>
        <time>2024-09-04T07:56:59.065Z</time>
      </trkpt>
      <trkpt lat="40.46056333333333" lon="-3.6983916666666667">
        <ele>742.3630444320592</ele>
        <time>2024-09-04T07:57:06.088Z</time>
      </trkpt>
      <trkpt lat="40.460593333333335" lon="-3.698355">
        <ele>740.3630588951892</ele>
        <time>2024-09-04T07:57:13.082Z</time>
      </trkpt>
      <trkpt lat="40.46210833333334" lon="-3.6975816666666663">
        <ele>739.0636347599867</ele>
        <time>2024-09-04T07:59:41.105Z</time>
      </trkpt>
      <trkpt lat="40.462385000000005" lon="-3.697378333333333">
        <ele>735.7637474885157</ele>
        <time>2024-09-04T08:00:01.088Z</time>
      </trkpt>
      <trkpt lat="40.46371" lon="-3.696201666666667">
        <ele>731.5643322139313</ele>
        <time>2024-09-04T08:02:15.055Z</time>
      </trkpt>
      <trkpt lat="40.463885" lon="-3.6962916666666663">
        <ele>765.0643733163668</ele>
        <time>2024-09-04T08:02:26.058Z</time>
      </trkpt>
      <trkpt lat="40.46421333333333" lon="-3.6959916666666666">
        <ele>738.6645102421585</ele>
        <time>2024-09-04T08:03:01.105Z</time>
      </trkpt>
      <trkpt lat="40.46443333333333" lon="-3.6956633333333335">
        <ele>729.4646273209815</ele>
        <time>2024-09-04T08:03:29.079Z</time>
      </trkpt>
      <trkpt lat="40.46445166666667" lon="-3.6954733333333336">
        <ele>728.4646628078916</ele>
        <time>2024-09-04T08:03:39.076Z</time>
      </trkpt>
      <trkpt lat="40.46458666666667" lon="-3.695066666666667">
        <ele>729.7647675318585</ele>
        <time>2024-09-04T08:04:01.069Z</time>
      </trkpt>
      <trkpt lat="40.464553333333335" lon="-3.6950633333333336">
        <ele>730.6647663416285</ele>
        <time>2024-09-04T08:04:04.062Z</time>
      </trkpt>
      <trkpt lat="40.46456833333333" lon="-3.695008333333333">
        <ele>732.5647760220107</ele>
        <time>2024-09-04T08:04:09.049Z</time>
      </trkpt>
      <trkpt lat="40.464953333333334" lon="-3.6938850000000003">
        <ele>731.4650603540094</ele>
        <time>2024-09-04T08:05:31.045Z</time>
      </trkpt>
      <trkpt lat="40.46494" lon="-3.6939216666666663">
        <ele>731.0650598437155</ele>
        <time>2024-09-04T08:05:33.068Z</time>
      </trkpt>
      <trkpt lat="40.464866666666666" lon="-3.693875">
        <ele>730.7650418053465</ele>
        <time>2024-09-04T08:05:45.066Z</time>
      </trkpt>
      <trkpt lat="40.464908333333334" lon="-3.6938583333333335">
        <ele>730.7650494075081</ele>
        <time>2024-09-04T08:05:50.069Z</time>
      </trkpt>
      <trkpt lat="40.46491" lon="-3.6937266666666666">
        <ele>731.1650738888508</ele>
        <time>2024-09-04T08:05:58.065Z</time>
      </trkpt>
      <trkpt lat="40.46514166666667" lon="-3.6930799999999997">
        <ele>726.9652363487636</ele>
        <time>2024-09-04T08:06:43.063Z</time>
      </trkpt>
      <trkpt lat="40.465246666666665" lon="-3.692715">
        <ele>727.465324760235</ele>
        <time>2024-09-04T08:07:09.078Z</time>
      </trkpt>
      <trkpt lat="40.46535166666667" lon="-3.6919699999999995">
        <ele>719.265462504715</ele>
        <time>2024-09-04T08:08:11.066Z</time>
      </trkpt>
      <trkpt lat="40.465349999999994" lon="-3.69184">
        <ele>717.8654816760381</ele>
        <time>2024-09-04T08:08:22.078Z</time>
      </trkpt>
      <trkpt lat="40.46540166666667" lon="-3.6917383333333333">
        <ele>717.7654860075382</ele>
        <time>2024-09-04T08:08:34.076Z</time>
      </trkpt>
      <trkpt lat="40.46543" lon="-3.691608333333334">
        <ele>719.0655344675536</ele>
        <time>2024-09-04T08:08:40.079Z</time>
      </trkpt>
      <trkpt lat="40.46550833333333" lon="-3.6910383333333336">
        <ele>719.7656410397177</ele>
        <time>2024-09-04T08:09:11.055Z</time>
      </trkpt>
      <trkpt lat="40.465511666666664" lon="-3.6909033333333334">
        <ele>721.9656615442342</ele>
        <time>2024-09-04T08:09:21.069Z</time>
      </trkpt>
      <trkpt lat="40.46546166666667" lon="-3.6907466666666666">
        <ele>724.7656701310606</ele>
        <time>2024-09-04T08:09:31.053Z</time>
      </trkpt>
      <trkpt lat="40.46547833333333" lon="-3.6905766666666664">
        <ele>733.8656951356987</ele>
        <time>2024-09-04T08:09:51.058Z</time>
      </trkpt>
      <trkpt lat="40.465450000000004" lon="-3.6905483333333335">
        <ele>734.9656960871481</ele>
        <time>2024-09-04T08:09:53.061Z</time>
      </trkpt>
      <trkpt lat="40.46550333333333" lon="-3.6901716666666666">
        <ele>737.7657600281906</ele>
        <time>2024-09-04T08:10:25.122Z</time>
      </trkpt>
      <trkpt lat="40.465535" lon="-3.690165">
        <ele>736.765768448414</ele>
        <time>2024-09-04T08:10:29.071Z</time>
      </trkpt>
      <trkpt lat="40.46561833333333" lon="-3.6902366666666664">
        <ele>734.3657832131271</ele>
        <time>2024-09-04T08:10:41.065Z</time>
      </trkpt>
      <trkpt lat="40.46572833333333" lon="-3.6902433333333335">
        <ele>734.4658070474933</ele>
        <time>2024-09-04T08:10:45.072Z</time>
      </trkpt>
      <trkpt lat="40.46588833333333" lon="-3.690343333333333">
        <ele>732.865845630414</ele>
        <time>2024-09-04T08:10:54.056Z</time>
      </trkpt>
      <trkpt lat="40.46602166666666" lon="-3.690363333333334">
        <ele>729.1658831925668</ele>
        <time>2024-09-04T08:11:07.072Z</time>
      </trkpt>
      <trkpt lat="40.46617666666667" lon="-3.690323333333333">
        <ele>725.5659349700161</ele>
        <time>2024-09-04T08:11:21.069Z</time>
      </trkpt>
      <trkpt lat="40.46623833333333" lon="-3.6902883333333336">
        <ele>725.2659553136263</ele>
        <time>2024-09-04T08:11:27.065Z</time>
      </trkpt>
      <trkpt lat="40.46624166666666" lon="-3.6902266666666663">
        <ele>723.0659675931227</ele>
        <time>2024-09-04T08:11:34.062Z</time>
      </trkpt>
      <trkpt lat="40.466339999999995" lon="-3.690203333333333">
        <ele>721.0659954476523</ele>
        <time>2024-09-04T08:11:41.072Z</time>
      </trkpt>
      <trkpt lat="40.466499999999996" lon="-3.689996666666667">
        <ele>717.3660693208515</ele>
        <time>2024-09-04T08:12:01.072Z</time>
      </trkpt>
      <trkpt lat="40.466564999999996" lon="-3.68998">
        <ele>717.7660944532754</ele>
        <time>2024-09-04T08:12:09.042Z</time>
      </trkpt>
      <trkpt lat="40.466585" lon="-3.689801666666667">
        <ele>722.966122964524</ele>
        <time>2024-09-04T08:12:22.078Z</time>
      </trkpt>
      <trkpt lat="40.466615000000004" lon="-3.6897683333333333">
        <ele>724.1661327635186</ele>
        <time>2024-09-04T08:12:25.062Z</time>
      </trkpt>
      <trkpt lat="40.46689" lon="-3.6896733333333334">
        <ele>731.8662279060511</ele>
        <time>2024-09-04T08:13:07.068Z</time>
      </trkpt>
      <trkpt lat="40.46688166666667" lon="-3.689648333333333">
        <ele>731.666233443675</ele>
        <time>2024-09-04T08:13:10.101Z</time>
      </trkpt>
      <trkpt lat="40.46676166666667" lon="-3.689685">
        <ele>731.5661968333385</ele>
        <time>2024-09-04T08:13:14.096Z</time>
      </trkpt>
      <trkpt lat="40.46671166666667" lon="-3.689588333333333">
        <ele>727.8661903546489</ele>
        <time>2024-09-04T08:13:19.078Z</time>
      </trkpt>
      <trkpt lat="40.46668833333333" lon="-3.6893550000000004">
        <ele>725.2662137238882</ele>
        <time>2024-09-04T08:13:32.078Z</time>
      </trkpt>
      <trkpt lat="40.46671833333333" lon="-3.689263333333333">
        <ele>724.6662293011078</ele>
        <time>2024-09-04T08:13:44.069Z</time>
      </trkpt>
      <trkpt lat="40.466726666666666" lon="-3.6890083333333337">
        <ele>724.4662711748106</ele>
        <time>2024-09-04T08:14:07.099Z</time>
      </trkpt>
      <trkpt lat="40.46666833333334" lon="-3.6888066666666663">
        <ele>731.1662805343026</ele>
        <time>2024-09-04T08:14:22.082Z</time>
      </trkpt>
      <trkpt lat="40.46666333333334" lon="-3.688635">
        <ele>739.2662987736826</ele>
        <time>2024-09-04T08:14:36.088Z</time>
      </trkpt>
      <trkpt lat="40.46662166666667" lon="-3.6885199999999996">
        <ele>749.1663013479688</ele>
        <time>2024-09-04T08:14:52.078Z</time>
      </trkpt>
      <trkpt lat="40.46664333333333" lon="-3.6883766666666666">
        <ele>756.8663267877323</ele>
        <time>2024-09-04T08:15:06.102Z</time>
      </trkpt>
      <trkpt lat="40.46675333333334" lon="-3.6884366666666666">
        <ele>750.6663519281651</ele>
        <time>2024-09-04T08:15:20.059Z</time>
      </trkpt>
      <trkpt lat="40.46675166666667" lon="-3.6885049999999997">
        <ele>748.1663462332992</ele>
        <time>2024-09-04T08:15:32.079Z</time>
      </trkpt>
      <trkpt lat="40.46698833333333" lon="-3.68844">
        <ele>739.4664127363069</ele>
        <time>2024-09-04T08:15:49.066Z</time>
      </trkpt>
      <trkpt lat="40.46705" lon="-3.688476666666667">
        <ele>739.966429992621</ele>
        <time>2024-09-04T08:15:54.055Z</time>
      </trkpt>
      <trkpt lat="40.467105" lon="-3.6884283333333334">
        <ele>739.8664522711283</ele>
        <time>2024-09-04T08:16:00.061Z</time>
      </trkpt>
      <trkpt lat="40.46713166666667" lon="-3.688351666666667">
        <ele>739.9664740477323</ele>
        <time>2024-09-04T08:16:08.055Z</time>
      </trkpt>
      <trkpt lat="40.467353333333335" lon="-3.6881333333333335">
        <ele>738.6665630990905</ele>
        <time>2024-09-04T08:16:43.095Z</time>
      </trkpt>
      <trkpt lat="40.4674" lon="-3.6880216666666663">
        <ele>737.3665915098137</ele>
        <time>2024-09-04T08:16:54.095Z</time>
      </trkpt>
      <trkpt lat="40.46756166666667" lon="-3.687945">
        <ele>731.2666477423999</ele>
        <time>2024-09-04T08:17:14.092Z</time>
      </trkpt>
      <trkpt lat="40.46769833333334" lon="-3.6878216666666663">
        <ele>728.0666989186196</ele>
        <time>2024-09-04T08:17:25.091Z</time>
      </trkpt>
      <trkpt lat="40.46771666666667" lon="-3.687731666666666">
        <ele>729.4667193568646</ele>
        <time>2024-09-04T08:17:31.091Z</time>
      </trkpt>
      <trkpt lat="40.467796666666665" lon="-3.68765">
        <ele>727.966750320623</ele>
        <time>2024-09-04T08:17:46.056Z</time>
      </trkpt>
      <trkpt lat="40.467821666666666" lon="-3.687523333333333">
        <ele>736.0667766124678</ele>
        <time>2024-09-04T08:18:00.098Z</time>
      </trkpt>
      <trkpt lat="40.467909999999996" lon="-3.687485">
        <ele>737.2668040706359</ele>
        <time>2024-09-04T08:18:06.091Z</time>
      </trkpt>
      <trkpt lat="40.46845666666666" lon="-3.686981666666667">
        <ele>729.9670260105994</ele>
        <time>2024-09-04T08:19:10.048Z</time>
      </trkpt>
      <trkpt lat="40.46841166666666" lon="-3.6869433333333337">
        <ele>732.8670212495026</ele>
        <time>2024-09-04T08:19:20.072Z</time>
      </trkpt>
      <trkpt lat="40.46852333333333" lon="-3.6866800000000004">
        <ele>732.6670797541004</ele>
        <time>2024-09-04T08:19:37.085Z</time>
      </trkpt>
      <trkpt lat="40.46859833333333" lon="-3.6866583333333334">
        <ele>729.8671034564866</ele>
        <time>2024-09-04T08:19:46.078Z</time>
      </trkpt>
      <trkpt lat="40.46872" lon="-3.686691666666667">
        <ele>729.2671380697898</ele>
        <time>2024-09-04T08:20:00.079Z</time>
      </trkpt>
      <trkpt lat="40.46904166666666" lon="-3.686456666666667">
        <ele>733.0672565714809</ele>
        <time>2024-09-04T08:20:31.098Z</time>
      </trkpt>
      <trkpt lat="40.469045" lon="-3.686403333333333">
        <ele>732.8672649086047</ele>
        <time>2024-09-04T08:20:35.111Z</time>
      </trkpt>
      <trkpt lat="40.469186666666666" lon="-3.6862233333333334">
        <ele>733.4673257825573</ele>
        <time>2024-09-04T08:20:52.091Z</time>
      </trkpt>
      <trkpt lat="40.46924666666666" lon="-3.686086666666667">
        <ele>730.8673620318607</ele>
        <time>2024-09-04T08:21:08.053Z</time>
      </trkpt>
      <trkpt lat="40.46984833333333" lon="-3.6855716666666667">
        <ele>724.1675950145285</ele>
        <time>2024-09-04T08:22:16.098Z</time>
      </trkpt>
      <trkpt lat="40.46997833333333" lon="-3.6855916666666664">
        <ele>724.0676265371693</ele>
        <time>2024-09-04T08:22:27.088Z</time>
      </trkpt>
      <trkpt lat="40.470085000000005" lon="-3.685545">
        <ele>723.8676629511539</ele>
        <time>2024-09-04T08:22:32.098Z</time>
      </trkpt>
      <trkpt lat="40.470078333333326" lon="-3.6855100000000003">
        <ele>723.6676689066278</ele>
        <time>2024-09-04T08:22:33.088Z</time>
      </trkpt>
      <trkpt lat="40.47020666666666" lon="-3.685335">
        <ele>725.9677251987156</ele>
        <time>2024-09-04T08:22:47.075Z</time>
      </trkpt>
      <trkpt lat="40.470335" lon="-3.6853">
        <ele>729.5677651931935</ele>
        <time>2024-09-04T08:22:58.053Z</time>
      </trkpt>
      <trkpt lat="40.470436666666664" lon="-3.685221666666666">
        <ele>734.2678018692053</ele>
        <time>2024-09-04T08:23:04.042Z</time>
      </trkpt>
      <trkpt lat="40.47123833333333" lon="-3.684485">
        <ele>742.1681179957903</ele>
        <time>2024-09-04T08:24:22.104Z</time>
      </trkpt>
      <trkpt lat="40.471291666666666" lon="-3.6842300000000003">
        <ele>755.7681614433322</ele>
        <time>2024-09-04T08:24:44.082Z</time>
      </trkpt>
      <trkpt lat="40.471355" lon="-3.684158333333334">
        <ele>759.9681810704444</ele>
        <time>2024-09-04T08:24:50.069Z</time>
      </trkpt>
      <trkpt lat="40.471403333333335" lon="-3.6840699999999997">
        <ele>759.4682092562555</ele>
        <time>2024-09-04T08:24:55.046Z</time>
      </trkpt>
      <trkpt lat="40.471385000000005" lon="-3.6840300000000004">
        <ele>757.168212235083</ele>
        <time>2024-09-04T08:25:05.065Z</time>
      </trkpt>
      <trkpt lat="40.47141666666666" lon="-3.684003333333334">
        <ele>756.068213321184</ele>
        <time>2024-09-04T08:25:13.071Z</time>
      </trkpt>
      <trkpt lat="40.471575" lon="-3.6840600000000006">
        <ele>753.1682585702432</ele>
        <time>2024-09-04T08:25:24.078Z</time>
      </trkpt>
      <trkpt lat="40.471685" lon="-3.6840066666666664">
        <ele>746.7682983722291</ele>
        <time>2024-09-04T08:25:33.089Z</time>
      </trkpt>
      <trkpt lat="40.47176666666667" lon="-3.6839283333333337">
        <ele>742.9683312488094</ele>
        <time>2024-09-04T08:25:48.096Z</time>
      </trkpt>
      <trkpt lat="40.471826666666665" lon="-3.6839516666666667">
        <ele>740.3683450988179</ele>
        <time>2024-09-04T08:25:56.098Z</time>
      </trkpt>
      <trkpt lat="40.471895" lon="-3.6839033333333333">
        <ele>734.3683708693943</ele>
        <time>2024-09-04T08:26:07.108Z</time>
      </trkpt>
      <trkpt lat="40.47197666666667" lon="-3.6839333333333335">
        <ele>732.3683876948176</ele>
        <time>2024-09-04T08:26:14.072Z</time>
      </trkpt>
      <trkpt lat="40.47203833333333" lon="-3.6838983333333335">
        <ele>731.7684047185953</ele>
        <time>2024-09-04T08:26:18.088Z</time>
      </trkpt>
      <trkpt lat="40.472345000000004" lon="-3.683981666666667">
        <ele>736.9684894671224</ele>
        <time>2024-09-04T08:26:39.066Z</time>
      </trkpt>
      <trkpt lat="40.4725" lon="-3.6839949999999995">
        <ele>741.0685307390062</ele>
        <time>2024-09-04T08:26:46.056Z</time>
      </trkpt>
      <trkpt lat="40.472541666666665" lon="-3.683835">
        <ele>750.5685640563189</ele>
        <time>2024-09-04T08:27:05.065Z</time>
      </trkpt>
      <trkpt lat="40.472655" lon="-3.6838300000000004">
        <ele>752.4685935446496</ele>
        <time>2024-09-04T08:27:11.046Z</time>
      </trkpt>
      <trkpt lat="40.47270666666667" lon="-3.683731666666667">
        <ele>753.0686204081347</ele>
        <time>2024-09-04T08:27:20.079Z</time>
      </trkpt>
      <trkpt lat="40.472698333333334" lon="-3.6836383333333336">
        <ele>752.3686304440266</ele>
        <time>2024-09-04T08:27:26.094Z</time>
      </trkpt>
      <trkpt lat="40.47273166666666" lon="-3.683573333333334">
        <ele>752.0686448524664</ele>
        <time>2024-09-04T08:27:33.078Z</time>
      </trkpt>
      <trkpt lat="40.47289333333333" lon="-3.6834983333333335">
        <ele>751.1687012574589</ele>
        <time>2024-09-04T08:27:48.095Z</time>
      </trkpt>
      <trkpt lat="40.47288" lon="-3.6834766666666665">
        <ele>750.468700298742</ele>
        <time>2024-09-04T08:27:52.105Z</time>
      </trkpt>
      <trkpt lat="40.472896666666664" lon="-3.6834300000000004">
        <ele>749.6687088999042</ele>
        <time>2024-09-04T08:27:59.084Z</time>
      </trkpt>
      <trkpt lat="40.47286999999999" lon="-3.6833766666666663">
        <ele>748.8687097201566</ele>
        <time>2024-09-04T08:28:01.088Z</time>
      </trkpt>
      <trkpt lat="40.47277" lon="-3.6833883333333337">
        <ele>741.7686800992784</ele>
        <time>2024-09-04T08:28:09.095Z</time>
      </trkpt>
      <trkpt lat="40.47271833333333" lon="-3.683331666666667">
        <ele>737.6686736103985</ele>
        <time>2024-09-04T08:28:13.082Z</time>
      </trkpt>
      <trkpt lat="40.47271666666666" lon="-3.683286666666667">
        <ele>737.3686755615955</ele>
        <time>2024-09-04T08:28:16.082Z</time>
      </trkpt>
      <trkpt lat="40.472515" lon="-3.68336">
        <ele>733.3686098754989</ele>
        <time>2024-09-04T08:28:34.091Z</time>
      </trkpt>
      <trkpt lat="40.47246500000001" lon="-3.6834383333333336">
        <ele>733.4685904624536</ele>
        <time>2024-09-04T08:28:45.085Z</time>
      </trkpt>
      <trkpt lat="40.472478333333335" lon="-3.6835216666666666">
        <ele>733.7685807699438</ele>
        <time>2024-09-04T08:28:50.095Z</time>
      </trkpt>
      <trkpt lat="40.47245" lon="-3.6834766666666665">
        <ele>733.6685777866808</ele>
        <time>2024-09-04T08:28:53.082Z</time>
      </trkpt>
      <trkpt lat="40.472485" lon="-3.6835299999999997">
        <ele>730.1685852086396</ele>
        <time>2024-09-04T08:29:11.081Z</time>
      </trkpt>
      <trkpt lat="40.47243666666667" lon="-3.6835216666666666">
        <ele>729.7685736914789</ele>
        <time>2024-09-04T08:29:14.095Z</time>
      </trkpt>
      <trkpt lat="40.472415" lon="-3.6834466666666668">
        <ele>728.2685654571511</ele>
        <time>2024-09-04T08:29:37.091Z</time>
      </trkpt>
      <trkpt lat="40.47243" lon="-3.6834383333333336">
        <ele>728.1685743293908</ele>
        <time>2024-09-04T08:29:39.099Z</time>
      </trkpt>
      <trkpt lat="40.472541666666665" lon="-3.6834300000000004">
        <ele>728.0685970316243</ele>
        <time>2024-09-04T08:29:42.095Z</time>
      </trkpt>
      <trkpt lat="40.47274" lon="-3.683355">
        <ele>728.4686554836915</ele>
        <time>2024-09-04T08:29:50.092Z</time>
      </trkpt>
      <trkpt lat="40.472701666666666" lon="-3.6833433333333336">
        <ele>728.5686646273534</ele>
        <time>2024-09-04T08:29:57.092Z</time>
      </trkpt>
      <trkpt lat="40.47270666666667" lon="-3.683315">
        <ele>727.668668330464</ele>
        <time>2024-09-04T08:29:59.091Z</time>
      </trkpt>
      <trkpt lat="40.472748333333335" lon="-3.6833033333333334">
        <ele>727.7686741010498</ele>
        <time>2024-09-04T08:30:01.098Z</time>
      </trkpt>
      <trkpt lat="40.472764999999995" lon="-3.6833483333333334">
        <ele>727.9686830160219</ele>
        <time>2024-09-04T08:30:05.055Z</time>
      </trkpt>
      <trkpt lat="40.47273666666667" lon="-3.683331666666667">
        <ele>728.2686773693088</ele>
        <time>2024-09-04T08:30:08.052Z</time>
      </trkpt>
      <trkpt lat="40.472695" lon="-3.68337">
        <ele>728.2686610089784</ele>
        <time>2024-09-04T08:30:13.059Z</time>
      </trkpt>
      <trkpt lat="40.47266166666667" lon="-3.6833566666666666">
        <ele>728.5686529071636</ele>
        <time>2024-09-04T08:30:16.056Z</time>
      </trkpt>
      <trkpt lat="40.47251833333333" lon="-3.683463333333333">
        <ele>728.0686082582782</ele>
        <time>2024-09-04T08:30:22.068Z</time>
      </trkpt>
      <trkpt lat="40.47242333333334" lon="-3.6834616666666666">
        <ele>727.3685775737694</ele>
        <time>2024-09-04T08:30:25.049Z</time>
      </trkpt>
      <trkpt lat="40.47239833333333" lon="-3.6835199999999997">
        <ele>727.1685600828678</ele>
        <time>2024-09-04T08:30:29.055Z</time>
      </trkpt>
      <trkpt lat="40.47233166666667" lon="-3.683533333333333">
        <ele>727.1685578857563</ele>
        <time>2024-09-04T08:30:30.055Z</time>
      </trkpt>
      <trkpt lat="40.472210000000004" lon="-3.6836166666666665">
        <ele>727.268503596543</ele>
        <time>2024-09-04T08:30:35.048Z</time>
      </trkpt>
      <trkpt lat="40.47211" lon="-3.6835883333333337">
        <ele>727.0684747746337</ele>
        <time>2024-09-04T08:30:38.039Z</time>
      </trkpt>
      <trkpt lat="40.47195833333333" lon="-3.683441666666667">
        <ele>726.6684432718171</ele>
        <time>2024-09-04T08:30:44.084Z</time>
      </trkpt>
      <trkpt lat="40.47192" lon="-3.683373333333334">
        <ele>726.6684394637309</ele>
        <time>2024-09-04T08:30:48.085Z</time>
      </trkpt>
      <trkpt lat="40.47184" lon="-3.683546666666667">
        <ele>726.3684039885256</ele>
        <time>2024-09-04T08:30:51.078Z</time>
      </trkpt>
      <trkpt lat="40.471716666666666" lon="-3.6835499999999994">
        <ele>726.7683631959545</ele>
        <time>2024-09-04T08:30:56.095Z</time>
      </trkpt>
      <trkpt lat="40.47157666666667" lon="-3.6826266666666667">
        <ele>752.0684085850828</ele>
        <time>2024-09-04T08:31:58.085Z</time>
      </trkpt>
      <trkpt lat="40.47171166666667" lon="-3.6825766666666673">
        <ele>750.9684553663564</ele>
        <time>2024-09-04T08:32:05.056Z</time>
      </trkpt>
      <trkpt lat="40.47175166666667" lon="-3.682525">
        <ele>740.6684698626932</ele>
        <time>2024-09-04T08:32:10.051Z</time>
      </trkpt>
      <trkpt lat="40.472625" lon="-3.68228">
        <ele>749.2687463628918</ele>
        <time>2024-09-04T08:34:20.089Z</time>
      </trkpt>
      <trkpt lat="40.47277833333333" lon="-3.6824183333333336">
        <ele>748.3687801549904</ele>
        <time>2024-09-04T08:34:28.096Z</time>
      </trkpt>
      <trkpt lat="40.472746666666666" lon="-3.6823416666666664">
        <ele>746.168780759453</ele>
        <time>2024-09-04T08:34:31.092Z</time>
      </trkpt>
      <trkpt lat="40.47266833333333" lon="-3.682266666666666">
        <ele>737.368766606993</ele>
        <time>2024-09-04T08:34:38.084Z</time>
      </trkpt>
      <trkpt lat="40.472681666666666" lon="-3.682301666666667">
        <ele>735.8687650862904</ele>
        <time>2024-09-04T08:34:39.085Z</time>
      </trkpt>
      <trkpt lat="40.472636666666666" lon="-3.6822750000000006">
        <ele>732.1687586071356</ele>
        <time>2024-09-04T08:34:43.081Z</time>
      </trkpt>
      <trkpt lat="40.472075000000004" lon="-3.6827266666666665">
        <ele>724.3685493549001</ele>
        <time>2024-09-04T08:37:38.046Z</time>
      </trkpt>
      <trkpt lat="40.472165000000004" lon="-3.6828166666666666">
        <ele>715.0685543647705</ele>
        <time>2024-09-04T08:37:40.042Z</time>
      </trkpt>
      <trkpt lat="40.47213333333333" lon="-3.6827499999999995">
        <ele>709.9685643315236</ele>
        <time>2024-09-04T08:37:43.088Z</time>
      </trkpt>
      <trkpt lat="40.471736666666665" lon="-3.682301666666667">
        <ele>746.3684994789915</ele>
        <time>2024-09-04T08:38:05.036Z</time>
      </trkpt>
      <trkpt lat="40.471745000000006" lon="-3.6824500000000002">
        <ele>738.5684834059856</ele>
        <time>2024-09-04T08:38:17.062Z</time>
      </trkpt>
      <trkpt lat="40.471565000000005" lon="-3.6824233333333334">
        <ele>772.7684241224745</ele>
        <time>2024-09-04T08:40:26.094Z</time>
      </trkpt>
      <trkpt lat="40.471558333333334" lon="-3.682575">
        <ele>740.8684141587098</ele>
        <time>2024-09-04T08:45:48.084Z</time>
      </trkpt>
      <trkpt lat="40.471626666666666" lon="-3.6825916666666663">
        <ele>740.6684283367078</ele>
        <time>2024-09-04T08:45:52.086Z</time>
      </trkpt>
      <trkpt lat="40.471668333333334" lon="-3.682533333333333">
        <ele>739.6684468918202</ele>
        <time>2024-09-04T08:45:59.085Z</time>
      </trkpt>
      <trkpt lat="40.47173333333333" lon="-3.6825799999999997">
        <ele>736.2684543876566</ele>
        <time>2024-09-04T08:46:08.095Z</time>
      </trkpt>
      <trkpt lat="40.47174833333334" lon="-3.682415">
        <ele>693.8685211664751</ele>
        <time>2024-09-04T08:53:54.089Z</time>
      </trkpt>
      <trkpt lat="40.472955" lon="-3.68088">
        <ele>791.0689918843897</ele>
        <time>2024-09-04T09:08:30.095Z</time>
      </trkpt>
      <trkpt lat="40.47288666666667" lon="-3.6809733333333337">
        <ele>787.4689611022837</ele>
        <time>2024-09-04T09:08:34.092Z</time>
      </trkpt>
      <trkpt lat="40.472856666666665" lon="-3.681121666666667">
        <ele>782.1689344559447</ele>
        <time>2024-09-04T09:08:40.086Z</time>
      </trkpt>
      <trkpt lat="40.47290666666667" lon="-3.6812249999999995">
        <ele>775.8689366879233</ele>
        <time>2024-09-04T09:08:48.079Z</time>
      </trkpt>
      <trkpt lat="40.47276" lon="-3.6812783333333337">
        <ele>766.5688924016295</ele>
        <time>2024-09-04T09:08:56.091Z</time>
      </trkpt>
      <trkpt lat="40.472721666666665" lon="-3.681265">
        <ele>761.5688838008766</ele>
        <time>2024-09-04T09:09:00.088Z</time>
      </trkpt>
      <trkpt lat="40.47271" lon="-3.681248333333334">
        <ele>753.3688777571725</ele>
        <time>2024-09-04T09:09:04.086Z</time>
      </trkpt>
      <trkpt lat="40.47273833333334" lon="-3.6812416666666667">
        <ele>741.5688839713462</ele>
        <time>2024-09-04T09:09:08.082Z</time>
      </trkpt>
      <trkpt lat="40.47282166666666" lon="-3.6812666666666662">
        <ele>731.1689057808916</ele>
        <time>2024-09-04T09:09:18.088Z</time>
      </trkpt>
      <trkpt lat="40.47295" lon="-3.6812000000000005">
        <ele>725.468948948063</ele>
        <time>2024-09-04T09:09:34.085Z</time>
      </trkpt>
      <trkpt lat="40.47299666666667" lon="-3.681118333333333">
        <ele>722.0689694850046</ele>
        <time>2024-09-04T09:09:51.092Z</time>
      </trkpt>
      <trkpt lat="40.473060000000004" lon="-3.681125">
        <ele>720.868986194521</ele>
        <time>2024-09-04T09:09:59.088Z</time>
      </trkpt>
      <trkpt lat="40.473775" lon="-3.6807966666666667">
        <ele>707.7692215297706</ele>
        <time>2024-09-04T09:11:02.085Z</time>
      </trkpt>
      <trkpt lat="40.474021666666665" lon="-3.6807250000000002">
        <ele>706.5692993413663</ele>
        <time>2024-09-04T09:11:22.089Z</time>
      </trkpt>
      <trkpt lat="40.474264999999995" lon="-3.6805733333333337">
        <ele>704.0693807531704</ele>
        <time>2024-09-04T09:11:43.086Z</time>
      </trkpt>
      <trkpt lat="40.47457833333333" lon="-3.6804766666666664">
        <ele>706.6694716495708</ele>
        <time>2024-09-04T09:12:03.055Z</time>
      </trkpt>
      <trkpt lat="40.474664999999995" lon="-3.680413333333333">
        <ele>707.4695099693721</ele>
        <time>2024-09-04T09:12:09.072Z</time>
      </trkpt>
      <trkpt lat="40.474871666666665" lon="-3.6804016666666666">
        <ele>714.1695679786727</ele>
        <time>2024-09-04T09:12:19.055Z</time>
      </trkpt>
      <trkpt lat="40.47497833333333" lon="-3.6803283333333336">
        <ele>713.5696098464742</ele>
        <time>2024-09-04T09:12:27.058Z</time>
      </trkpt>
      <trkpt lat="40.47507333333333" lon="-3.6801983333333332">
        <ele>709.6696471290171</ele>
        <time>2024-09-04T09:12:39.055Z</time>
      </trkpt>
      <trkpt lat="40.475155" lon="-3.6801700000000004">
        <ele>709.9696719904789</ele>
        <time>2024-09-04T09:12:46.049Z</time>
      </trkpt>
      <trkpt lat="40.47535333333334" lon="-3.680015">
        <ele>720.0697434981636</ele>
        <time>2024-09-04T09:13:02.089Z</time>
      </trkpt>
      <trkpt lat="40.475541666666665" lon="-3.6799866666666663">
        <ele>718.8697989127073</ele>
        <time>2024-09-04T09:13:14.078Z</time>
      </trkpt>
      <trkpt lat="40.47573666666666" lon="-3.679918333333333">
        <ele>715.3698615893318</ele>
        <time>2024-09-04T09:13:36.058Z</time>
      </trkpt>
      <trkpt lat="40.476061666666666" lon="-3.679873333333333">
        <ele>721.8699563934882</ele>
        <time>2024-09-04T09:13:58.078Z</time>
      </trkpt>
      <trkpt lat="40.47615333333333" lon="-3.6798333333333337">
        <ele>719.5699871044567</ele>
        <time>2024-09-04T09:14:05.095Z</time>
      </trkpt>
    </trkseg>
  </trk>
</gpx>
