<?xml version="1.0" encoding="UTF-8"?>
<gpx version="1.1" creator="Export" xmlns="http://www.topografix.com/GPX/1/1" xmlns:xsi="http://www.w3.org/2001/XMLSchema-instance" xsi:schemaLocation="http://www.topografix.com/GPX/1/1 http://www.topografix.com/GPX/1/1/gpx.xsd http://www.garmin.com/xmlschemas/GpxExtensions/v3 http://www.garmin.com/xmlschemas/GpxExtensionsv3.xsd http://www.garmin.com/xmlschemas/TrackPointExtension/v1 http://www.garmin.com/xmlschemas/TrackPointExtensionv1.xsd http://www.garmin.com/xmlschemas/PowerExtension/v1 http://www.garmin.com/xmlschemas/PowerExtensionv1.xsd http://www.topografix.com/GPX/gpx_style/0/2 http://www.topografix.com/GPX/gpx_style/0/2/gpx_style.xsd" xmlns:gpxtpx="http://www.garmin.com/xmlschemas/TrackPointExtension/v1" xmlns:gpxx="http://www.garmin.com/xmlschemas/GpxExtensions/v3" xmlns:gpxpx="http://www.garmin.com/xmlschemas/PowerExtension/v1" xmlns:gpx_style="http://www.topografix.com/GPX/gpx_style/0/2">
  <metadata>
    <name>activity_185_2024-09-04</name>
    <author>
      <name>gpx.studio</name>
      <link href="https://gpx.studio"/>
    </author>
  </metadata>
  <wpt lat="41.14419312614447" lon="-8.608808425633072">
    <ele>83.90549607244351</ele>
    <name>Hostel</name>
    <sym>Lodging</sym>
  </wpt>
  <wpt lat="41.144999" lon="-8.610616">
    <ele>63.16079142743316</ele>
    <name>The Good Burger</name>
    <sym>Restaurant</sym>
  </wpt>
  <trk>
    <name>activity_185_2024-09-04</name>
    <trkseg>
      <trkpt lat="41.145528026280715" lon="-8.610117339246983">
        <ele>63.17249033524027</ele>
        <time>2024-09-04T20:49:41.072Z</time>
      </trkpt>
      <trkpt lat="41.14557713280675" lon="-8.610651813727316">
        <ele>63.163515298953875</ele>
        <time>2024-09-04T20:50:31.171Z</time>
      </trkpt>
      <trkpt lat="41.145834219311496" lon="-8.610626240786019">
        <ele>63.72222858780863</ele>
        <time>2024-09-04T20:51:03.025Z</time>
      </trkpt>
      <trkpt lat="41.14606338171453" lon="-8.610782235730369">
        <ele>63.936004329426424</ele>
        <time>2024-09-04T20:51:34.890Z</time>
      </trkpt>
      <trkpt lat="41.146315003152296" lon="-8.610344096269102">
        <ele>71.2682627360871</ele>
        <time>2024-09-04T20:52:26.159Z</time>
      </trkpt>
      <trkpt lat="41.14670451654533" lon="-8.609718884200504">
        <ele>77.6043550036157</ele>
        <time>2024-09-04T20:53:41.659Z</time>
      </trkpt>
      <trkpt lat="41.146843385977974" lon="-8.609075680418385">
        <ele>77.75281501914587</ele>
        <time>2024-09-04T20:54:43.915Z</time>
      </trkpt>
      <trkpt lat="41.15005088943519" lon="-8.60724791226474">
        <ele>95.01000709941565</ele>
        <time>2024-09-04T21:01:55.179Z</time>
      </trkpt>
      <trkpt lat="41.15017409159404" lon="-8.607660761478286">
        <ele>94.03770828908374</ele>
        <time>2024-09-04T21:02:36.496Z</time>
      </trkpt>
      <trkpt lat="41.15031833333334" lon="-8.607783333333334">
        <ele>94.26368989185515</ele>
        <time>2024-09-04T21:02:57.654Z</time>
      </trkpt>
      <trkpt lat="41.15034000000001" lon="-8.60797">
        <ele>108.61378651324006</ele>
        <time>2024-09-04T21:03:15.197Z</time>
      </trkpt>
      <trkpt lat="41.15041166666666" lon="-8.608041666666667">
        <ele>101.01375120399723</ele>
        <time>2024-09-04T21:03:20.201Z</time>
      </trkpt>
      <trkpt lat="41.15041333333333" lon="-8.608168333333333">
        <ele>95.01379768582765</ele>
        <time>2024-09-04T21:03:28.185Z</time>
      </trkpt>
      <trkpt lat="41.15055" lon="-8.608743333333333">
        <ele>95.51390378934644</ele>
        <time>2024-09-04T21:03:59.193Z</time>
      </trkpt>
      <trkpt lat="41.15051666666667" lon="-8.608891666666667">
        <ele>95.41403322891914</ele>
        <time>2024-09-04T21:04:16.185Z</time>
      </trkpt>
      <trkpt lat="41.15109833333333" lon="-8.608524999999998">
        <ele>96.01305532307185</ele>
        <time>2024-09-04T21:05:09.207Z</time>
      </trkpt>
      <trkpt lat="41.15125833333333" lon="-8.608803333333332">
        <ele>93.5129627301408</ele>
        <time>2024-09-04T21:05:30.194Z</time>
      </trkpt>
      <trkpt lat="41.15129666666667" lon="-8.608951666666666">
        <ele>95.41297825643798</ele>
        <time>2024-09-04T21:05:37.181Z</time>
      </trkpt>
      <trkpt lat="41.15141833333334" lon="-8.6092">
        <ele>97.11294633833987</ele>
        <time>2024-09-04T21:05:54.193Z</time>
      </trkpt>
      <trkpt lat="41.151491666666665" lon="-8.609305">
        <ele>95.61290236634031</ele>
        <time>2024-09-04T21:06:02.217Z</time>
      </trkpt>
      <trkpt lat="41.151410000000006" lon="-8.609515">
        <ele>92.61311199010052</ele>
        <time>2024-09-04T21:06:16.183Z</time>
      </trkpt>
      <trkpt lat="41.15148666666667" lon="-8.60962">
        <ele>87.41307899511554</ele>
        <time>2024-09-04T21:07:11.200Z</time>
      </trkpt>
      <trkpt lat="41.15156333333333" lon="-8.609643333333334">
        <ele>87.41298536642257</ele>
        <time>2024-09-04T21:07:17.201Z</time>
      </trkpt>
      <trkpt lat="41.15162999999999" lon="-8.609711666666668">
        <ele>88.61292292470628</ele>
        <time>2024-09-04T21:07:24.208Z</time>
      </trkpt>
      <trkpt lat="41.151803333333326" lon="-8.61007">
        <ele>92.21285828961621</ele>
        <time>2024-09-04T21:07:54.184Z</time>
      </trkpt>
      <trkpt lat="41.151873333333334" lon="-8.610005">
        <ele>94.41276875984886</ele>
        <time>2024-09-04T21:07:59.214Z</time>
      </trkpt>
      <trkpt lat="41.151959999999995" lon="-8.610043333333333">
        <ele>95.7126468628527</ele>
        <time>2024-09-04T21:08:05.181Z</time>
      </trkpt>
      <trkpt lat="41.15209166666667" lon="-8.610443333333334">
        <ele>96.11265152560219</ele>
        <time>2024-09-04T21:08:16.217Z</time>
      </trkpt>
      <trkpt lat="41.152953333333336" lon="-8.611861666666666">
        <ele>129.31219601354658</ele>
        <time>2024-09-04T21:09:54.208Z</time>
      </trkpt>
      <trkpt lat="41.15299333333334" lon="-8.611885000000001">
        <ele>130.71216163280704</ele>
        <time>2024-09-04T21:09:59.201Z</time>
      </trkpt>
      <trkpt lat="41.15327833333334" lon="-8.611878333333333">
        <ele>130.81178116843205</ele>
        <time>2024-09-04T21:10:28.207Z</time>
      </trkpt>
      <trkpt lat="41.153275" lon="-8.611915">
        <ele>134.91177826007834</ele>
        <time>2024-09-04T21:10:36.183Z</time>
      </trkpt>
      <trkpt lat="41.153305" lon="-8.611941666666667">
        <ele>134.91176496618925</ele>
        <time>2024-09-04T21:10:39.172Z</time>
      </trkpt>
      <trkpt lat="41.15345333333333" lon="-8.611941666666667">
        <ele>132.61158862249124</ele>
        <time>2024-09-04T21:10:46.190Z</time>
      </trkpt>
      <trkpt lat="41.153510000000004" lon="-8.61205">
        <ele>128.01152737066127</ele>
        <time>2024-09-04T21:10:54.198Z</time>
      </trkpt>
      <trkpt lat="41.153545" lon="-8.61205">
        <ele>125.71148985518676</ele>
        <time>2024-09-04T21:10:57.214Z</time>
      </trkpt>
      <trkpt lat="41.153600000000004" lon="-8.612115">
        <ele>121.51143267477238</ele>
        <time>2024-09-04T21:11:06.181Z</time>
      </trkpt>
      <trkpt lat="41.15363166666666" lon="-8.612093333333332">
        <ele>121.0113772856473</ele>
        <time>2024-09-04T21:11:29.200Z</time>
      </trkpt>
      <trkpt lat="41.15365666666666" lon="-8.613223333333334">
        <ele>117.01192157105282</ele>
        <time>2024-09-04T21:12:43.241Z</time>
      </trkpt>
      <trkpt lat="41.15368166666667" lon="-8.613278333333334">
        <ele>117.71192412129489</ele>
        <time>2024-09-04T21:12:48.193Z</time>
      </trkpt>
      <trkpt lat="41.15367500000001" lon="-8.613353333333333">
        <ele>118.11196706806014</ele>
        <time>2024-09-04T21:12:54.227Z</time>
      </trkpt>
      <trkpt lat="41.15373666666666" lon="-8.613421666666666">
        <ele>118.51193584250305</ele>
        <time>2024-09-04T21:12:59.230Z</time>
      </trkpt>
      <trkpt lat="41.15428166666667" lon="-8.613418333333334">
        <ele>118.81118928776414</ele>
        <time>2024-09-04T21:13:39.188Z</time>
      </trkpt>
      <trkpt lat="41.154320000000006" lon="-8.613380000000001">
        <ele>120.51110738754656</ele>
        <time>2024-09-04T21:13:42.195Z</time>
      </trkpt>
      <trkpt lat="41.15443833333334" lon="-8.61339">
        <ele>123.21097382958186</ele>
        <time>2024-09-04T21:13:50.220Z</time>
      </trkpt>
      <trkpt lat="41.15452666666667" lon="-8.613331666666665">
        <ele>123.81081437128731</ele>
        <time>2024-09-04T21:13:56.220Z</time>
      </trkpt>
      <trkpt lat="41.15553" lon="-8.613306666666666">
        <ele>133.40940262958097</ele>
        <time>2024-09-04T21:15:13.221Z</time>
      </trkpt>
      <trkpt lat="41.15586" lon="-8.613256666666667">
        <ele>123.20889980608479</ele>
        <time>2024-09-04T21:15:40.185Z</time>
      </trkpt>
      <trkpt lat="41.15602166666666" lon="-8.613273333333332">
        <ele>120.40869709445607</ele>
        <time>2024-09-04T21:17:06.217Z</time>
      </trkpt>
      <trkpt lat="41.15603333333333" lon="-8.61331">
        <ele>120.308694757924</ele>
        <time>2024-09-04T21:17:13.220Z</time>
      </trkpt>
      <trkpt lat="41.15556166666667" lon="-8.613463333333334">
        <ele>119.40936736038128</ele>
        <time>2024-09-04T21:17:33.218Z</time>
      </trkpt>
      <trkpt lat="41.15526" lon="-8.613473333333333">
        <ele>119.40977589005206</ele>
        <time>2024-09-04T21:17:39.221Z</time>
      </trkpt>
      <trkpt lat="41.155143333333335" lon="-8.61342">
        <ele>119.40994710325916</ele>
        <time>2024-09-04T21:17:46.211Z</time>
      </trkpt>
      <trkpt lat="41.15568" lon="-8.613463333333334">
        <ele>120.20924839567084</ele>
        <time>2024-09-04T21:18:28.217Z</time>
      </trkpt>
      <trkpt lat="41.156245000000006" lon="-8.613335000000001">
        <ele>121.20841377483353</ele>
        <time>2024-09-04T21:19:18.233Z</time>
      </trkpt>
      <trkpt lat="41.15618500000001" lon="-8.613306666666666">
        <ele>121.30845495150336</ele>
        <time>2024-09-04T21:19:21.221Z</time>
      </trkpt>
      <trkpt lat="41.15617166666666" lon="-8.613263333333332">
        <ele>121.40846563662225</ele>
        <time>2024-09-04T21:19:25.226Z</time>
      </trkpt>
      <trkpt lat="41.155935" lon="-8.613148333333333">
        <ele>119.00873577066764</ele>
        <time>2024-09-04T21:24:25.197Z</time>
      </trkpt>
      <trkpt lat="41.15584333333333" lon="-8.61321">
        <ele>123.00887595196654</ele>
        <time>2024-09-04T21:24:43.201Z</time>
      </trkpt>
      <trkpt lat="41.15570833333333" lon="-8.613221666666668">
        <ele>123.20906743520416</ele>
        <time>2024-09-04T21:24:54.217Z</time>
      </trkpt>
      <trkpt lat="41.15567833333333" lon="-8.613251666666667">
        <ele>122.30912731651898</ele>
        <time>2024-09-04T21:24:57.233Z</time>
      </trkpt>
      <trkpt lat="41.15537166666666" lon="-8.613293333333333">
        <ele>122.60958529260466</ele>
        <time>2024-09-04T21:25:15.236Z</time>
      </trkpt>
      <trkpt lat="41.15519833333333" lon="-8.613243333333333">
        <ele>127.70974379456297</ele>
        <time>2024-09-04T21:25:28.214Z</time>
      </trkpt>
      <trkpt lat="41.15463833333333" lon="-8.61335">
        <ele>125.21058886588828</ele>
        <time>2024-09-04T21:25:40.220Z</time>
      </trkpt>
      <trkpt lat="41.15416833333334" lon="-8.613323333333334">
        <ele>120.71125946824341</ele>
        <time>2024-09-04T21:26:09.240Z</time>
      </trkpt>
      <trkpt lat="41.15378166666666" lon="-8.613351666666667">
        <ele>123.8118057077687</ele>
        <time>2024-09-04T21:26:35.214Z</time>
      </trkpt>
      <trkpt lat="41.153695" lon="-8.613296666666667">
        <ele>122.81190388515748</ele>
        <time>2024-09-04T21:26:42.197Z</time>
      </trkpt>
      <trkpt lat="41.15363166666666" lon="-8.613178333333334">
        <ele>120.21194150095508</ele>
        <time>2024-09-04T21:26:50.224Z</time>
      </trkpt>
      <trkpt lat="41.15360166666666" lon="-8.613">
        <ele>119.01189603591855</ele>
        <time>2024-09-04T21:27:01.181Z</time>
      </trkpt>
      <trkpt lat="41.153545" lon="-8.61028">
        <ele>102.31056371636177</ele>
        <time>2024-09-04T21:28:53.224Z</time>
      </trkpt>
      <trkpt lat="41.15347166666667" lon="-8.610198333333333">
        <ele>103.91060817441746</ele>
        <time>2024-09-04T21:29:00.194Z</time>
      </trkpt>
      <trkpt lat="41.15332" lon="-8.610158333333334">
        <ele>105.71078785686564</ele>
        <time>2024-09-04T21:29:08.224Z</time>
      </trkpt>
      <trkpt lat="41.153155" lon="-8.610195000000001">
        <ele>106.31103097582132</ele>
        <time>2024-09-04T21:29:18.231Z</time>
      </trkpt>
      <trkpt lat="41.153056666666664" lon="-8.610168333333332">
        <ele>107.51115906571769</ele>
        <time>2024-09-04T21:29:25.224Z</time>
      </trkpt>
      <trkpt lat="41.152074999999996" lon="-8.610185">
        <ele>94.61252200460163</ele>
        <time>2024-09-04T21:30:24.187Z</time>
      </trkpt>
      <trkpt lat="41.15190333333333" lon="-8.61028">
        <ele>93.71281770971686</ele>
        <time>2024-09-04T21:30:35.203Z</time>
      </trkpt>
      <trkpt lat="41.150780000000005" lon="-8.611083333333333">
        <ele>82.31477321869129</ele>
        <time>2024-09-04T21:31:40.216Z</time>
      </trkpt>
      <trkpt lat="41.15063833333333" lon="-8.611033333333333">
        <ele>78.81496391634943</ele>
        <time>2024-09-04T21:31:50.205Z</time>
      </trkpt>
      <trkpt lat="41.150591666666664" lon="-8.610978333333332">
        <ele>81.51501980777962</ele>
        <time>2024-09-04T21:31:58.214Z</time>
      </trkpt>
      <trkpt lat="41.15038" lon="-8.610985">
        <ele>81.11528230586828</ele>
        <time>2024-09-04T21:32:13.208Z</time>
      </trkpt>
      <trkpt lat="41.14980833333334" lon="-8.611338333333332">
        <ele>77.11625672575613</ele>
        <time>2024-09-04T21:32:46.217Z</time>
      </trkpt>
      <trkpt lat="41.14909833333333" lon="-8.61129">
        <ele>74.61723044181677</ele>
        <time>2024-09-04T21:33:30.210Z</time>
      </trkpt>
      <trkpt lat="41.148010000000006" lon="-8.611361666666665">
        <ele>46.8188041120479</ele>
        <time>2024-09-04T21:34:52.218Z</time>
      </trkpt>
      <trkpt lat="41.147933333333334" lon="-8.611443333333334">
        <ele>51.1189375930093</ele>
        <time>2024-09-04T21:34:58.210Z</time>
      </trkpt>
      <trkpt lat="41.14785833333334" lon="-8.61139">
        <ele>55.11902181356716</ele>
        <time>2024-09-04T21:35:05.236Z</time>
      </trkpt>
      <trkpt lat="41.14760833333333" lon="-8.611526666666666">
        <ele>55.61942969114612</ele>
        <time>2024-09-04T21:35:23.217Z</time>
      </trkpt>
      <trkpt lat="41.146249999999995" lon="-8.611743333333333">
        <ele>49.921450452342874</ele>
        <time>2024-09-04T21:37:00.214Z</time>
      </trkpt>
      <trkpt lat="41.14609833333334" lon="-8.611881666666667">
        <ele>61.12172905821762</ele>
        <time>2024-09-04T21:37:15.213Z</time>
      </trkpt>
      <trkpt lat="41.146049999999995" lon="-8.611846666666667">
        <ele>60.42178638857609</ele>
        <time>2024-09-04T21:37:19.223Z</time>
      </trkpt>
      <trkpt lat="41.146024999999995" lon="-8.611745">
        <ele>59.72177948196348</ele>
        <time>2024-09-04T21:37:27.236Z</time>
      </trkpt>
      <trkpt lat="41.14607833333333" lon="-8.61095">
        <ele>62.82129827694802</ele>
        <time>2024-09-04T21:38:12.191Z</time>
      </trkpt>
      <trkpt lat="41.145844999999994" lon="-8.610890000000001">
        <ele>59.021564489363726</ele>
        <time>2024-09-04T21:38:27.201Z</time>
      </trkpt>
      <trkpt lat="41.14571833333333" lon="-8.610985">
        <ele>54.32179311121847</ele>
        <time>2024-09-04T21:38:40.224Z</time>
      </trkpt>
      <trkpt lat="41.14535666666667" lon="-8.611038333333333">
        <ele>46.722320133287944</ele>
        <time>2024-09-04T21:39:07.241Z</time>
      </trkpt>
      <trkpt lat="41.14530500000001" lon="-8.61094">
        <ele>58.92234432887298</ele>
        <time>2024-09-04T21:39:53.184Z</time>
      </trkpt>
      <trkpt lat="41.145230000000005" lon="-8.610638333333332">
        <ele>59.422308160037005</ele>
        <time>2024-09-04T21:40:11.227Z</time>
      </trkpt>
      <trkpt lat="41.14519" lon="-8.610638333333332">
        <ele>60.12234368439793</ele>
        <time>2024-09-04T21:40:18.194Z</time>
      </trkpt>
      <trkpt lat="41.14514666666667" lon="-8.610581666666667">
        <ele>60.12239378453558</ele>
        <time>2024-09-04T21:40:26.227Z</time>
      </trkpt>
      <trkpt lat="41.14516666666667" lon="-8.610501666666666">
        <ele>60.2223315332434</ele>
        <time>2024-09-04T21:40:33.214Z</time>
      </trkpt>
      <trkpt lat="41.14510166666667" lon="-8.610385">
        <ele>58.22234996021016</ele>
        <time>2024-09-04T21:40:42.224Z</time>
      </trkpt>
      <trkpt lat="41.144913333333335" lon="-8.609679999999999">
        <ele>58.52225199189149</ele>
        <time>2024-09-04T21:41:12.203Z</time>
      </trkpt>
      <trkpt lat="41.14484000000001" lon="-8.609496666666667">
        <ele>59.422253556642</ele>
        <time>2024-09-04T21:41:30.191Z</time>
      </trkpt>
      <trkpt lat="41.14485" lon="-8.609545">
        <ele>60.72226051949566</ele>
        <time>2024-09-04T21:41:34.187Z</time>
      </trkpt>
      <trkpt lat="41.144843333333334" lon="-8.609505">
        <ele>60.62227043353357</ele>
        <time>2024-09-04T21:41:38.207Z</time>
      </trkpt>
      <trkpt lat="41.144683333333326" lon="-8.609455">
        <ele>62.322439011082764</ele>
        <time>2024-09-04T21:41:50.234Z</time>
      </trkpt>
      <trkpt lat="41.14450166666667" lon="-8.609471666666668">
        <ele>61.32270744830558</ele>
        <time>2024-09-04T21:42:07.214Z</time>
      </trkpt>
      <trkpt lat="41.144455" lon="-8.609408333333333">
        <ele>63.82272376998982</ele>
        <time>2024-09-04T21:42:52.204Z</time>
      </trkpt>
      <trkpt lat="41.14440166666667" lon="-8.609393333333333">
        <ele>63.922802421750994</ele>
        <time>2024-09-04T21:42:58.237Z</time>
      </trkpt>
      <trkpt lat="41.14433833333332" lon="-8.609523333333334">
        <ele>66.12293981783685</ele>
        <time>2024-09-04T21:43:05.220Z</time>
      </trkpt>
      <trkpt lat="41.14424166666666" lon="-8.609555">
        <ele>66.22309328219615</ele>
        <time>2024-09-04T21:43:10.210Z</time>
      </trkpt>
      <trkpt lat="41.14414" lon="-8.609761666666666">
        <ele>67.22334573277902</ele>
        <time>2024-09-04T21:43:22.217Z</time>
      </trkpt>
      <trkpt lat="41.14407166666667" lon="-8.609833333333334">
        <ele>69.02349951102192</ele>
        <time>2024-09-04T21:43:35.220Z</time>
      </trkpt>
      <trkpt lat="41.144088333333336" lon="-8.609848333333334">
        <ele>68.92349659534122</ele>
        <time>2024-09-04T21:43:48.227Z</time>
      </trkpt>
      <trkpt lat="41.14413666666666" lon="-8.609798333333334">
        <ele>68.92341153838775</ele>
        <time>2024-09-04T21:43:57.220Z</time>
      </trkpt>
      <trkpt lat="41.14425500000001" lon="-8.609546666666667">
        <ele>73.22312677053937</ele>
        <time>2024-09-04T21:44:16.220Z</time>
      </trkpt>
      <trkpt lat="41.144330000000004" lon="-8.609536666666665">
        <ele>81.22302192871618</ele>
        <time>2024-09-04T21:44:55.034Z</time>
      </trkpt>
      <trkpt lat="41.14442613846515" lon="-8.608888686470124">
        <ele>82.77055854878944</ele>
        <time>2024-09-04T21:49:10.261Z</time>
      </trkpt>
      <trkpt lat="41.144155119484395" lon="-8.609042037535858">
        <ele>83.04840116578345</ele>
        <time>2024-09-04T21:50:38.454Z</time>
      </trkpt>
      <trkpt lat="41.14422166666667" lon="-8.608894999999999">
        <ele>83.54777861349307</ele>
        <time>2024-09-04T21:51:17.128Z</time>
      </trkpt>
      <trkpt lat="41.14421166666666" lon="-8.609041666666666">
        <ele>121.42290105571357</ele>
        <time>2024-09-04T22:10:38.366Z</time>
      </trkpt>
      <trkpt lat="41.14424166666666" lon="-8.608815">
        <ele>122.92278205178337</ele>
        <time>2024-09-04T22:14:56.570Z</time>
      </trkpt>
      <trkpt lat="41.14424166666666" lon="-8.608815">
        <ele>84.07412893059002</ele>
        <time>2024-09-04T22:14:56.570Z</time>
      </trkpt>
      <trkpt lat="41.144281666666664" lon="-8.609138333333334">
        <ele>82.18067398204128</ele>
        <time>2024-09-04T22:21:04.194Z</time>
      </trkpt>
      <trkpt lat="41.144281666666664" lon="-8.609138333333334">
        <ele>86.92285963776573</ele>
        <time>2024-09-04T22:21:04.194Z</time>
      </trkpt>
      <trkpt lat="41.144305" lon="-8.609191666666668">
        <ele>86.72283166621062</ele>
        <time>2024-09-04T22:22:13.409Z</time>
      </trkpt>
      <trkpt lat="41.14424" lon="-8.609388333333333">
        <ele>81.72302406194119</ele>
        <time>2024-09-04T22:22:28.408Z</time>
      </trkpt>
      <trkpt lat="41.14419833333333" lon="-8.609443333333333">
        <ele>79.62310500216935</ele>
        <time>2024-09-04T22:22:33.386Z</time>
      </trkpt>
      <trkpt lat="41.14403166666666" lon="-8.609898333333332">
        <ele>80.12359009334087</ele>
        <time>2024-09-04T22:23:09.362Z</time>
      </trkpt>
      <trkpt lat="41.143996666666666" lon="-8.609895">
        <ele>79.72362156793932</ele>
        <time>2024-09-04T22:23:15.369Z</time>
      </trkpt>
      <trkpt lat="41.14390333333334" lon="-8.610019999999999">
        <ele>80.52381645704187</ele>
        <time>2024-09-04T22:23:26.363Z</time>
      </trkpt>
      <trkpt lat="41.14371666666666" lon="-8.610180000000001">
        <ele>79.52415535296957</ele>
        <time>2024-09-04T22:23:48.386Z</time>
      </trkpt>
      <trkpt lat="41.14371166666667" lon="-8.610278333333333">
        <ele>79.22423545697151</ele>
        <time>2024-09-04T22:24:00.395Z</time>
      </trkpt>
      <trkpt lat="41.14374166666666" lon="-8.610261666666666">
        <ele>79.02419406916577</ele>
        <time>2024-09-04T22:24:09.379Z</time>
      </trkpt>
      <trkpt lat="41.143730000000005" lon="-8.61017">
        <ele>80.6241661321442</ele>
        <time>2024-09-04T22:24:30.378Z</time>
      </trkpt>
      <trkpt lat="41.14370999999999" lon="-8.610240000000001">
        <ele>79.3242159498348</ele>
        <time>2024-09-04T22:24:39.399Z</time>
      </trkpt>
      <trkpt lat="41.143593333333335" lon="-8.61031">
        <ele>77.22440512692233</ele>
        <time>2024-09-04T22:24:55.388Z</time>
      </trkpt>
      <trkpt lat="41.14354333333334" lon="-8.610303333333333">
        <ele>78.72447481992182</ele>
        <time>2024-09-04T22:24:59.379Z</time>
      </trkpt>
      <trkpt lat="41.14348833333334" lon="-8.610355">
        <ele>82.42457627065087</ele>
        <time>2024-09-04T22:25:08.373Z</time>
      </trkpt>
      <trkpt lat="41.143346666666666" lon="-8.610311666666666">
        <ele>89.52474952457902</ele>
        <time>2024-09-04T22:25:21.408Z</time>
      </trkpt>
      <trkpt lat="41.14335666666666" lon="-8.610266666666666">
        <ele>90.22474197274552</ele>
        <time>2024-09-04T22:25:26.412Z</time>
      </trkpt>
      <trkpt lat="41.14359666666666" lon="-8.61034">
        <ele>85.92444563957169</ele>
        <time>2024-09-04T22:25:47.404Z</time>
      </trkpt>
      <trkpt lat="41.14365666666666" lon="-8.610321666666666">
        <ele>85.62435613386691</ele>
        <time>2024-09-04T22:25:55.405Z</time>
      </trkpt>
      <trkpt lat="41.143724999999996" lon="-8.610423333333333">
        <ele>88.22429892438177</ele>
        <time>2024-09-04T22:26:25.357Z</time>
      </trkpt>
      <trkpt lat="41.143724999999996" lon="-8.610423333333333">
        <ele>71.08923275172702</ele>
        <time>2024-09-04T22:26:25.606Z</time>
      </trkpt>
      <trkpt lat="41.14416270517248" lon="-8.610560105332468">
        <ele>68.1365909195624</ele>
        <time>2024-09-04T22:28:36.844Z</time>
      </trkpt>
      <trkpt lat="41.144600410344964" lon="-8.6106968773316">
        <ele>64.79909011682139</ele>
        <time>2024-09-04T22:30:48.082Z</time>
      </trkpt>
      <trkpt lat="41.144767833347345" lon="-8.610749192863096">
        <ele>64.0219313787601</ele>
        <time>2024-09-04T22:31:38.281Z</time>
      </trkpt>
      <trkpt lat="41.144971438889996" lon="-8.610663725931744">
        <ele>63.288943411014515</ele>
        <time>2024-09-04T22:32:40.603Z</time>
      </trkpt>
      <trkpt lat="41.144971438889996" lon="-8.610663725931744">
        <ele>63.288943411014515</ele>
        <time>2024-09-04T22:32:40.603Z</time>
      </trkpt>
      <trkpt lat="41.144971438889996" lon="-8.610663725931744">
        <ele>63.288943411014515</ele>
        <time>2024-09-04T22:32:46.227Z</time>
      </trkpt>
      <trkpt lat="41.14499904794528" lon="-8.610617746771169">
        <ele>63.162678205292345</ele>
        <time>2024-09-04T22:32:52.006Z</time>
      </trkpt>
      <trkpt lat="41.14499904794528" lon="-8.610617746771169">
        <ele>63.162678205292345</ele>
        <time>2024-09-04T22:32:52.006Z</time>
      </trkpt>
      <trkpt lat="41.1448060196895" lon="-8.610727841724696">
        <ele>63.813302405086176</ele>
        <time>2024-09-04T22:33:19.420Z</time>
      </trkpt>
      <trkpt lat="41.14437276623012" lon="-8.610568016922613">
        <ele>66.83579452215965</ele>
        <time>2024-09-04T22:34:18.100Z</time>
      </trkpt>
      <trkpt lat="41.14393951277074" lon="-8.610408192120529">
        <ele>70.77699271491879</ele>
        <time>2024-09-04T22:35:16.780Z</time>
      </trkpt>
      <trkpt lat="41.14367333333333" lon="-8.61031">
        <ele>72.45158642609725</ele>
        <time>2024-09-04T22:35:52.831Z</time>
      </trkpt>
      <trkpt lat="41.14367333333333" lon="-8.61031">
        <ele>79.42431181604758</ele>
        <time>2024-09-04T22:35:52.831Z</time>
      </trkpt>
      <trkpt lat="41.14406333333333" lon="-8.610015">
        <ele>74.72361653665328</ele>
        <time>2024-09-04T22:56:12.814Z</time>
      </trkpt>
      <trkpt lat="41.14423166666667" lon="-8.609535">
        <ele>63.72314832755347</ele>
        <time>2024-09-04T22:56:46.848Z</time>
      </trkpt>
      <trkpt lat="41.144225000000006" lon="-8.609406666666667">
        <ele>61.023076463023074</ele>
        <time>2024-09-04T22:56:59.843Z</time>
      </trkpt>
      <trkpt lat="41.14430000000001" lon="-8.609005">
        <ele>58.822758078348556</ele>
        <time>2024-09-04T22:57:38.349Z</time>
      </trkpt>
      <trkpt lat="41.144195153147564" lon="-8.6088069724087">
        <ele>84.16111024259396</ele>
        <time>2024-09-04T22:58:00.873Z</time>
      </trkpt>
    </trkseg>
  </trk>
</gpx>
