<?xml version="1.0" encoding="UTF-8"?>
<gpx version="1.1" creator="Export" xmlns="http://www.topografix.com/GPX/1/1" xmlns:xsi="http://www.w3.org/2001/XMLSchema-instance" xsi:schemaLocation="http://www.topografix.com/GPX/1/1 http://www.topografix.com/GPX/1/1/gpx.xsd http://www.garmin.com/xmlschemas/GpxExtensions/v3 http://www.garmin.com/xmlschemas/GpxExtensionsv3.xsd http://www.garmin.com/xmlschemas/TrackPointExtension/v1 http://www.garmin.com/xmlschemas/TrackPointExtensionv1.xsd http://www.garmin.com/xmlschemas/PowerExtension/v1 http://www.garmin.com/xmlschemas/PowerExtensionv1.xsd http://www.topografix.com/GPX/gpx_style/0/2 http://www.topografix.com/GPX/gpx_style/0/2/gpx_style.xsd" xmlns:gpxtpx="http://www.garmin.com/xmlschemas/TrackPointExtension/v1" xmlns:gpxx="http://www.garmin.com/xmlschemas/GpxExtensions/v3" xmlns:gpxpx="http://www.garmin.com/xmlschemas/PowerExtension/v1" xmlns:gpx_style="http://www.topografix.com/GPX/gpx_style/0/2">
  <metadata>
    <name>activity_184_2024-09-04</name>
    <author>
      <name>gpx.studio</name>
      <link href="https://gpx.studio"/>
    </author>
  </metadata>
  <trk>
    <name>activity_184_2024-09-04</name>
    <trkseg>
      <trkpt lat="42.23390833333333" lon="-8.714425">
        <ele>153.81238599701393</ele>
        <time>2024-09-04T13:52:30.046Z</time>
      </trkpt>
      <trkpt lat="42.23400333333334" lon="-8.714446666666667">
        <ele>153.6123385767712</ele>
        <time>2024-09-04T13:52:33.072Z</time>
      </trkpt>
      <trkpt lat="42.23407" lon="-8.714353333333333">
        <ele>143.01232240208273</ele>
        <time>2024-09-04T13:53:17.052Z</time>
      </trkpt>
      <trkpt lat="42.234" lon="-8.714528333333334">
        <ele>130.21233680517128</ele>
        <time>2024-09-04T13:53:33.059Z</time>
      </trkpt>
      <trkpt lat="42.23389166666666" lon="-8.714585">
        <ele>114.31239938484062</ele>
        <time>2024-09-04T13:53:54.085Z</time>
      </trkpt>
      <trkpt lat="42.23385833333334" lon="-8.714451666666667">
        <ele>101.61241002037207</ele>
        <time>2024-09-04T13:54:12.076Z</time>
      </trkpt>
      <trkpt lat="42.23380999999999" lon="-8.714323333333335">
        <ele>78.61241107506358</ele>
        <time>2024-09-04T13:55:09.092Z</time>
      </trkpt>
      <trkpt lat="42.23367" lon="-8.714255000000001">
        <ele>63.91248514852145</ele>
        <time>2024-09-04T13:55:20.101Z</time>
      </trkpt>
      <trkpt lat="42.233601666666665" lon="-8.713966666666666">
        <ele>66.7124967285869</ele>
        <time>2024-09-04T13:55:48.048Z</time>
      </trkpt>
      <trkpt lat="42.23382166666667" lon="-8.713818333333334">
        <ele>64.612365545577</ele>
        <time>2024-09-04T13:56:14.049Z</time>
      </trkpt>
      <trkpt lat="42.23377000000001" lon="-8.713696666666667">
        <ele>64.51238376183173</ele>
        <time>2024-09-04T13:56:43.065Z</time>
      </trkpt>
      <trkpt lat="42.23392833333334" lon="-8.713213333333334">
        <ele>61.812257311279836</ele>
        <time>2024-09-04T13:57:26.062Z</time>
      </trkpt>
      <trkpt lat="42.234025" lon="-8.713173333333334">
        <ele>60.312196477328754</ele>
        <time>2024-09-04T13:57:40.052Z</time>
      </trkpt>
      <trkpt lat="42.23395833333334" lon="-8.713106666666667">
        <ele>60.31222436545297</ele>
        <time>2024-09-04T13:57:48.088Z</time>
      </trkpt>
      <trkpt lat="42.234019999999994" lon="-8.712811666666665">
        <ele>63.912172539754955</ele>
        <time>2024-09-04T13:58:09.088Z</time>
      </trkpt>
      <trkpt lat="42.23455166666666" lon="-8.713033333333334">
        <ele>60.71191093455589</ele>
        <time>2024-09-04T13:58:51.049Z</time>
      </trkpt>
      <trkpt lat="42.234671666666664" lon="-8.712811666666665">
        <ele>59.211827725835946</ele>
        <time>2024-09-04T13:59:13.056Z</time>
      </trkpt>
      <trkpt lat="42.234820000000006" lon="-8.712971666666666">
        <ele>59.91176404984992</ele>
        <time>2024-09-04T13:59:26.063Z</time>
      </trkpt>
      <trkpt lat="42.235078333333334" lon="-8.712311666666666">
        <ele>60.21157080292043</ele>
        <time>2024-09-04T14:01:06.055Z</time>
      </trkpt>
      <trkpt lat="42.23513666666666" lon="-8.712361666666668">
        <ele>59.71153712690823</ele>
        <time>2024-09-04T14:01:12.062Z</time>
      </trkpt>
      <trkpt lat="42.23518666666667" lon="-8.712613333333334">
        <ele>60.11153427678554</ele>
        <time>2024-09-04T14:01:30.061Z</time>
      </trkpt>
      <trkpt lat="42.23528666666666" lon="-8.712715">
        <ele>59.511492598105505</ele>
        <time>2024-09-04T14:01:44.056Z</time>
      </trkpt>
      <trkpt lat="42.23555833333333" lon="-8.712768333333335">
        <ele>57.21135238429019</ele>
        <time>2024-09-04T14:02:35.051Z</time>
      </trkpt>
      <trkpt lat="42.23573833333333" lon="-8.71258">
        <ele>56.71124581506553</ele>
        <time>2024-09-04T14:04:03.055Z</time>
      </trkpt>
      <trkpt lat="42.235841666666666" lon="-8.712105000000001">
        <ele>51.71114877013818</ele>
        <time>2024-09-04T14:04:50.052Z</time>
      </trkpt>
      <trkpt lat="42.235535" lon="-8.711856666666668">
        <ele>44.21127727924888</ele>
        <time>2024-09-04T14:05:12.052Z</time>
      </trkpt>
      <trkpt lat="42.23535166666667" lon="-8.711883333333333">
        <ele>46.81136669646984</ele>
        <time>2024-09-04T14:05:26.049Z</time>
      </trkpt>
      <trkpt lat="42.235335" lon="-8.71179">
        <ele>55.71137819201352</ele>
        <time>2024-09-04T14:05:37.056Z</time>
      </trkpt>
      <trkpt lat="42.23520833333334" lon="-8.711815">
        <ele>59.91143998215961</ele>
        <time>2024-09-04T14:05:52.069Z</time>
      </trkpt>
      <trkpt lat="42.23493166666667" lon="-8.711506666666667">
        <ele>60.81155807957814</ele>
        <time>2024-09-04T14:06:23.046Z</time>
      </trkpt>
      <trkpt lat="42.23470333333333" lon="-8.711431666666666">
        <ele>58.511668534611644</ele>
        <time>2024-09-04T14:06:47.075Z</time>
      </trkpt>
      <trkpt lat="42.23454333333334" lon="-8.711228333333334">
        <ele>58.31173534840697</ele>
        <time>2024-09-04T14:07:04.062Z</time>
      </trkpt>
      <trkpt lat="42.23451166666667" lon="-8.710528333333334">
        <ele>59.311688926808415</ele>
        <time>2024-09-04T14:07:58.086Z</time>
      </trkpt>
      <trkpt lat="42.234790000000004" lon="-8.709840000000002">
        <ele>63.211481738654705</ele>
        <time>2024-09-04T14:09:04.056Z</time>
      </trkpt>
      <trkpt lat="42.234855" lon="-8.709921666666666">
        <ele>65.21145405179996</ele>
        <time>2024-09-04T14:09:16.085Z</time>
      </trkpt>
      <trkpt lat="42.23499833333334" lon="-8.709653333333334">
        <ele>61.41135249342614</ele>
        <time>2024-09-04T14:09:37.081Z</time>
      </trkpt>
      <trkpt lat="42.23509000000001" lon="-8.70963">
        <ele>60.41130616979373</ele>
        <time>2024-09-04T14:09:48.065Z</time>
      </trkpt>
      <trkpt lat="42.235303333333334" lon="-8.70936">
        <ele>60.811161853440645</ele>
        <time>2024-09-04T14:10:17.053Z</time>
      </trkpt>
      <trkpt lat="42.234865000000006" lon="-8.709328333333334">
        <ele>61.31138803260157</ele>
        <time>2024-09-04T14:11:41.058Z</time>
      </trkpt>
      <trkpt lat="42.23478166666667" lon="-8.709186666666666">
        <ele>61.311388508406885</ele>
        <time>2024-09-04T14:11:48.048Z</time>
      </trkpt>
      <trkpt lat="42.23367499999999" lon="-8.709236666666667">
        <ele>120.61200414631986</ele>
        <time>2024-09-04T14:12:06.055Z</time>
      </trkpt>
      <trkpt lat="42.23376833333334" lon="-8.709255">
        <ele>122.61200295976548</ele>
        <time>2024-09-04T14:12:10.092Z</time>
      </trkpt>
      <trkpt lat="42.23391166666667" lon="-8.708975">
        <ele>215.91187211243522</ele>
        <time>2024-09-04T14:12:15.052Z</time>
      </trkpt>
      <trkpt lat="42.23434166666666" lon="-8.709351666666667">
        <ele>151.4116784661274</ele>
        <time>2024-09-04T14:12:38.084Z</time>
      </trkpt>
      <trkpt lat="42.23465666666666" lon="-8.70927">
        <ele>101.31150376168549</ele>
        <time>2024-09-04T14:12:53.055Z</time>
      </trkpt>
      <trkpt lat="42.23471333333334" lon="-8.709133333333334">
        <ele>85.31145124914178</ele>
        <time>2024-09-04T14:13:00.082Z</time>
      </trkpt>
      <trkpt lat="42.23462333333334" lon="-8.708311666666667">
        <ele>71.41141933489385</ele>
        <time>2024-09-04T14:14:09.049Z</time>
      </trkpt>
      <trkpt lat="42.23455166666666" lon="-8.708201666666668">
        <ele>66.11144265304753</ele>
        <time>2024-09-04T14:14:22.056Z</time>
      </trkpt>
      <trkpt lat="42.23448833333334" lon="-8.707853333333333">
        <ele>68.21144451438323</ele>
        <time>2024-09-04T14:14:54.055Z</time>
      </trkpt>
      <trkpt lat="42.234475" lon="-8.707648333333333">
        <ele>68.01143399968913</ele>
        <time>2024-09-04T14:15:09.059Z</time>
      </trkpt>
      <trkpt lat="42.23453500000001" lon="-8.707635">
        <ele>70.51140983391903</ele>
        <time>2024-09-04T14:15:39.048Z</time>
      </trkpt>
      <trkpt lat="42.234428333333334" lon="-8.707478333333334">
        <ele>72.3114380713668</ele>
        <time>2024-09-04T14:16:14.055Z</time>
      </trkpt>
      <trkpt lat="42.234428333333334" lon="-8.707363333333332">
        <ele>71.91143071304336</ele>
        <time>2024-09-04T14:16:40.075Z</time>
      </trkpt>
      <trkpt lat="42.234205" lon="-8.707386666666668">
        <ele>73.411540403271</ele>
        <time>2024-09-04T14:16:58.091Z</time>
      </trkpt>
      <trkpt lat="42.234111666666664" lon="-8.70748">
        <ele>71.61159952274048</ele>
        <time>2024-09-04T14:17:11.089Z</time>
      </trkpt>
      <trkpt lat="42.23362999999999" lon="-8.70749">
        <ele>80.71185821541513</ele>
        <time>2024-09-04T14:17:44.058Z</time>
      </trkpt>
      <trkpt lat="42.233565" lon="-8.70718">
        <ele>90.1118619347117</ele>
        <time>2024-09-04T14:18:06.099Z</time>
      </trkpt>
      <trkpt lat="42.23359000000001" lon="-8.706938333333333">
        <ele>85.71182808533715</ele>
        <time>2024-09-04T14:18:24.095Z</time>
      </trkpt>
      <trkpt lat="42.23343" lon="-8.706736666666666">
        <ele>83.41189221972424</ele>
        <time>2024-09-04T14:18:39.042Z</time>
      </trkpt>
      <trkpt lat="42.23347333333333" lon="-8.706746666666668">
        <ele>83.31187271931898</ele>
        <time>2024-09-04T14:18:45.049Z</time>
      </trkpt>
      <trkpt lat="42.23335999999999" lon="-8.706718333333333">
        <ele>85.7119218671368</ele>
        <time>2024-09-04T14:18:52.056Z</time>
      </trkpt>
      <trkpt lat="42.23280333333334" lon="-8.707066666666666">
        <ele>95.61225177202954</ele>
        <time>2024-09-04T14:19:57.084Z</time>
      </trkpt>
      <trkpt lat="42.23255166666666" lon="-8.707321666666667">
        <ele>93.51239946817734</ele>
        <time>2024-09-04T14:20:20.078Z</time>
      </trkpt>
      <trkpt lat="42.232508333333335" lon="-8.707625">
        <ele>88.51245613919414</ele>
        <time>2024-09-04T14:20:37.052Z</time>
      </trkpt>
      <trkpt lat="42.232330000000005" lon="-8.707903333333332">
        <ele>93.01257197477291</ele>
        <time>2024-09-04T14:21:09.065Z</time>
      </trkpt>
      <trkpt lat="42.23214666666666" lon="-8.708058333333334">
        <ele>92.9126827222739</ele>
        <time>2024-09-04T14:21:24.073Z</time>
      </trkpt>
      <trkpt lat="42.23224833333334" lon="-8.708233333333334">
        <ele>91.81265152769818</ele>
        <time>2024-09-04T14:21:53.076Z</time>
      </trkpt>
      <trkpt lat="42.23176166666667" lon="-8.709066666666667">
        <ele>86.91298722131181</ele>
        <time>2024-09-04T14:23:03.063Z</time>
      </trkpt>
      <trkpt lat="42.23179333333333" lon="-8.709489999999999">
        <ele>82.11301329524281</ele>
        <time>2024-09-04T14:23:36.065Z</time>
      </trkpt>
      <trkpt lat="42.231743333333334" lon="-8.709568333333333">
        <ele>79.71304197951167</ele>
        <time>2024-09-04T14:23:59.051Z</time>
      </trkpt>
      <trkpt lat="42.23161333333334" lon="-8.709495">
        <ele>82.71309765682938</ele>
        <time>2024-09-04T14:24:19.073Z</time>
      </trkpt>
      <trkpt lat="42.23125" lon="-8.710193333333333">
        <ele>74.31336010802896</ele>
        <time>2024-09-04T14:25:13.101Z</time>
      </trkpt>
      <trkpt lat="42.231185" lon="-8.710483333333334">
        <ele>73.41342790603704</ele>
        <time>2024-09-04T14:25:33.109Z</time>
      </trkpt>
      <trkpt lat="42.231305000000006" lon="-8.712056666666665">
        <ele>83.91351856356283</ele>
        <time>2024-09-04T14:27:13.056Z</time>
      </trkpt>
      <trkpt lat="42.231228333333334" lon="-8.712038333333334">
        <ele>89.21351932347736</ele>
        <time>2024-09-04T14:27:55.052Z</time>
      </trkpt>
      <trkpt lat="42.231046666666664" lon="-8.712251666666667">
        <ele>94.31366978722448</ele>
        <time>2024-09-04T14:28:18.061Z</time>
      </trkpt>
      <trkpt lat="42.23111833333334" lon="-8.712355">
        <ele>95.81365199408847</ele>
        <time>2024-09-04T14:28:29.055Z</time>
      </trkpt>
      <trkpt lat="42.23110499999999" lon="-8.7126">
        <ele>95.81367673581516</ele>
        <time>2024-09-04T14:28:58.085Z</time>
      </trkpt>
      <trkpt lat="42.23108666666667" lon="-8.712441666666667">
        <ele>100.91367062196638</ele>
        <time>2024-09-04T14:29:21.105Z</time>
      </trkpt>
      <trkpt lat="42.23099333333333" lon="-8.712471666666666">
        <ele>101.41367013683612</ele>
        <time>2024-09-04T14:29:31.105Z</time>
      </trkpt>
      <trkpt lat="42.23051" lon="-8.713249999999999">
        <ele>102.51404523667051</ele>
        <time>2024-09-04T14:30:37.069Z</time>
      </trkpt>
      <trkpt lat="42.23034333333333" lon="-8.713161666666668">
        <ele>108.81413157951113</ele>
        <time>2024-09-04T14:31:21.051Z</time>
      </trkpt>
      <trkpt lat="42.230471666666666" lon="-8.713248333333333">
        <ele>110.114076430002</ele>
        <time>2024-09-04T14:31:39.101Z</time>
      </trkpt>
      <trkpt lat="42.23041" lon="-8.713373333333333">
        <ele>111.41411333648031</ele>
        <time>2024-09-04T14:31:49.099Z</time>
      </trkpt>
      <trkpt lat="42.23057666666667" lon="-8.713526666666667">
        <ele>109.11404683595832</ele>
        <time>2024-09-04T14:32:04.061Z</time>
      </trkpt>
      <trkpt lat="42.23070833333333" lon="-8.714008333333334">
        <ele>108.11402084041842</ele>
        <time>2024-09-04T14:32:46.059Z</time>
      </trkpt>
      <trkpt lat="42.23075833333334" lon="-8.714015">
        <ele>108.01399782667579</ele>
        <time>2024-09-04T14:32:53.058Z</time>
      </trkpt>
      <trkpt lat="42.230536666666666" lon="-8.714053333333334">
        <ele>107.51410893162954</ele>
        <time>2024-09-04T14:33:16.053Z</time>
      </trkpt>
      <trkpt lat="42.230291666666666" lon="-8.714456666666667">
        <ele>108.21428376593164</ele>
        <time>2024-09-04T14:33:57.068Z</time>
      </trkpt>
      <trkpt lat="42.23033999999999" lon="-8.714603333333335">
        <ele>106.31427438677683</ele>
        <time>2024-09-04T14:34:18.049Z</time>
      </trkpt>
      <trkpt lat="42.23026333333334" lon="-8.714628333333334">
        <ele>106.61430873561974</ele>
        <time>2024-09-04T14:34:31.049Z</time>
      </trkpt>
      <trkpt lat="42.230545" lon="-8.714266666666667">
        <ele>108.01414057149526</ele>
        <time>2024-09-04T14:35:22.085Z</time>
      </trkpt>
      <trkpt lat="42.230495000000005" lon="-8.714418333333333">
        <ele>108.41417498157642</ele>
        <time>2024-09-04T14:35:37.063Z</time>
      </trkpt>
      <trkpt lat="42.230256666666676" lon="-8.714738333333335">
        <ele>96.21432869661142</ele>
        <time>2024-09-04T14:36:17.098Z</time>
      </trkpt>
      <trkpt lat="42.23042999999999" lon="-8.714841666666667">
        <ele>99.31425184870338</ele>
        <time>2024-09-04T14:36:40.088Z</time>
      </trkpt>
      <trkpt lat="42.230496666666674" lon="-8.714981666666667">
        <ele>104.21422903477486</ele>
        <time>2024-09-04T14:37:02.081Z</time>
      </trkpt>
      <trkpt lat="42.23065166666667" lon="-8.715043333333334">
        <ele>100.51416089803317</ele>
        <time>2024-09-04T14:37:28.099Z</time>
      </trkpt>
      <trkpt lat="42.23066166666668" lon="-8.715123333333334">
        <ele>100.21415111530483</ele>
        <time>2024-09-04T14:37:33.084Z</time>
      </trkpt>
      <trkpt lat="42.23058833333333" lon="-8.715373333333334">
        <ele>103.01421172776497</ele>
        <time>2024-09-04T14:37:43.086Z</time>
      </trkpt>
      <trkpt lat="42.230375" lon="-8.715483333333333">
        <ele>105.01434025013103</ele>
        <time>2024-09-04T14:38:06.092Z</time>
      </trkpt>
      <trkpt lat="42.23036999999999" lon="-8.715575">
        <ele>102.91435241247304</ele>
        <time>2024-09-04T14:38:22.089Z</time>
      </trkpt>
      <trkpt lat="42.23048333333333" lon="-8.715625">
        <ele>97.71429859942866</ele>
        <time>2024-09-04T14:38:43.068Z</time>
      </trkpt>
      <trkpt lat="42.23047499999999" lon="-8.715738333333332">
        <ele>96.91431086162598</ele>
        <time>2024-09-04T14:38:50.085Z</time>
      </trkpt>
      <trkpt lat="42.229985000000006" lon="-8.717223333333333">
        <ele>95.61471543493045</ele>
        <time>2024-09-04T14:40:52.082Z</time>
      </trkpt>
      <trkpt lat="42.22991666666667" lon="-8.717283333333334">
        <ele>96.51475311849393</ele>
        <time>2024-09-04T14:41:00.053Z</time>
      </trkpt>
      <trkpt lat="42.22980166666666" lon="-8.717218333333333">
        <ele>95.11481298508035</ele>
        <time>2024-09-04T14:41:33.052Z</time>
      </trkpt>
      <trkpt lat="42.229724999999995" lon="-8.717298333333334">
        <ele>94.51486090986627</ele>
        <time>2024-09-04T14:41:44.056Z</time>
      </trkpt>
      <trkpt lat="42.22972333333334" lon="-8.717193333333334">
        <ele>101.51487038095783</ele>
        <time>2024-09-04T14:42:51.049Z</time>
      </trkpt>
      <trkpt lat="42.229855" lon="-8.717234999999999">
        <ele>102.11479197043941</ele>
        <time>2024-09-04T14:43:10.095Z</time>
      </trkpt>
      <trkpt lat="42.2299" lon="-8.717375">
        <ele>101.61478123161348</ele>
        <time>2024-09-04T14:43:18.065Z</time>
      </trkpt>
      <trkpt lat="42.22987666666666" lon="-8.717828333333333">
        <ele>88.51483292181865</ele>
        <time>2024-09-04T14:43:45.095Z</time>
      </trkpt>
      <trkpt lat="42.22967666666667" lon="-8.717936666666667">
        <ele>84.61494406667995</ele>
        <time>2024-09-04T14:44:10.101Z</time>
      </trkpt>
      <trkpt lat="42.22959666666667" lon="-8.718446666666667">
        <ele>89.61504184825</ele>
        <time>2024-09-04T14:44:29.104Z</time>
      </trkpt>
      <trkpt lat="42.229400000000005" lon="-8.71903">
        <ele>95.11519928942883</ele>
        <time>2024-09-04T14:45:07.049Z</time>
      </trkpt>
      <trkpt lat="42.22899833333333" lon="-8.719098333333333">
        <ele>97.31541708686629</ele>
        <time>2024-09-04T14:46:47.091Z</time>
      </trkpt>
      <trkpt lat="42.22887166666666" lon="-8.719050000000001">
        <ele>97.61548799899478</ele>
        <time>2024-09-04T14:47:00.051Z</time>
      </trkpt>
      <trkpt lat="42.2288" lon="-8.719453333333332">
        <ele>94.81556250478945</ele>
        <time>2024-09-04T14:47:33.056Z</time>
      </trkpt>
      <trkpt lat="42.22899833333333" lon="-8.71995">
        <ele>94.51550713141266</ele>
        <time>2024-09-04T14:49:15.073Z</time>
      </trkpt>
      <trkpt lat="42.22888666666666" lon="-8.720421666666665">
        <ele>96.51560664359434</ele>
        <time>2024-09-04T14:49:45.086Z</time>
      </trkpt>
      <trkpt lat="42.22893333333333" lon="-8.720526666666666">
        <ele>97.21560109283887</ele>
        <time>2024-09-04T14:49:53.062Z</time>
      </trkpt>
      <trkpt lat="42.22864" lon="-8.721466666666666">
        <ele>95.71584530912679</ele>
        <time>2024-09-04T14:51:02.069Z</time>
      </trkpt>
      <trkpt lat="42.22850333333334" lon="-8.721476666666666">
        <ele>95.41592182016844</ele>
        <time>2024-09-04T14:51:20.055Z</time>
      </trkpt>
      <trkpt lat="42.22846" lon="-8.721698333333334">
        <ele>105.21596585924878</ele>
        <time>2024-09-04T14:51:57.076Z</time>
      </trkpt>
      <trkpt lat="42.22758" lon="-8.72216">
        <ele>90.91647601248198</ele>
        <time>2024-09-04T14:53:26.073Z</time>
      </trkpt>
      <trkpt lat="42.227535" lon="-8.722254999999999">
        <ele>89.61650907572616</ele>
        <time>2024-09-04T14:53:36.075Z</time>
      </trkpt>
      <trkpt lat="42.22757" lon="-8.722426666666667">
        <ele>85.81651020641979</ele>
        <time>2024-09-04T14:53:52.082Z</time>
      </trkpt>
      <trkpt lat="42.227283333333325" lon="-8.722643333333334">
        <ele>97.9166803769493</ele>
        <time>2024-09-04T14:54:33.088Z</time>
      </trkpt>
      <trkpt lat="42.226168333333334" lon="-8.724160000000001">
        <ele>80.41742297358635</ele>
        <time>2024-09-04T14:57:17.076Z</time>
      </trkpt>
      <trkpt lat="42.226155" lon="-8.724250000000001">
        <ele>81.51744355552094</ele>
        <time>2024-09-04T14:57:31.049Z</time>
      </trkpt>
      <trkpt lat="42.22549000000001" lon="-8.725083333333334">
        <ele>69.01788095469098</ele>
        <time>2024-09-04T14:58:55.089Z</time>
      </trkpt>
      <trkpt lat="42.22548" lon="-8.725206666666667">
        <ele>83.71789170285436</ele>
        <time>2024-09-04T14:59:13.055Z</time>
      </trkpt>
      <trkpt lat="42.22564666666667" lon="-8.725455">
        <ele>87.41784274924515</ele>
        <time>2024-09-04T14:59:41.098Z</time>
      </trkpt>
      <trkpt lat="42.225616666666674" lon="-8.725613333333333">
        <ele>91.91787130448365</ele>
        <time>2024-09-04T14:59:53.098Z</time>
      </trkpt>
      <trkpt lat="42.225665" lon="-8.725701666666668">
        <ele>96.91785581515583</ele>
        <time>2024-09-04T14:59:58.091Z</time>
      </trkpt>
      <trkpt lat="42.22461499999999" lon="-8.7272">
        <ele>66.51856055848219</ele>
        <time>2024-09-04T15:02:11.104Z</time>
      </trkpt>
      <trkpt lat="42.224515000000004" lon="-8.727396666666667">
        <ele>73.01863738790328</ele>
        <time>2024-09-04T15:02:46.053Z</time>
      </trkpt>
      <trkpt lat="42.224405" lon="-8.72789">
        <ele>70.21874931825279</ele>
        <time>2024-09-04T15:03:23.065Z</time>
      </trkpt>
      <trkpt lat="42.224239999999995" lon="-8.728113333333333">
        <ele>65.418851962914</ele>
        <time>2024-09-04T15:03:40.072Z</time>
      </trkpt>
      <trkpt lat="42.224153333333334" lon="-8.728601666666666">
        <ele>61.9189571073913</ele>
        <time>2024-09-04T15:04:21.053Z</time>
      </trkpt>
      <trkpt lat="42.22423833333334" lon="-8.728483333333333">
        <ele>63.218897875554646</ele>
        <time>2024-09-04T15:05:48.095Z</time>
      </trkpt>
      <trkpt lat="42.22423833333334" lon="-8.728688333333334">
        <ele>65.61891870402897</ele>
        <time>2024-09-04T15:06:06.062Z</time>
      </trkpt>
      <trkpt lat="42.22416333333334" lon="-8.728935">
        <ele>64.21898324064621</ele>
        <time>2024-09-04T15:06:29.081Z</time>
      </trkpt>
      <trkpt lat="42.224016666666664" lon="-8.729086666666666">
        <ele>63.319076485968345</ele>
        <time>2024-09-04T15:06:45.068Z</time>
      </trkpt>
      <trkpt lat="42.22398833333333" lon="-8.729466666666667">
        <ele>56.61913519354718</ele>
        <time>2024-09-04T15:07:18.065Z</time>
      </trkpt>
      <trkpt lat="42.223875" lon="-8.729788333333333">
        <ele>50.519228739484426</ele>
        <time>2024-09-04T15:07:48.072Z</time>
      </trkpt>
      <trkpt lat="42.22392166666667" lon="-8.729783333333334">
        <ele>49.91920968501362</ele>
        <time>2024-09-04T15:07:57.072Z</time>
      </trkpt>
      <trkpt lat="42.223965" lon="-8.729985">
        <ele>52.11920132349038</ele>
        <time>2024-09-04T15:08:19.049Z</time>
      </trkpt>
      <trkpt lat="42.22393833333334" lon="-8.730146666666666">
        <ele>51.919228874223684</ele>
        <time>2024-09-04T15:08:32.065Z</time>
      </trkpt>
      <trkpt lat="42.223859999999995" lon="-8.730175000000001">
        <ele>49.719275578503094</ele>
        <time>2024-09-04T15:08:42.059Z</time>
      </trkpt>
      <trkpt lat="42.223960000000005" lon="-8.730218333333333">
        <ele>48.719227189095335</ele>
        <time>2024-09-04T15:09:01.073Z</time>
      </trkpt>
      <trkpt lat="42.223926666666664" lon="-8.730428333333332">
        <ele>51.619265981704636</ele>
        <time>2024-09-04T15:09:16.065Z</time>
      </trkpt>
      <trkpt lat="42.22384166666667" lon="-8.730538333333334">
        <ele>53.719324044209216</ele>
        <time>2024-09-04T15:09:35.055Z</time>
      </trkpt>
      <trkpt lat="42.224003333333336" lon="-8.730948333333334">
        <ele>45.01927857104779</ele>
        <time>2024-09-04T15:10:13.082Z</time>
      </trkpt>
      <trkpt lat="42.223758333333336" lon="-8.731031666666667">
        <ele>47.11941070050183</ele>
        <time>2024-09-04T15:10:37.101Z</time>
      </trkpt>
      <trkpt lat="42.22376333333333" lon="-8.731116666666667">
        <ele>47.71942628753836</ele>
        <time>2024-09-04T15:10:47.104Z</time>
      </trkpt>
      <trkpt lat="42.223461666666665" lon="-8.731046666666666">
        <ele>54.119581167277836</ele>
        <time>2024-09-04T15:11:20.068Z</time>
      </trkpt>
      <trkpt lat="42.223508333333335" lon="-8.731206666666667">
        <ele>55.31957483940072</ele>
        <time>2024-09-04T15:11:30.056Z</time>
      </trkpt>
      <trkpt lat="42.223364999999994" lon="-8.731441666666665">
        <ele>52.51966464707645</ele>
        <time>2024-09-04T15:11:42.101Z</time>
      </trkpt>
      <trkpt lat="42.22337000000001" lon="-8.731718333333333">
        <ele>53.51969654679121</ele>
        <time>2024-09-04T15:12:00.094Z</time>
      </trkpt>
      <trkpt lat="42.223281666666665" lon="-8.731775">
        <ele>58.61975653493382</ele>
        <time>2024-09-04T15:12:25.089Z</time>
      </trkpt>
      <trkpt lat="42.22335833333333" lon="-8.731745">
        <ele>62.91971120748802</ele>
        <time>2024-09-04T15:12:44.088Z</time>
      </trkpt>
      <trkpt lat="42.22344666666666" lon="-8.731846666666666">
        <ele>69.91967528769221</ele>
        <time>2024-09-04T15:12:57.052Z</time>
      </trkpt>
      <trkpt lat="42.22364833333333" lon="-8.731868333333333">
        <ele>85.31957393107044</ele>
        <time>2024-09-04T15:13:13.055Z</time>
      </trkpt>
      <trkpt lat="42.223645000000005" lon="-8.73242">
        <ele>67.81962214136284</ele>
        <time>2024-09-04T15:14:02.075Z</time>
      </trkpt>
      <trkpt lat="42.223588333333325" lon="-8.73236">
        <ele>64.71964583385002</ele>
        <time>2024-09-04T15:14:11.073Z</time>
      </trkpt>
      <trkpt lat="42.223373333333335" lon="-8.732428333333333">
        <ele>56.119763118010894</ele>
        <time>2024-09-04T15:14:29.078Z</time>
      </trkpt>
      <trkpt lat="42.223056666666665" lon="-8.732384999999999">
        <ele>59.01993129965704</ele>
        <time>2024-09-04T15:15:03.098Z</time>
      </trkpt>
      <trkpt lat="42.222946666666665" lon="-8.7323">
        <ele>67.81999972824266</ele>
        <time>2024-09-04T15:15:36.046Z</time>
      </trkpt>
      <trkpt lat="42.223013333333334" lon="-8.7324">
        <ele>63.719963970670264</ele>
        <time>2024-09-04T15:15:55.072Z</time>
      </trkpt>
      <trkpt lat="42.22291833333334" lon="-8.732406666666666">
        <ele>59.32001090804322</ele>
        <time>2024-09-04T15:16:14.048Z</time>
      </trkpt>
      <trkpt lat="42.222853333333326" lon="-8.732311666666668">
        <ele>55.32003294760743</ele>
        <time>2024-09-04T15:16:29.929Z</time>
      </trkpt>
      <trkpt lat="42.222871" lon="-8.732223">
        <ele>47.75</ele>
        <time>2024-09-04T15:16:41.202Z</time>
        <extensions>
          <gpxtpx:TrackPointExtension>
            <gpxtpx:Extensions>
              <highway>footway</highway>
            </gpxtpx:Extensions>
          </gpxtpx:TrackPointExtension>
        </extensions>
      </trkpt>
      <trkpt lat="42.222501" lon="-8.732087">
        <ele>48.75</ele>
        <time>2024-09-04T15:17:44.777Z</time>
      </trkpt>
      <trkpt lat="42.22248666666666" lon="-8.732156666666667">
        <ele>57.32021336554854</ele>
        <time>2024-09-04T15:17:53.655Z</time>
      </trkpt>
      <trkpt lat="42.222055" lon="-8.732075">
        <ele>53.32043676816355</ele>
        <time>2024-09-04T15:18:03.095Z</time>
      </trkpt>
      <trkpt lat="42.22195" lon="-8.731988333333334">
        <ele>52.32048831334537</ele>
        <time>2024-09-04T15:18:41.105Z</time>
      </trkpt>
      <trkpt lat="42.22185833333333" lon="-8.731701666666668">
        <ele>59.22050270896157</ele>
        <time>2024-09-04T15:19:18.075Z</time>
      </trkpt>
      <trkpt lat="42.22170666666666" lon="-8.731821666666667">
        <ele>61.12059050949785</ele>
        <time>2024-09-04T15:19:29.055Z</time>
      </trkpt>
      <trkpt lat="42.22159499999999" lon="-8.732056666666667">
        <ele>50.62068332323171</ele>
        <time>2024-09-04T15:19:50.048Z</time>
      </trkpt>
      <trkpt lat="42.221264999999995" lon="-8.732323333333333">
        <ele>35.52088482442515</ele>
        <time>2024-09-04T15:20:30.088Z</time>
      </trkpt>
      <trkpt lat="42.22130666666667" lon="-8.732495">
        <ele>31.620873392615763</ele>
        <time>2024-09-04T15:20:52.091Z</time>
      </trkpt>
      <trkpt lat="42.22106999999999" lon="-8.732716666666667">
        <ele>34.72103245533506</ele>
        <time>2024-09-04T15:21:29.075Z</time>
      </trkpt>
      <trkpt lat="42.22104666666667" lon="-8.733061666666666">
        <ele>36.42108812179904</ele>
        <time>2024-09-04T15:21:59.084Z</time>
      </trkpt>
      <trkpt lat="42.22097999999999" lon="-8.733208333333332">
        <ele>34.32113253893737</ele>
        <time>2024-09-04T15:22:17.052Z</time>
      </trkpt>
      <trkpt lat="42.221156666666666" lon="-8.733336666666666">
        <ele>37.72105948938992</ele>
        <time>2024-09-04T15:22:42.104Z</time>
      </trkpt>
      <trkpt lat="42.22093666666667" lon="-8.7332">
        <ele>37.52115740223262</ele>
        <time>2024-09-04T15:23:08.048Z</time>
      </trkpt>
      <trkpt lat="42.22085666666667" lon="-8.733386666666666">
        <ele>36.62121909173195</ele>
        <time>2024-09-04T15:23:27.096Z</time>
      </trkpt>
      <trkpt lat="42.220838333333326" lon="-8.733651666666667">
        <ele>34.72125964676015</ele>
        <time>2024-09-04T15:23:55.084Z</time>
      </trkpt>
      <trkpt lat="42.22094666666667" lon="-8.733316666666667">
        <ele>33.521169726626795</ele>
        <time>2024-09-04T15:24:50.091Z</time>
      </trkpt>
      <trkpt lat="42.22105499999999" lon="-8.733291666666666">
        <ele>34.82110902761981</ele>
        <time>2024-09-04T15:25:16.089Z</time>
      </trkpt>
      <trkpt lat="42.22184833333334" lon="-8.733945">
        <ele>38.52075360667008</ele>
        <time>2024-09-04T15:27:05.101Z</time>
      </trkpt>
      <trkpt lat="42.221761666666666" lon="-8.733691666666665">
        <ele>36.120767624671196</ele>
        <time>2024-09-04T15:27:23.094Z</time>
      </trkpt>
      <trkpt lat="42.22183499999999" lon="-8.733646666666667">
        <ele>35.72072840975872</ele>
        <time>2024-09-04T15:27:34.085Z</time>
      </trkpt>
      <trkpt lat="42.221999999999994" lon="-8.733818333333334">
        <ele>31.420657650116347</ele>
        <time>2024-09-04T15:27:54.082Z</time>
      </trkpt>
      <trkpt lat="42.22193333333333" lon="-8.733845">
        <ele>30.32067148490799</ele>
        <time>2024-09-04T15:28:10.078Z</time>
      </trkpt>
      <trkpt lat="42.221905" lon="-8.733963333333332">
        <ele>29.92071262194392</ele>
        <time>2024-09-04T15:28:40.654Z</time>
      </trkpt>
      <trkpt lat="42.221908" lon="-8.733956">
        <ele>37</ele>
        <time>2024-09-04T15:28:42.717Z</time>
        <extensions>
          <gpxtpx:TrackPointExtension>
            <gpxtpx:Extensions>
              <reversedirection>yes</reversedirection>
              <highway>footway</highway>
            </gpxtpx:Extensions>
          </gpxtpx:TrackPointExtension>
        </extensions>
      </trkpt>
      <trkpt lat="42.221952" lon="-8.733992">
        <ele>31.75</ele>
        <time>2024-09-04T15:28:59.795Z</time>
      </trkpt>
      <trkpt lat="42.22183" lon="-8.734263333333333">
        <ele>41.42078198833554</ele>
        <time>2024-09-04T15:30:17.840Z</time>
      </trkpt>
      <trkpt lat="42.22190333333333" lon="-8.73399">
        <ele>40.120733030939185</ele>
        <time>2024-09-04T15:31:17.441Z</time>
      </trkpt>
      <trkpt lat="42.22199333333333" lon="-8.734091666666666">
        <ele>37.72068807795717</ele>
        <time>2024-09-04T15:31:34.421Z</time>
      </trkpt>
      <trkpt lat="42.22228166666667" lon="-8.733993333333332">
        <ele>27.120522958045754</ele>
        <time>2024-09-04T15:32:10.446Z</time>
      </trkpt>
      <trkpt lat="42.223236666666665" lon="-8.734786666666668">
        <ele>18.82009831111384</ele>
        <time>2024-09-04T15:34:01.466Z</time>
      </trkpt>
      <trkpt lat="42.22323166666667" lon="-8.734941666666666">
        <ele>21.72010646471204</ele>
        <time>2024-09-04T15:34:10.453Z</time>
      </trkpt>
      <trkpt lat="42.223306666666666" lon="-8.735101666666667">
        <ele>19.120089552634887</ele>
        <time>2024-09-04T15:34:23.462Z</time>
      </trkpt>
      <trkpt lat="42.22343833333333" lon="-8.735115">
        <ele>19.120025603863617</ele>
        <time>2024-09-04T15:34:34.472Z</time>
      </trkpt>
      <trkpt lat="42.223576666666666" lon="-8.735248333333335">
        <ele>20.219959262391114</ele>
        <time>2024-09-04T15:34:47.423Z</time>
      </trkpt>
      <trkpt lat="42.22356333333334" lon="-8.735316666666668">
        <ele>21.219957925459425</ele>
        <time>2024-09-04T15:35:00.443Z</time>
      </trkpt>
      <trkpt lat="42.224051666666675" lon="-8.735711666666667">
        <ele>16.51974685445601</ele>
        <time>2024-09-04T15:36:04.464Z</time>
      </trkpt>
      <trkpt lat="42.22402" lon="-8.735666666666667">
        <ele>16.719751698441016</ele>
        <time>2024-09-04T15:36:14.454Z</time>
      </trkpt>
      <trkpt lat="42.22408166666667" lon="-8.735629999999999">
        <ele>21.71975738300825</ele>
        <time>2024-09-04T15:36:49.456Z</time>
      </trkpt>
      <trkpt lat="42.22393333333333" lon="-8.735995">
        <ele>12.319839096274833</ele>
        <time>2024-09-04T15:37:42.588Z</time>
      </trkpt>
      <trkpt lat="42.224064" lon="-8.735929">
        <ele>19</ele>
        <time>2024-09-04T15:38:06.629Z</time>
        <extensions>
          <gpxtpx:TrackPointExtension>
            <gpxtpx:Extensions>
              <highway>footway</highway>
            </gpxtpx:Extensions>
          </gpxtpx:TrackPointExtension>
        </extensions>
      </trkpt>
      <trkpt lat="42.224057" lon="-8.735862">
        <ele>19.75</ele>
        <time>2024-09-04T15:38:15.263Z</time>
      </trkpt>
      <trkpt lat="42.22399833333334" lon="-8.735871666666666">
        <ele>12.619794129320645</ele>
        <time>2024-09-04T15:38:25.448Z</time>
      </trkpt>
      <trkpt lat="42.22399" lon="-8.736026666666667">
        <ele>17.819817729791488</ele>
        <time>2024-09-04T15:39:03.413Z</time>
      </trkpt>
      <trkpt lat="42.22418166666667" lon="-8.736245">
        <ele>16.519738717263273</ele>
        <time>2024-09-04T15:39:20.456Z</time>
      </trkpt>
      <trkpt lat="42.22440666666667" lon="-8.736255">
        <ele>12.819626655300233</ele>
        <time>2024-09-04T15:40:45.454Z</time>
      </trkpt>
      <trkpt lat="42.22454333333334" lon="-8.736068333333332">
        <ele>10.719528986558174</ele>
        <time>2024-09-04T15:41:47.645Z</time>
      </trkpt>
      <trkpt lat="42.224554" lon="-8.736101">
        <ele>22</ele>
        <time>2024-09-04T15:41:56.108Z</time>
        <extensions>
          <gpxtpx:TrackPointExtension>
            <gpxtpx:Extensions>
              <reversedirection>yes</reversedirection>
              <highway>footway</highway>
            </gpxtpx:Extensions>
          </gpxtpx:TrackPointExtension>
        </extensions>
      </trkpt>
      <trkpt lat="42.224608" lon="-8.736128">
        <ele>22.25</ele>
        <time>2024-09-04T15:42:14.529Z</time>
        <extensions>
          <gpxtpx:TrackPointExtension>
            <gpxtpx:Extensions>
              <reversedirection>yes</reversedirection>
              <highway>footway</highway>
            </gpxtpx:Extensions>
          </gpxtpx:TrackPointExtension>
        </extensions>
      </trkpt>
      <trkpt lat="42.224645" lon="-8.736036">
        <ele>23.75</ele>
        <time>2024-09-04T15:42:39.333Z</time>
        <extensions>
          <gpxtpx:TrackPointExtension>
            <gpxtpx:Extensions>
              <reversedirection>yes</reversedirection>
              <highway>footway</highway>
            </gpxtpx:Extensions>
          </gpxtpx:TrackPointExtension>
        </extensions>
      </trkpt>
      <trkpt lat="42.224658" lon="-8.736004">
        <ele>24.75</ele>
        <time>2024-09-04T15:42:47.979Z</time>
      </trkpt>
      <trkpt lat="42.22467666666667" lon="-8.736016666666666">
        <ele>14.619443169804583</ele>
        <time>2024-09-04T15:42:54.664Z</time>
      </trkpt>
      <trkpt lat="42.224675" lon="-8.735816666666667">
        <ele>13.41943420875424</ele>
        <time>2024-09-04T15:43:07.467Z</time>
      </trkpt>
      <trkpt lat="42.224655" lon="-8.735911666666668">
        <ele>12.11944493751713</ele>
        <time>2024-09-04T15:43:18.460Z</time>
      </trkpt>
      <trkpt lat="42.22470666666666" lon="-8.735980000000001">
        <ele>11.019428990016529</ele>
        <time>2024-09-04T15:43:26.449Z</time>
      </trkpt>
      <trkpt lat="42.22499666666666" lon="-8.736161666666668">
        <ele>8.119295938821253</ele>
        <time>2024-09-04T15:43:52.447Z</time>
      </trkpt>
      <trkpt lat="42.22505833333333" lon="-8.736361666666665">
        <ele>12.419278562859638</ele>
        <time>2024-09-04T15:44:00.421Z</time>
      </trkpt>
      <trkpt lat="42.225" lon="-8.736588333333334">
        <ele>23.21933378718618</ele>
        <time>2024-09-04T15:44:30.420Z</time>
      </trkpt>
      <trkpt lat="42.225184999999996" lon="-8.736715">
        <ele>22.81925113994472</ele>
        <time>2024-09-04T15:45:00.456Z</time>
      </trkpt>
      <trkpt lat="42.225301666666674" lon="-8.736596666666665">
        <ele>24.119174950331107</ele>
        <time>2024-09-04T15:45:09.466Z</time>
      </trkpt>
      <trkpt lat="42.22539333333334" lon="-8.736745">
        <ele>20.41914056310329</ele>
        <time>2024-09-04T15:45:29.456Z</time>
      </trkpt>
      <trkpt lat="42.225925000000004" lon="-8.73693">
        <ele>6.918878896814917</ele>
        <time>2024-09-04T15:46:27.454Z</time>
      </trkpt>
      <trkpt lat="42.22611" lon="-8.73719">
        <ele>-1.5811984323747907</ele>
        <time>2024-09-04T15:46:50.460Z</time>
      </trkpt>
      <trkpt lat="42.226234999999996" lon="-8.737105000000001">
        <ele>0.11872549221905615</ele>
        <time>2024-09-04T15:47:04.452Z</time>
      </trkpt>
      <trkpt lat="42.226794999999996" lon="-8.737561666666666">
        <ele>12.218466968147595</ele>
        <time>2024-09-04T15:48:18.462Z</time>
      </trkpt>
      <trkpt lat="42.227075" lon="-8.737091666666666">
        <ele>8.818282656379097</ele>
        <time>2024-09-04T15:49:01.466Z</time>
      </trkpt>
      <trkpt lat="42.228" lon="-8.736305">
        <ele>15.817702714869704</ele>
        <time>2024-09-04T15:50:40.447Z</time>
      </trkpt>
      <trkpt lat="42.228300000000004" lon="-8.737051666666668">
        <ele>2.4176110064402465</ele>
        <time>2024-09-04T15:51:38.472Z</time>
      </trkpt>
      <trkpt lat="42.229395000000004" lon="-8.73629">
        <ele>6.3169467265410475</ele>
        <time>2024-09-04T15:53:41.463Z</time>
      </trkpt>
      <trkpt lat="42.22950833333333" lon="-8.736556666666667">
        <ele>4.516914228658514</ele>
        <time>2024-09-04T15:54:04.427Z</time>
      </trkpt>
      <trkpt lat="42.23178500000001" lon="-8.734943333333332">
        <ele>15.515545043099195</ele>
        <time>2024-09-04T15:58:02.420Z</time>
      </trkpt>
      <trkpt lat="42.23449833333334" lon="-8.733195">
        <ele>11.61392273972875</ele>
        <time>2024-09-04T16:02:35.472Z</time>
      </trkpt>
      <trkpt lat="42.234458333333336" lon="-8.733098333333334">
        <ele>14.81392279695838</ele>
        <time>2024-09-04T16:02:41.449Z</time>
      </trkpt>
      <trkpt lat="42.23590166666666" lon="-8.732256666666666">
        <ele>14.213072874161696</ele>
        <time>2024-09-04T16:05:16.420Z</time>
      </trkpt>
      <trkpt lat="42.23594333333334" lon="-8.732321666666667">
        <ele>12.113071991487843</ele>
        <time>2024-09-04T16:05:37.420Z</time>
      </trkpt>
      <trkpt lat="42.23627166666667" lon="-8.7321">
        <ele>13.112871293131327</ele>
        <time>2024-09-04T16:06:26.424Z</time>
      </trkpt>
      <trkpt lat="42.23646166666667" lon="-8.732098333333333">
        <ele>8.812768786025615</ele>
        <time>2024-09-04T16:06:54.450Z</time>
      </trkpt>
      <trkpt lat="42.236599999999996" lon="-8.731935">
        <ele>8.212678090485142</ele>
        <time>2024-09-04T16:07:10.417Z</time>
      </trkpt>
      <trkpt lat="42.237116666666665" lon="-8.730324999999999">
        <ele>10.712243465217526</ele>
        <time>2024-09-04T16:09:41.454Z</time>
      </trkpt>
      <trkpt lat="42.23731166666666" lon="-8.729986666666667">
        <ele>8.312106892076649</ele>
        <time>2024-09-04T16:10:10.417Z</time>
      </trkpt>
      <trkpt lat="42.23763666666667" lon="-8.729766666666666">
        <ele>6.61191270118556</ele>
        <time>2024-09-04T16:10:53.430Z</time>
      </trkpt>
      <trkpt lat="42.23871666666667" lon="-8.729375000000001">
        <ele>10.311301876533541</ele>
        <time>2024-09-04T16:12:41.414Z</time>
      </trkpt>
      <trkpt lat="42.23882333333333" lon="-8.729406666666668">
        <ele>10.91125080796246</ele>
        <time>2024-09-04T16:12:53.475Z</time>
      </trkpt>
      <trkpt lat="42.23901666666667" lon="-8.729246666666667">
        <ele>9.611125906737946</ele>
        <time>2024-09-04T16:13:14.476Z</time>
      </trkpt>
      <trkpt lat="42.239266666666666" lon="-8.72894">
        <ele>11.710968158086203</ele>
        <time>2024-09-04T16:13:40.453Z</time>
      </trkpt>
      <trkpt lat="42.23992499999999" lon="-8.727783333333333">
        <ele>17.110505898388993</ele>
        <time>2024-09-04T16:15:29.463Z</time>
      </trkpt>
      <trkpt lat="42.239990000000006" lon="-8.728006666666666">
        <ele>8.310491791900745</ele>
        <time>2024-09-04T16:15:48.431Z</time>
      </trkpt>
      <trkpt lat="42.240165" lon="-8.727916666666665">
        <ele>4.010392945270155</ele>
        <time>2024-09-04T16:16:13.452Z</time>
      </trkpt>
      <trkpt lat="42.24008833333334" lon="-8.727836666666667">
        <ele>4.810422102514465</ele>
        <time>2024-09-04T16:16:27.443Z</time>
      </trkpt>
      <trkpt lat="42.24017833333334" lon="-8.727955">
        <ele>3.2103920196983253</ele>
        <time>2024-09-04T16:16:42.469Z</time>
      </trkpt>
      <trkpt lat="42.240318333333335" lon="-8.72799">
        <ele>5.610322042634209</ele>
        <time>2024-09-04T16:16:51.472Z</time>
      </trkpt>
      <trkpt lat="42.24029833333334" lon="-8.727766666666668">
        <ele>6.410305322490778</ele>
        <time>2024-09-04T16:17:04.460Z</time>
      </trkpt>
      <trkpt lat="42.240145" lon="-8.727526666666668">
        <ele>6.910365373375242</ele>
        <time>2024-09-04T16:17:25.466Z</time>
      </trkpt>
      <trkpt lat="42.24050999999999" lon="-8.726661666666667">
        <ele>11.510094558154925</ele>
        <time>2024-09-04T16:18:40.466Z</time>
      </trkpt>
      <trkpt lat="42.24058166666667" lon="-8.726650000000001">
        <ele>9.210052608802847</ele>
        <time>2024-09-04T16:18:46.466Z</time>
      </trkpt>
      <trkpt lat="42.240586666666665" lon="-8.726546666666668">
        <ele>11.01003638737528</ele>
        <time>2024-09-04T16:18:53.446Z</time>
      </trkpt>
      <trkpt lat="42.240856666666666" lon="-8.726138333333333">
        <ele>10.609853829773911</ele>
        <time>2024-09-04T16:19:50.433Z</time>
      </trkpt>
      <trkpt lat="42.24095166666666" lon="-8.725845">
        <ele>9.109777959709056</ele>
        <time>2024-09-04T16:20:32.453Z</time>
      </trkpt>
      <trkpt lat="42.24088666666667" lon="-8.725781666666668">
        <ele>9.009804410097338</ele>
        <time>2024-09-04T16:20:40.453Z</time>
      </trkpt>
      <trkpt lat="42.24102666666666" lon="-8.723703333333333">
        <ele>7.009532542489588</ele>
        <time>2024-09-04T16:23:02.452Z</time>
      </trkpt>
      <trkpt lat="42.24103333333334" lon="-8.723505">
        <ele>7.409508955067395</ele>
        <time>2024-09-04T16:23:14.479Z</time>
      </trkpt>
      <trkpt lat="42.240975" lon="-8.723466666666667">
        <ele>8.00953395127182</ele>
        <time>2024-09-04T16:23:22.417Z</time>
      </trkpt>
      <trkpt lat="42.24103166666667" lon="-8.722946666666667">
        <ele>7.609458734343754</ele>
        <time>2024-09-04T16:24:06.441Z</time>
      </trkpt>
      <trkpt lat="42.24121166666667" lon="-8.722915">
        <ele>7.8093589312999825</ele>
        <time>2024-09-04T16:24:18.416Z</time>
      </trkpt>
      <trkpt lat="42.24114833333333" lon="-8.722856666666667">
        <ele>8.609382648766733</ele>
        <time>2024-09-04T16:24:41.467Z</time>
      </trkpt>
      <trkpt lat="42.24113666666667" lon="-8.722711666666667">
        <ele>7.209378070210846</ele>
        <time>2024-09-04T16:24:51.417Z</time>
      </trkpt>
      <trkpt lat="42.24122333333333" lon="-8.720958333333334">
        <ele>8.20916553802735</ele>
        <time>2024-09-04T16:27:01.427Z</time>
      </trkpt>
      <trkpt lat="42.241820000000004" lon="-8.720598333333333">
        <ele>7.508821796250096</ele>
        <time>2024-09-04T16:28:05.431Z</time>
      </trkpt>
      <trkpt lat="42.242045000000005" lon="-8.721135">
        <ele>6.408750305659623</ele>
        <time>2024-09-04T16:29:32.424Z</time>
      </trkpt>
      <trkpt lat="42.241771666666665" lon="-8.720481666666666">
        <ele>3.708827224556458</ele>
        <time>2024-09-04T16:30:32.446Z</time>
      </trkpt>
      <trkpt lat="42.24128333333333" lon="-8.720436666666666">
        <ele>9.00900424823196</ele>
        <time>2024-09-04T16:31:01.423Z</time>
      </trkpt>
      <trkpt lat="42.24138833333333" lon="-8.720363333333333">
        <ele>17.30904940660131</ele>
        <time>2024-09-04T16:31:03.456Z</time>
      </trkpt>
      <trkpt lat="42.24133" lon="-8.720385">
        <ele>17.809033195025222</ele>
        <time>2024-09-04T16:31:05.473Z</time>
      </trkpt>
      <trkpt lat="42.241308333333336" lon="-8.720321666666667">
        <ele>23.009053463575462</ele>
        <time>2024-09-04T16:31:07.470Z</time>
      </trkpt>
      <trkpt lat="42.24138833333333" lon="-8.720288333333334">
        <ele>10.809021757431758</ele>
        <time>2024-09-04T16:31:10.463Z</time>
      </trkpt>
      <trkpt lat="42.24136" lon="-8.720208333333334">
        <ele>10.00902470616601</ele>
        <time>2024-09-04T16:31:11.779Z</time>
      </trkpt>
      <trkpt lat="42.24136" lon="-8.720208333333334">
        <ele>8.016248035547278</ele>
        <time>2024-09-04T16:31:11.779Z</time>
      </trkpt>
      <trkpt lat="42.24121775674368" lon="-8.720323016843821">
        <ele>7.755179819442327</ele>
        <time>2024-09-04T16:31:15.100Z</time>
      </trkpt>
      <trkpt lat="42.24137833333332" lon="-8.720125">
        <ele>8.184831355518057</ele>
        <time>2024-09-04T16:31:19.459Z</time>
      </trkpt>
      <trkpt lat="42.24137833333332" lon="-8.720125">
        <ele>53.70912692163967</ele>
        <time>2024-09-04T16:31:19.476Z</time>
      </trkpt>
      <trkpt lat="42.24120166666667" lon="-8.719751666666667">
        <ele>-4.490943424021054</ele>
        <time>2024-09-04T16:32:01.966Z</time>
      </trkpt>
      <trkpt lat="42.241141666666664" lon="-8.719465000000001">
        <ele>0.20906553179520415</ele>
        <time>2024-09-04T16:32:22.952Z</time>
      </trkpt>
      <trkpt lat="42.24012" lon="-8.719043333333333">
        <ele>10.909555330772157</ele>
        <time>2024-09-04T16:34:13.919Z</time>
      </trkpt>
      <trkpt lat="42.240089999999995" lon="-8.718648333333334">
        <ele>7.009538725722059</ele>
        <time>2024-09-04T16:34:44.969Z</time>
      </trkpt>
      <trkpt lat="42.239934999999996" lon="-8.718169999999999">
        <ele>9.109573801858474</ele>
        <time>2024-09-04T16:35:18.965Z</time>
      </trkpt>
      <trkpt lat="42.239493333333336" lon="-8.718093333333334">
        <ele>9.909795781544005</ele>
        <time>2024-09-04T16:35:58.928Z</time>
      </trkpt>
      <trkpt lat="42.239438333333325" lon="-8.718373333333334">
        <ele>12.409851046269466</ele>
        <time>2024-09-04T16:36:29.945Z</time>
      </trkpt>
      <trkpt lat="42.239259999999994" lon="-8.718259999999999">
        <ele>13.409934199885903</ele>
        <time>2024-09-04T16:37:37.948Z</time>
      </trkpt>
      <trkpt lat="42.23922833333333" lon="-8.717753333333333">
        <ele>12.309906571323694</ele>
        <time>2024-09-04T16:38:33.925Z</time>
      </trkpt>
      <trkpt lat="42.239001666666674" lon="-8.716896666666665">
        <ele>7.409941441563696</ele>
        <time>2024-09-04T16:39:44.968Z</time>
      </trkpt>
      <trkpt lat="42.23867833333334" lon="-8.714828333333333">
        <ele>9.50991205993131</ele>
        <time>2024-09-04T16:41:58.965Z</time>
      </trkpt>
      <trkpt lat="42.238659999999996" lon="-8.712375">
        <ele>7.109689760347962</ele>
        <time>2024-09-04T16:44:46.952Z</time>
      </trkpt>
      <trkpt lat="42.23894" lon="-8.712333333333333">
        <ele>10.809550627509296</ele>
        <time>2024-09-04T16:46:01.968Z</time>
      </trkpt>
      <trkpt lat="42.239065" lon="-8.712205">
        <ele>10.2094680748189</ele>
        <time>2024-09-04T16:46:12.968Z</time>
      </trkpt>
      <trkpt lat="42.239174999999996" lon="-8.71211">
        <ele>5.509397170995491</ele>
        <time>2024-09-04T16:48:15.978Z</time>
      </trkpt>
      <trkpt lat="42.23940833333333" lon="-8.712058333333333">
        <ele>5.709274440159369</ele>
        <time>2024-09-04T17:03:19.958Z</time>
      </trkpt>
      <trkpt lat="42.23938" lon="-8.711986666666666">
        <ele>4.0092862523466195</ele>
        <time>2024-09-04T17:04:23.958Z</time>
      </trkpt>
      <trkpt lat="42.23928833333333" lon="-8.712223333333332">
        <ele>-0.6906575735678047</ele>
        <time>2024-09-04T17:10:44.952Z</time>
      </trkpt>
      <trkpt lat="42.239025000000005" lon="-8.712456666666666">
        <ele>6.809502777100036</ele>
        <time>2024-09-04T17:11:11.922Z</time>
      </trkpt>
      <trkpt lat="42.238884999999996" lon="-8.712286666666667">
        <ele>9.409565794150666</ele>
        <time>2024-09-04T17:11:52.955Z</time>
      </trkpt>
      <trkpt lat="42.238755000000005" lon="-8.712298333333333">
        <ele>11.309627994775063</ele>
        <time>2024-09-04T17:13:22.935Z</time>
      </trkpt>
      <trkpt lat="42.23865333333333" lon="-8.712430000000001">
        <ele>8.209697029367234</ele>
        <time>2024-09-04T17:13:36.943Z</time>
      </trkpt>
      <trkpt lat="42.238661666666665" lon="-8.712858333333333">
        <ele>8.30973635073736</ele>
        <time>2024-09-04T17:14:06.961Z</time>
      </trkpt>
      <trkpt lat="42.238616666666665" lon="-8.712798333333334">
        <ele>8.309748901722116</ele>
        <time>2024-09-04T17:14:16.962Z</time>
      </trkpt>
      <trkpt lat="42.23800833333333" lon="-8.712728333333333">
        <ele>6.510059832351757</ele>
        <time>2024-09-04T17:15:20.955Z</time>
      </trkpt>
      <trkpt lat="42.23790999999999" lon="-8.713076666666666">
        <ele>8.91014887681748</ele>
        <time>2024-09-04T17:15:52.959Z</time>
      </trkpt>
      <trkpt lat="42.23783666666667" lon="-8.712986666666666">
        <ele>9.410178167400701</ele>
        <time>2024-09-04T17:16:01.962Z</time>
      </trkpt>
      <trkpt lat="42.237851666666664" lon="-8.712905000000001">
        <ele>8.310171925603463</ele>
        <time>2024-09-04T17:16:10.955Z</time>
      </trkpt>
      <trkpt lat="42.23772" lon="-8.712866666666667">
        <ele>6.0102223875909075</ele>
        <time>2024-09-04T17:16:24.954Z</time>
      </trkpt>
      <trkpt lat="42.23762" lon="-8.712683333333333">
        <ele>9.010264160373637</ele>
        <time>2024-09-04T17:16:43.945Z</time>
      </trkpt>
      <trkpt lat="42.23776333333333" lon="-8.71241">
        <ele>7.710170410117286</ele>
        <time>2024-09-04T17:17:30.965Z</time>
      </trkpt>
      <trkpt lat="42.23796333333333" lon="-8.712493333333333">
        <ele>8.510073001685484</ele>
        <time>2024-09-04T17:17:50.962Z</time>
      </trkpt>
      <trkpt lat="42.237965" lon="-8.712629999999999">
        <ele>8.510080566686156</ele>
        <time>2024-09-04T17:18:04.968Z</time>
      </trkpt>
      <trkpt lat="42.238110000000006" lon="-8.712768333333335">
        <ele>12.210018661121964</ele>
        <time>2024-09-04T17:18:29.975Z</time>
      </trkpt>
      <trkpt lat="42.23867499999999" lon="-8.712736666666666">
        <ele>10.409731813681475</ele>
        <time>2024-09-04T17:19:10.966Z</time>
      </trkpt>
      <trkpt lat="42.238726666666665" lon="-8.712391666666667">
        <ele>13.909659784474101</ele>
        <time>2024-09-04T17:19:36.952Z</time>
      </trkpt>
      <trkpt lat="42.239168333333325" lon="-8.712475000000001">
        <ele>18.50944207076924</ele>
        <time>2024-09-04T17:20:40.958Z</time>
      </trkpt>
      <trkpt lat="42.23924999999999" lon="-8.712368333333334">
        <ele>14.50939071687037</ele>
        <time>2024-09-04T17:20:49.962Z</time>
      </trkpt>
      <trkpt lat="42.23935166666667" lon="-8.712403333333333">
        <ele>9.109339048590932</ele>
        <time>2024-09-04T17:21:02.958Z</time>
      </trkpt>
      <trkpt lat="42.239324999999994" lon="-8.712253333333333">
        <ele>10.609330686044316</ele>
        <time>2024-09-04T17:21:30.951Z</time>
      </trkpt>
      <trkpt lat="42.23940833333333" lon="-8.712313333333332">
        <ele>14.409293493356643</ele>
        <time>2024-09-04T17:26:02.968Z</time>
      </trkpt>
      <trkpt lat="42.239394999999995" lon="-8.712193333333333">
        <ele>17.309294521788736</ele>
        <time>2024-09-04T17:28:55.948Z</time>
      </trkpt>
      <trkpt lat="42.23942166666667" lon="-8.71223">
        <ele>19.90928040923506</ele>
        <time>2024-09-04T17:29:34.962Z</time>
      </trkpt>
      <trkpt lat="42.239313333333335" lon="-8.712188333333334">
        <ele>1.9093300131781916</ele>
        <time>2024-09-04T17:31:42.968Z</time>
      </trkpt>
      <trkpt lat="42.23938499999999" lon="-8.712043333333334">
        <ele>18.609281423911256</ele>
        <time>2024-09-04T17:32:33.958Z</time>
      </trkpt>
      <trkpt lat="42.23942333333333" lon="-8.71201">
        <ele>24.109261802296913</ele>
        <time>2024-09-04T17:35:03.955Z</time>
      </trkpt>
      <trkpt lat="42.23938499999999" lon="-8.712006666666667">
        <ele>18.609275912040268</ele>
        <time>2024-09-04T17:36:12.229Z</time>
      </trkpt>
    </trkseg>
  </trk>
</gpx>
