<?xml version="1.0" encoding="UTF-8"?>
<gpx version="1.1" creator="Export" xmlns="http://www.topografix.com/GPX/1/1" xmlns:xsi="http://www.w3.org/2001/XMLSchema-instance" xsi:schemaLocation="http://www.topografix.com/GPX/1/1 http://www.topografix.com/GPX/1/1/gpx.xsd http://www.garmin.com/xmlschemas/GpxExtensions/v3 http://www.garmin.com/xmlschemas/GpxExtensionsv3.xsd http://www.garmin.com/xmlschemas/TrackPointExtension/v1 http://www.garmin.com/xmlschemas/TrackPointExtensionv1.xsd http://www.garmin.com/xmlschemas/PowerExtension/v1 http://www.garmin.com/xmlschemas/PowerExtensionv1.xsd http://www.topografix.com/GPX/gpx_style/0/2 http://www.topografix.com/GPX/gpx_style/0/2/gpx_style.xsd" xmlns:gpxtpx="http://www.garmin.com/xmlschemas/TrackPointExtension/v1" xmlns:gpxx="http://www.garmin.com/xmlschemas/GpxExtensions/v3" xmlns:gpxpx="http://www.garmin.com/xmlschemas/PowerExtension/v1" xmlns:gpx_style="http://www.topografix.com/GPX/gpx_style/0/2">
  <metadata>
    <name>activity_163_2024-08-23</name>
    <author>
      <name>gpx.studio</name>
      <link href="https://gpx.studio"/>
    </author>
  </metadata>
  <wpt lat="52.363451" lon="4.884971">
    <ele>7.607648780080949</ele>
    <name>The Pantry</name>
    <sym>Restaurant</sym>
  </wpt>
  <trk>
    <trkseg>
      <trkpt lat="52.364493333333336" lon="4.880793333333333">
        <ele>6.7304329400127685</ele>
        <time>2024-08-23T19:32:35.563Z</time>
      </trkpt>
      <trkpt lat="52.36401666666667" lon="4.881473333333333">
        <ele>0.2310240105189294</ele>
        <time>2024-08-23T19:33:28.586Z</time>
      </trkpt>
      <trkpt lat="52.36392666666667" lon="4.881508333333333">
        <ele>-1.9689434307291194</ele>
        <time>2024-08-23T19:33:36.595Z</time>
      </trkpt>
      <trkpt lat="52.363886666666666" lon="4.882113333333334">
        <ele>-6.368368513540851</ele>
        <time>2024-08-23T19:34:02.615Z</time>
      </trkpt>
      <trkpt lat="52.36383166666666" lon="4.882255">
        <ele>-3.5682329137620385</ele>
        <time>2024-08-23T19:34:08.611Z</time>
      </trkpt>
      <trkpt lat="52.36381333333334" lon="4.8825400000000005">
        <ele>2.13203815101393</ele>
        <time>2024-08-23T19:34:30.213Z</time>
      </trkpt>
      <trkpt lat="52.36458745033397" lon="4.883600899850165">
        <ele>8.039671087119</ele>
        <time>2024-08-23T19:36:34.823Z</time>
      </trkpt>
      <trkpt lat="52.36361730608655" lon="4.885033187452137">
        <ele>7.775162484121783</ele>
        <time>2024-08-23T19:39:16.068Z</time>
      </trkpt>
      <trkpt lat="52.363491960405355" lon="4.884946356189744">
        <ele>7.772692374587947</ele>
        <time>2024-08-23T19:39:44.268Z</time>
      </trkpt>
      <trkpt lat="52.36364971275421" lon="4.885123238958158">
        <ele>7.71519744004555</ele>
        <time>2024-08-23T19:40:01.635Z</time>
      </trkpt>
      <trkpt lat="52.36463774920031" lon="4.883732742732263">
        <ele>8.145586245063717</ele>
        <time>2024-08-23T19:43:57.951Z</time>
      </trkpt>
      <trkpt lat="52.364918718029315" lon="4.884182757875067">
        <ele>6.95990156569574</ele>
        <time>2024-08-23T19:44:18.246Z</time>
      </trkpt>
      <trkpt lat="52.36396165294008" lon="4.8856751563144485">
        <ele>7.568995371274931</ele>
        <time>2024-08-23T20:02:58.703Z</time>
      </trkpt>
      <trkpt lat="52.36335560425027" lon="4.8847029889909095">
        <ele>8.73412718158285</ele>
        <time>2024-08-23T20:04:24.986Z</time>
      </trkpt>
      <trkpt lat="52.36299166666666" lon="4.884006666666666">
        <ele>9.778181879228814</ele>
        <time>2024-08-23T20:05:21.910Z</time>
      </trkpt>
      <trkpt lat="52.36309833333333" lon="4.883898333333334">
        <ele>9.633310589110764</ele>
        <time>2024-08-23T21:08:16.592Z</time>
      </trkpt>
      <trkpt lat="52.363209999999995" lon="4.883578333333333">
        <ele>11.933007573882698</ele>
        <time>2024-08-23T21:08:49.584Z</time>
      </trkpt>
      <trkpt lat="52.363125000000004" lon="4.883566666666667">
        <ele>8.432990744203195</ele>
        <time>2024-08-23T21:09:16.595Z</time>
      </trkpt>
      <trkpt lat="52.36330833333333" lon="4.883393333333333">
        <ele>10.032831266128184</ele>
        <time>2024-08-23T21:09:44.565Z</time>
      </trkpt>
      <trkpt lat="52.36367166666667" lon="4.882978333333334">
        <ele>5.332466426714504</ele>
        <time>2024-08-23T21:10:47.556Z</time>
      </trkpt>
      <trkpt lat="52.36382833333334" lon="4.882728333333334">
        <ele>5.232243251496996</ele>
        <time>2024-08-23T21:11:14.561Z</time>
      </trkpt>
      <trkpt lat="52.36383000000001" lon="4.882835">
        <ele>5.53232835943907</ele>
        <time>2024-08-23T21:11:27.598Z</time>
      </trkpt>
      <trkpt lat="52.36387833333333" lon="4.88283">
        <ele>4.032341796926701</ele>
        <time>2024-08-23T21:11:34.584Z</time>
      </trkpt>
      <trkpt lat="52.363953333333335" lon="4.882996666666667">
        <ele>2.9325079462233177</ele>
        <time>2024-08-23T21:11:58.585Z</time>
      </trkpt>
      <trkpt lat="52.36396500000001" lon="4.88282">
        <ele>1.632339036508121</ele>
        <time>2024-08-23T21:12:24.585Z</time>
      </trkpt>
      <trkpt lat="52.36405166666667" lon="4.882898333333333">
        <ele>4.332414961163927</ele>
        <time>2024-08-23T21:12:54.555Z</time>
      </trkpt>
      <trkpt lat="52.364084999999996" lon="4.883073333333333">
        <ele>3.132588263893183</ele>
        <time>2024-08-23T21:13:13.586Z</time>
      </trkpt>
      <trkpt lat="52.364181666666674" lon="4.88314">
        <ele>4.9326555830160075</ele>
        <time>2024-08-23T21:13:22.599Z</time>
      </trkpt>
      <trkpt lat="52.36423833333333" lon="4.883413333333333">
        <ele>10.032934180482421</ele>
        <time>2024-08-23T21:13:45.598Z</time>
      </trkpt>
      <trkpt lat="52.364136666666674" lon="4.883430000000001">
        <ele>14.432943654855784</ele>
        <time>2024-08-23T21:14:04.588Z</time>
      </trkpt>
      <trkpt lat="52.36415166666667" lon="4.883488333333333">
        <ele>15.93299709721451</ele>
        <time>2024-08-23T21:14:29.559Z</time>
      </trkpt>
      <trkpt lat="52.364045000000004" lon="4.883563333333333">
        <ele>12.533054898830684</ele>
        <time>2024-08-23T21:14:53.584Z</time>
      </trkpt>
      <trkpt lat="52.36237666666666" lon="4.885966666666667">
        <ele>8.735232679344627</ele>
        <time>2024-08-23T21:19:32.569Z</time>
      </trkpt>
      <trkpt lat="52.36187499999999" lon="4.886986666666667">
        <ele>0.03614930211245593</ele>
        <time>2024-08-23T21:21:25.578Z</time>
      </trkpt>
      <trkpt lat="52.36176833333334" lon="4.887031666666667">
        <ele>5.136205210724505</ele>
        <time>2024-08-23T21:21:57.559Z</time>
      </trkpt>
      <trkpt lat="52.361745000000006" lon="4.887146666666666">
        <ele>10.636312375281967</ele>
        <time>2024-08-23T21:22:45.555Z</time>
      </trkpt>
      <trkpt lat="52.361760000000004" lon="4.887063333333333">
        <ele>3.536241566754306</ele>
        <time>2024-08-23T21:24:35.592Z</time>
      </trkpt>
      <trkpt lat="52.36160499999999" lon="4.886966666666667">
        <ele>4.736129290557223</ele>
        <time>2024-08-23T21:24:59.556Z</time>
      </trkpt>
      <trkpt lat="52.361529999999995" lon="4.886951666666667">
        <ele>4.436103913730307</ele>
        <time>2024-08-23T21:25:35.588Z</time>
      </trkpt>
      <trkpt lat="52.361508333333326" lon="4.88707">
        <ele>6.3362189530242645</ele>
        <time>2024-08-23T21:25:42.602Z</time>
      </trkpt>
      <trkpt lat="52.361529999999995" lon="4.887041666666667">
        <ele>6.536193131232636</ele>
        <time>2024-08-23T21:25:53.588Z</time>
      </trkpt>
      <trkpt lat="52.36145833333333" lon="4.886961666666666">
        <ele>10.13611122931546</ele>
        <time>2024-08-23T21:26:05.559Z</time>
      </trkpt>
      <trkpt lat="52.361238333333326" lon="4.886816666666666">
        <ele>4.435952127369127</ele>
        <time>2024-08-23T21:26:38.598Z</time>
      </trkpt>
      <trkpt lat="52.36119" lon="4.8869">
        <ele>-0.06397538616179332</ele>
        <time>2024-08-23T21:27:15.558Z</time>
      </trkpt>
      <trkpt lat="52.361036666666664" lon="4.886839999999999">
        <ele>1.5359727233695182</ele>
        <time>2024-08-23T21:27:42.558Z</time>
      </trkpt>
      <trkpt lat="52.360976666666666" lon="4.886788333333333">
        <ele>1.835918843963789</ele>
        <time>2024-08-23T21:27:45.563Z</time>
      </trkpt>
      <trkpt lat="52.360915000000006" lon="4.886563333333333">
        <ele>6.935685675628662</ele>
        <time>2024-08-23T21:28:01.558Z</time>
      </trkpt>
      <trkpt lat="52.360958333333336" lon="4.886603333333333">
        <ele>5.735719467668069</ele>
        <time>2024-08-23T21:28:09.561Z</time>
      </trkpt>
      <trkpt lat="52.360905" lon="4.886666666666667">
        <ele>6.035721222693319</ele>
        <time>2024-08-23T21:28:27.571Z</time>
      </trkpt>
      <trkpt lat="52.36072833333333" lon="4.886480000000001">
        <ele>6.235602731445681</ele>
        <time>2024-08-23T21:28:46.562Z</time>
      </trkpt>
      <trkpt lat="52.360788333333325" lon="4.886433333333333">
        <ele>7.635554137363528</ele>
        <time>2024-08-23T21:29:00.559Z</time>
      </trkpt>
      <trkpt lat="52.36077" lon="4.886375">
        <ele>7.335486122950179</ele>
        <time>2024-08-23T21:29:07.555Z</time>
      </trkpt>
      <trkpt lat="52.360616666666665" lon="4.886208333333333">
        <ele>0.9353103744263009</ele>
        <time>2024-08-23T21:29:31.565Z</time>
      </trkpt>
      <trkpt lat="52.36056166666667" lon="4.88626">
        <ele>0.23535042301899267</ele>
        <time>2024-08-23T21:30:07.566Z</time>
      </trkpt>
      <trkpt lat="52.36058166666667" lon="4.886231666666667">
        <ele>-0.1646479711327018</ele>
        <time>2024-08-23T21:30:30.562Z</time>
      </trkpt>
      <trkpt lat="52.360485000000004" lon="4.886048333333333">
        <ele>2.2351540870223374</ele>
        <time>2024-08-23T21:30:43.562Z</time>
      </trkpt>
      <trkpt lat="52.36052333333334" lon="4.8858749999999995">
        <ele>6.334986857790568</ele>
        <time>2024-08-23T21:31:08.566Z</time>
      </trkpt>
      <trkpt lat="52.36045000000001" lon="4.885866666666667">
        <ele>6.634972013458011</ele>
        <time>2024-08-23T21:31:41.569Z</time>
      </trkpt>
      <trkpt lat="52.36035833333334" lon="4.885696666666666">
        <ele>6.634794341661788</ele>
        <time>2024-08-23T21:32:13.568Z</time>
      </trkpt>
      <trkpt lat="52.36058500000001" lon="4.885721666666667">
        <ele>6.134841131736692</ele>
        <time>2024-08-23T21:32:56.569Z</time>
      </trkpt>
      <trkpt lat="52.36122833333334" lon="4.8844">
        <ele>8.933624043220782</ele>
        <time>2024-08-23T21:35:11.559Z</time>
      </trkpt>
      <trkpt lat="52.36137999999999" lon="4.884291666666667">
        <ele>7.533532856371288</ele>
        <time>2024-08-23T21:35:39.555Z</time>
      </trkpt>
      <trkpt lat="52.36148" lon="4.884078333333333">
        <ele>4.433347320631697</ele>
        <time>2024-08-23T21:35:58.582Z</time>
      </trkpt>
      <trkpt lat="52.36158999999999" lon="4.8837649999999995">
        <ele>5.433046066714546</ele>
        <time>2024-08-23T21:36:21.573Z</time>
      </trkpt>
      <trkpt lat="52.361646666666665" lon="4.88339">
        <ele>3.2326963124129477</ele>
        <time>2024-08-23T21:36:50.596Z</time>
      </trkpt>
      <trkpt lat="52.36165333333334" lon="4.882473333333333">
        <ele>0.9318110431640108</ele>
        <time>2024-08-23T21:37:50.599Z</time>
      </trkpt>
      <trkpt lat="52.361801666666665" lon="4.8824483333333335">
        <ele>3.131797571606924</ele>
        <time>2024-08-23T21:38:11.612Z</time>
      </trkpt>
      <trkpt lat="52.36182333333333" lon="4.882273333333333">
        <ele>0.5316429334591817</ele>
        <time>2024-08-23T21:38:22.594Z</time>
      </trkpt>
      <trkpt lat="52.361895000000004" lon="4.882176666666667">
        <ele>0.43154639035099507</ele>
        <time>2024-08-23T21:38:31.595Z</time>
      </trkpt>
      <trkpt lat="52.36197333333333" lon="4.882203333333334">
        <ele>1.831569343226782</ele>
        <time>2024-08-23T21:38:42.611Z</time>
      </trkpt>
      <trkpt lat="52.36214" lon="4.882455">
        <ele>4.831826535212265</ele>
        <time>2024-08-23T21:39:08.614Z</time>
      </trkpt>
      <trkpt lat="52.362231666666666" lon="4.882371666666667">
        <ele>5.731755668904974</ele>
        <time>2024-08-23T21:39:21.579Z</time>
      </trkpt>
      <trkpt lat="52.36223" lon="4.882456666666667">
        <ele>5.931839134490815</ele>
        <time>2024-08-23T21:39:32.582Z</time>
      </trkpt>
      <trkpt lat="52.362245" lon="4.882386666666666">
        <ele>7.231769977842362</ele>
        <time>2024-08-23T21:39:48.582Z</time>
      </trkpt>
      <trkpt lat="52.362298333333335" lon="4.882688333333333">
        <ele>7.832055433890808</ele>
        <time>2024-08-23T21:41:00.604Z</time>
      </trkpt>
      <trkpt lat="52.36238166666667" lon="4.882758333333333">
        <ele>7.532138078411954</ele>
        <time>2024-08-23T21:41:14.596Z</time>
      </trkpt>
      <trkpt lat="52.362525000000005" lon="4.883035">
        <ele>9.83241734791919</ele>
        <time>2024-08-23T21:41:53.573Z</time>
      </trkpt>
      <trkpt lat="52.362525000000005" lon="4.883375">
        <ele>9.332742097446982</ele>
        <time>2024-08-23T21:42:11.562Z</time>
      </trkpt>
      <trkpt lat="52.3628" lon="4.883233333333334">
        <ele>12.532642559007378</ele>
        <time>2024-08-23T21:42:39.575Z</time>
      </trkpt>
      <trkpt lat="52.362845" lon="4.883381666666667">
        <ele>11.032774544867486</ele>
        <time>2024-08-23T21:42:48.562Z</time>
      </trkpt>
      <trkpt lat="52.36293833333334" lon="4.883395">
        <ele>10.432797495396933</ele>
        <time>2024-08-23T21:43:13.604Z</time>
      </trkpt>
      <trkpt lat="52.36325" lon="4.883208333333333">
        <ele>5.832652853385845</ele>
        <time>2024-08-23T21:43:48.607Z</time>
      </trkpt>
      <trkpt lat="52.363703333333326" lon="4.88269">
        <ele>6.432202501452458</ele>
        <time>2024-08-23T21:44:45.555Z</time>
      </trkpt>
      <trkpt lat="52.363706666666666" lon="4.88259">
        <ele>5.33209886102491</ele>
        <time>2024-08-23T21:45:07.594Z</time>
      </trkpt>
      <trkpt lat="52.36384833333333" lon="4.882618333333333">
        <ele>4.432130410961683</ele>
        <time>2024-08-23T21:45:20.591Z</time>
      </trkpt>
      <trkpt lat="52.36397333333333" lon="4.882831666666666">
        <ele>5.032340203798476</ele>
        <time>2024-08-23T21:45:39.586Z</time>
      </trkpt>
      <trkpt lat="52.364348333333325" lon="4.88316">
        <ele>6.732701155380816</ele>
        <time>2024-08-23T21:46:29.592Z</time>
      </trkpt>
      <trkpt lat="52.364761666666666" lon="4.88248">
        <ele>5.432093743061699</ele>
        <time>2024-08-23T21:47:36.578Z</time>
      </trkpt>
      <trkpt lat="52.36521833333333" lon="4.881896666666666">
        <ele>1.6315615763697124</ele>
        <time>2024-08-23T21:48:44.582Z</time>
      </trkpt>
      <trkpt lat="52.36525166666667" lon="4.881749999999999">
        <ele>4.43143264558838</ele>
        <time>2024-08-23T21:48:52.584Z</time>
      </trkpt>
      <trkpt lat="52.36533666666666" lon="4.881746666666667">
        <ele>4.831423410962081</ele>
        <time>2024-08-23T21:48:58.584Z</time>
      </trkpt>
      <trkpt lat="52.365404999999996" lon="4.8816733333333335">
        <ele>5.831362346635707</ele>
        <time>2024-08-23T21:49:06.598Z</time>
      </trkpt>
      <trkpt lat="52.36547666666667" lon="4.881538333333333">
        <ele>7.2312396720371055</ele>
        <time>2024-08-23T21:49:15.573Z</time>
      </trkpt>
      <trkpt lat="52.36551833333333" lon="4.881308333333333">
        <ele>7.631037000738111</ele>
        <time>2024-08-23T21:49:30.588Z</time>
      </trkpt>
      <trkpt lat="52.36542666666666" lon="4.881026666666667">
        <ele>7.830748151396229</ele>
        <time>2024-08-23T21:49:52.569Z</time>
      </trkpt>
      <trkpt lat="52.36554666666666" lon="4.880986666666667">
        <ele>7.630714645494173</ele>
        <time>2024-08-23T21:50:05.558Z</time>
      </trkpt>
      <trkpt lat="52.36552333333334" lon="4.880861666666666">
        <ele>8.430589841894381</ele>
        <time>2024-08-23T21:50:23.552Z</time>
      </trkpt>
      <trkpt lat="52.36597" lon="4.880566666666667">
        <ele>11.030351252666172</ele>
        <time>2024-08-23T21:51:40.579Z</time>
      </trkpt>
      <trkpt lat="52.366106666666674" lon="4.880703333333333">
        <ele>11.630480905542647</ele>
        <time>2024-08-23T21:52:07.565Z</time>
      </trkpt>
      <trkpt lat="52.366501666666665" lon="4.881928333333334">
        <ele>6.331674262868077</ele>
        <time>2024-08-23T21:53:32.581Z</time>
      </trkpt>
      <trkpt lat="52.36655166666666" lon="4.882213333333333">
        <ele>2.1319762480338724</ele>
        <time>2024-08-23T21:53:55.099Z</time>
      </trkpt>
      <trkpt lat="52.368784999999995" lon="4.8823766666666675">
        <ele>7.1622125037020385</ele>
        <time>2024-08-23T21:59:42.062Z</time>
      </trkpt>
      <trkpt lat="52.36886833333333" lon="4.882303333333333">
        <ele>8.632270188222442</ele>
        <time>2024-08-23T22:00:37.559Z</time>
      </trkpt>
      <trkpt lat="52.36891166666666" lon="4.882511666666666">
        <ele>7.532459078151966</ele>
        <time>2024-08-23T22:01:10.572Z</time>
      </trkpt>
      <trkpt lat="52.36890833333334" lon="4.882586666666667">
        <ele>6.13254399102366</ele>
        <time>2024-08-23T22:01:16.568Z</time>
      </trkpt>
      <trkpt lat="52.36886500000001" lon="4.88311">
        <ele>6.13302590272518</ele>
        <time>2024-08-23T22:02:36.582Z</time>
      </trkpt>
      <trkpt lat="52.36893166666667" lon="4.883226666666667">
        <ele>5.133152104862013</ele>
        <time>2024-08-23T22:02:48.578Z</time>
      </trkpt>
      <trkpt lat="52.36890166666667" lon="4.883295">
        <ele>3.033212647567005</ele>
        <time>2024-08-23T22:02:55.568Z</time>
      </trkpt>
      <trkpt lat="52.36887333333334" lon="4.8846316666666665">
        <ele>3.6344961917827945</ele>
        <time>2024-08-23T22:04:52.579Z</time>
      </trkpt>
      <trkpt lat="52.36884499999999" lon="4.884593333333333">
        <ele>3.434481590114679</ele>
        <time>2024-08-23T22:05:11.565Z</time>
      </trkpt>
      <trkpt lat="52.36879833333334" lon="4.884746666666667">
        <ele>6.4345993336542335</ele>
        <time>2024-08-23T22:05:19.559Z</time>
      </trkpt>
      <trkpt lat="52.368835000000004" lon="4.88502">
        <ele>6.334881789495618</ele>
        <time>2024-08-23T22:06:15.578Z</time>
      </trkpt>
      <trkpt lat="52.36878" lon="4.885958333333334">
        <ele>10.13577339933537</ele>
        <time>2024-08-23T22:07:21.598Z</time>
      </trkpt>
      <trkpt lat="52.36880833333333" lon="4.8864116666666675">
        <ele>7.536219456111155</ele>
        <time>2024-08-23T22:07:53.599Z</time>
      </trkpt>
      <trkpt lat="52.36879333333333" lon="4.886781666666667">
        <ele>9.836556312631934</ele>
        <time>2024-08-23T22:08:44.575Z</time>
      </trkpt>
      <trkpt lat="52.36872666666667" lon="4.887058333333333">
        <ele>10.13682592624059</ele>
        <time>2024-08-23T22:09:21.558Z</time>
      </trkpt>
      <trkpt lat="52.36877333333334" lon="4.8872583333333335">
        <ele>10.337025731040065</ele>
        <time>2024-08-23T22:09:33.559Z</time>
      </trkpt>
      <trkpt lat="52.368765" lon="4.887866666666667">
        <ele>12.13762554511176</ele>
        <time>2024-08-23T22:10:31.565Z</time>
      </trkpt>
      <trkpt lat="52.36876" lon="4.8876816666666665">
        <ele>8.837475293939761</ele>
        <time>2024-08-23T22:10:53.555Z</time>
      </trkpt>
      <trkpt lat="52.36872333333334" lon="4.887655">
        <ele>10.637422635895774</ele>
        <time>2024-08-23T22:11:02.561Z</time>
      </trkpt>
      <trkpt lat="52.368743333333335" lon="4.888078333333333">
        <ele>9.237823359133877</ele>
        <time>2024-08-23T22:11:40.604Z</time>
      </trkpt>
      <trkpt lat="52.36878333333334" lon="4.888355000000001">
        <ele>7.138082769540077</ele>
        <time>2024-08-23T22:12:05.601Z</time>
      </trkpt>
      <trkpt lat="52.368885" lon="4.888621666666666">
        <ele>7.238361798324583</ele>
        <time>2024-08-23T22:12:30.615Z</time>
      </trkpt>
      <trkpt lat="52.36885333333333" lon="4.88876">
        <ele>8.938494674308203</ele>
        <time>2024-08-23T22:12:40.559Z</time>
      </trkpt>
      <trkpt lat="52.36891833333334" lon="4.888746666666666">
        <ele>13.838487935864158</ele>
        <time>2024-08-23T22:12:49.562Z</time>
      </trkpt>
      <trkpt lat="52.36899333333334" lon="4.888845">
        <ele>21.73857807110312</ele>
        <time>2024-08-23T22:13:06.559Z</time>
      </trkpt>
      <trkpt lat="52.36960666666667" lon="4.888986666666667">
        <ele>13.038786049663344</ele>
        <time>2024-08-23T22:14:25.566Z</time>
      </trkpt>
      <trkpt lat="52.369609999999994" lon="4.889086666666667">
        <ele>10.438849722908948</ele>
        <time>2024-08-23T22:14:41.555Z</time>
      </trkpt>
      <trkpt lat="52.370135" lon="4.8892516666666666">
        <ele>11.039082293203904</ele>
        <time>2024-08-23T22:15:43.581Z</time>
      </trkpt>
      <trkpt lat="52.37021333333334" lon="4.889121666666667">
        <ele>11.43897246099479</ele>
        <time>2024-08-23T22:16:18.572Z</time>
      </trkpt>
      <trkpt lat="52.370556666666666" lon="4.8892283333333335">
        <ele>14.33909191678999</ele>
        <time>2024-08-23T22:16:45.599Z</time>
      </trkpt>
      <trkpt lat="52.370576666666665" lon="4.889608333333333">
        <ele>11.339436108380902</ele>
        <time>2024-08-23T22:16:53.558Z</time>
      </trkpt>
      <trkpt lat="52.370476666666676" lon="4.889740000000001">
        <ele>8.539559583027739</ele>
        <time>2024-08-23T22:17:11.559Z</time>
      </trkpt>
      <trkpt lat="52.37057166666667" lon="4.8898866666666665">
        <ele>5.73972779138807</ele>
        <time>2024-08-23T22:17:32.575Z</time>
      </trkpt>
      <trkpt lat="52.370535000000004" lon="4.890011666666666">
        <ele>3.839848165616523</ele>
        <time>2024-08-23T22:17:43.558Z</time>
      </trkpt>
      <trkpt lat="52.37055166666667" lon="4.89013">
        <ele>3.6399417356842534</ele>
        <time>2024-08-23T22:17:53.561Z</time>
      </trkpt>
      <trkpt lat="52.37067833333334" lon="4.890266666666666">
        <ele>3.0401130221021972</ele>
        <time>2024-08-23T22:18:09.562Z</time>
      </trkpt>
      <trkpt lat="52.37058666666667" lon="4.890275">
        <ele>2.3401074853778</ele>
        <time>2024-08-23T22:18:22.562Z</time>
      </trkpt>
      <trkpt lat="52.370576666666665" lon="4.8904483333333335">
        <ele>1.54025876804792</ele>
        <time>2024-08-23T22:18:31.575Z</time>
      </trkpt>
      <trkpt lat="52.37064333333333" lon="4.890666666666666">
        <ele>3.240481794354274</ele>
        <time>2024-08-23T22:18:46.605Z</time>
      </trkpt>
      <trkpt lat="52.370655000000006" lon="4.890916666666667">
        <ele>5.040731211153556</ele>
        <time>2024-08-23T22:19:06.596Z</time>
      </trkpt>
      <trkpt lat="52.37069833333333" lon="4.890923333333333">
        <ele>5.0407623983611245</ele>
        <time>2024-08-23T22:19:13.563Z</time>
      </trkpt>
      <trkpt lat="52.37072833333333" lon="4.891073333333334">
        <ele>10.040862723799542</ele>
        <time>2024-08-23T22:19:21.556Z</time>
      </trkpt>
      <trkpt lat="52.37069666666666" lon="4.891075">
        <ele>9.540891874924185</ele>
        <time>2024-08-23T22:19:25.566Z</time>
      </trkpt>
      <trkpt lat="52.37074833333333" lon="4.891181666666666">
        <ele>8.740991908102792</ele>
        <time>2024-08-23T22:19:35.601Z</time>
      </trkpt>
      <trkpt lat="52.37073333333333" lon="4.891353333333333">
        <ele>7.641144392294208</ele>
        <time>2024-08-23T22:19:45.598Z</time>
      </trkpt>
      <trkpt lat="52.370791666666676" lon="4.891533333333333">
        <ele>5.641332177147255</ele>
        <time>2024-08-23T22:19:58.598Z</time>
      </trkpt>
      <trkpt lat="52.370761666666674" lon="4.891766666666666">
        <ele>5.141520858554841</ele>
        <time>2024-08-23T22:20:25.571Z</time>
      </trkpt>
      <trkpt lat="52.37079000000001" lon="4.8918099999999995">
        <ele>9.74161637117301</ele>
        <time>2024-08-23T22:20:37.562Z</time>
      </trkpt>
      <trkpt lat="52.37072666666666" lon="4.891846666666667">
        <ele>9.941652705742982</ele>
        <time>2024-08-23T22:20:52.563Z</time>
      </trkpt>
      <trkpt lat="52.370736666666666" lon="4.891748333333334">
        <ele>6.74155191792476</ele>
        <time>2024-08-23T22:21:02.559Z</time>
      </trkpt>
      <trkpt lat="52.37055999999999" lon="4.891661666666667">
        <ele>4.941453048988997</ele>
        <time>2024-08-23T22:21:13.092Z</time>
      </trkpt>
      <trkpt lat="52.370766401732084" lon="4.891966624897151">
        <ele>11.900429577148401</ele>
        <time>2024-08-23T22:21:28.968Z</time>
      </trkpt>
      <trkpt lat="52.370734999999996" lon="4.892341666666667">
        <ele>11.98388151018196</ele>
        <time>2024-08-23T22:21:42.169Z</time>
      </trkpt>
      <trkpt lat="52.37059333333333" lon="4.892308333333333">
        <ele>-1.1579146745152897</ele>
        <time>2024-08-23T22:23:05.578Z</time>
      </trkpt>
      <trkpt lat="52.37058333333333" lon="4.892528333333333">
        <ele>1.6422479490571362</ele>
        <time>2024-08-23T22:23:38.562Z</time>
      </trkpt>
      <trkpt lat="52.37062666666667" lon="4.892568333333333">
        <ele>2.74232238218746</ele>
        <time>2024-08-23T22:23:49.589Z</time>
      </trkpt>
      <trkpt lat="52.370595" lon="4.89282">
        <ele>2.242574390691189</ele>
        <time>2024-08-23T22:24:07.588Z</time>
      </trkpt>
      <trkpt lat="52.37081833333333" lon="4.892871666666666">
        <ele>2.7426454878487405</ele>
        <time>2024-08-23T22:24:30.578Z</time>
      </trkpt>
      <trkpt lat="52.370881666666676" lon="4.892978333333334">
        <ele>3.542747042422029</ele>
        <time>2024-08-23T22:24:44.601Z</time>
      </trkpt>
      <trkpt lat="52.37145166666666" lon="4.893133333333334">
        <ele>9.942951946728456</ele>
        <time>2024-08-23T22:26:00.556Z</time>
      </trkpt>
      <trkpt lat="52.37179833333333" lon="4.893163333333334">
        <ele>9.043010991911984</ele>
        <time>2024-08-23T22:26:36.612Z</time>
      </trkpt>
      <trkpt lat="52.37178833333334" lon="4.893065">
        <ele>10.64293887826097</ele>
        <time>2024-08-23T22:26:42.588Z</time>
      </trkpt>
      <trkpt lat="52.37183333333334" lon="4.893026666666667">
        <ele>13.942890797894343</ele>
        <time>2024-08-23T22:26:49.601Z</time>
      </trkpt>
      <trkpt lat="52.37224666666666" lon="4.89304">
        <ele>25.74293585637492</ele>
        <time>2024-08-23T22:27:41.614Z</time>
      </trkpt>
      <trkpt lat="52.37223666666667" lon="4.8932850000000006">
        <ele>24.74315017144866</ele>
        <time>2024-08-23T22:27:54.608Z</time>
      </trkpt>
      <trkpt lat="52.37242833333333" lon="4.8934050000000004">
        <ele>17.743297602090614</ele>
        <time>2024-08-23T22:28:12.565Z</time>
      </trkpt>
      <trkpt lat="52.37236666666666" lon="4.893371666666667">
        <ele>18.943269762599776</ele>
        <time>2024-08-23T22:28:21.566Z</time>
      </trkpt>
      <trkpt lat="52.372355" lon="4.893420000000001">
        <ele>18.943303041998455</ele>
        <time>2024-08-23T22:28:26.558Z</time>
      </trkpt>
      <trkpt lat="52.37245500000001" lon="4.893508333333333">
        <ele>17.1434003631355</ele>
        <time>2024-08-23T22:28:56.598Z</time>
      </trkpt>
      <trkpt lat="52.372493333333324" lon="4.893466666666667">
        <ele>14.343367516309705</ele>
        <time>2024-08-23T22:28:59.607Z</time>
      </trkpt>
      <trkpt lat="52.372620000000005" lon="4.893509999999999">
        <ele>6.043414249963696</ele>
        <time>2024-08-23T22:29:42.558Z</time>
      </trkpt>
      <trkpt lat="52.37267833333333" lon="4.893751666666667">
        <ele>3.943654976047874</ele>
        <time>2024-08-23T22:30:02.565Z</time>
      </trkpt>
      <trkpt lat="52.372751666666666" lon="4.893531666666666">
        <ele>3.0434681630534968</ele>
        <time>2024-08-23T22:30:22.558Z</time>
      </trkpt>
      <trkpt lat="52.372809999999994" lon="4.8935">
        <ele>5.143429438486443</ele>
        <time>2024-08-23T22:30:47.563Z</time>
      </trkpt>
      <trkpt lat="52.372910000000005" lon="4.893548333333333">
        <ele>6.443478667042633</ele>
        <time>2024-08-23T22:31:28.559Z</time>
      </trkpt>
      <trkpt lat="52.37294166666667" lon="4.893636666666667">
        <ele>5.043570440727663</ele>
        <time>2024-08-23T22:31:39.573Z</time>
      </trkpt>
      <trkpt lat="52.37305166666667" lon="4.893643333333333">
        <ele>5.643588879311629</ele>
        <time>2024-08-23T22:31:53.575Z</time>
      </trkpt>
      <trkpt lat="52.373181666666675" lon="4.893558333333333">
        <ele>5.543520347098209</ele>
        <time>2024-08-23T22:32:12.572Z</time>
      </trkpt>
      <trkpt lat="52.37327833333334" lon="4.8936633333333335">
        <ele>8.443623974783655</ele>
        <time>2024-08-23T22:32:30.575Z</time>
      </trkpt>
      <trkpt lat="52.373340000000006" lon="4.893516666666667">
        <ele>8.043577627126929</ele>
        <time>2024-08-23T22:32:52.555Z</time>
      </trkpt>
      <trkpt lat="52.373396666666665" lon="4.89358">
        <ele>10.143559986281836</ele>
        <time>2024-08-23T22:33:04.575Z</time>
      </trkpt>
      <trkpt lat="52.37342666666667" lon="4.8934050000000004">
        <ele>9.643404536589792</ele>
        <time>2024-08-23T22:33:17.575Z</time>
      </trkpt>
      <trkpt lat="52.37357166666667" lon="4.893126666666667">
        <ele>5.243143007615899</ele>
        <time>2024-08-23T22:33:41.601Z</time>
      </trkpt>
      <trkpt lat="52.37358166666666" lon="4.8930050000000005">
        <ele>6.543032735760242</ele>
        <time>2024-08-23T22:33:47.601Z</time>
      </trkpt>
      <trkpt lat="52.37368166666667" lon="4.892958333333333">
        <ele>4.942981946692285</ele>
        <time>2024-08-23T22:33:56.601Z</time>
      </trkpt>
      <trkpt lat="52.37375166666667" lon="4.892861666666667">
        <ele>3.942892299295586</ele>
        <time>2024-08-23T22:34:04.612Z</time>
      </trkpt>
      <trkpt lat="52.373731666666664" lon="4.892825">
        <ele>5.142860636653438</ele>
        <time>2024-08-23T22:34:11.605Z</time>
      </trkpt>
      <trkpt lat="52.374314999999996" lon="4.893463333333333">
        <ele>12.043512184168073</ele>
        <time>2024-08-23T22:35:29.579Z</time>
      </trkpt>
      <trkpt lat="52.374276666666674" lon="4.893283333333333">
        <ele>14.143356888784652</ele>
        <time>2024-08-23T22:35:44.581Z</time>
      </trkpt>
      <trkpt lat="52.374476666666666" lon="4.893583333333334">
        <ele>12.043642589399987</ele>
        <time>2024-08-23T22:36:13.575Z</time>
      </trkpt>
      <trkpt lat="52.374449999999996" lon="4.893633333333334">
        <ele>11.943704785763266</ele>
        <time>2024-08-23T22:36:21.568Z</time>
      </trkpt>
      <trkpt lat="52.37506666666666" lon="4.89455">
        <ele>-3.3553747128521465</ele>
        <time>2024-08-23T22:38:11.562Z</time>
      </trkpt>
      <trkpt lat="52.37501166666666" lon="4.894818333333333">
        <ele>-5.555108958335438</ele>
        <time>2024-08-23T22:38:21.659Z</time>
      </trkpt>
      <trkpt lat="52.37474333333333" lon="4.894593333333333">
        <ele>9.961810980006677</ele>
        <time>2024-08-23T22:38:39.323Z</time>
      </trkpt>
      <trkpt lat="52.37486666666667" lon="4.8945549999999995">
        <ele>-17.155366490669365</ele>
        <time>2024-08-23T22:39:17.611Z</time>
      </trkpt>
      <trkpt lat="52.37477166666666" lon="4.894285">
        <ele>-19.155633299803455</ele>
        <time>2024-08-23T22:39:30.607Z</time>
      </trkpt>
      <trkpt lat="52.375049999999995" lon="4.89473">
        <ele>-10.255207281430515</ele>
        <time>2024-08-23T22:40:03.605Z</time>
      </trkpt>
      <trkpt lat="52.37509333333334" lon="4.8946966666666665">
        <ele>-9.755211278325554</ele>
        <time>2024-08-23T22:40:09.604Z</time>
      </trkpt>
      <trkpt lat="52.375679999999996" lon="4.895276666666668">
        <ele>1.1453978376475433</ele>
        <time>2024-08-23T22:41:07.608Z</time>
      </trkpt>
      <trkpt lat="52.375814999999996" lon="4.895165">
        <ele>8.245285460268441</ele>
        <time>2024-08-23T22:41:48.553Z</time>
      </trkpt>
      <trkpt lat="52.37624000000001" lon="4.895846666666667">
        <ele>8.14598685645673</ele>
        <time>2024-08-23T22:43:13.585Z</time>
      </trkpt>
      <trkpt lat="52.37659" lon="4.896298333333333">
        <ele>0.7464584117520161</ele>
        <time>2024-08-23T22:44:02.575Z</time>
      </trkpt>
      <trkpt lat="52.377008333333336" lon="4.896673333333334">
        <ele>11.246859790088187</ele>
        <time>2024-08-23T22:44:54.595Z</time>
      </trkpt>
      <trkpt lat="52.37710833333334" lon="4.896683333333333">
        <ele>10.24688656690661</ele>
        <time>2024-08-23T22:45:05.563Z</time>
      </trkpt>
      <trkpt lat="52.37713166666667" lon="4.896755">
        <ele>15.046957176029508</ele>
        <time>2024-08-23T22:46:19.555Z</time>
      </trkpt>
      <trkpt lat="52.377145000000006" lon="4.8966883333333335">
        <ele>15.2469029765182</ele>
        <time>2024-08-23T22:46:31.571Z</time>
      </trkpt>
      <trkpt lat="52.377113333333334" lon="4.8967583333333335">
        <ele>14.746952056539314</ele>
        <time>2024-08-23T22:46:45.586Z</time>
      </trkpt>
      <trkpt lat="52.37722166666667" lon="4.897">
        <ele>15.647178579027958</ele>
        <time>2024-08-23T22:46:58.601Z</time>
      </trkpt>
      <trkpt lat="52.37760166666667" lon="4.897535">
        <ele>15.547723029837279</ele>
        <time>2024-08-23T22:47:37.569Z</time>
      </trkpt>
      <trkpt lat="52.377179999999996" lon="4.8981916666666665">
        <ele>6.848353866707804</ele>
        <time>2024-08-23T22:48:40.608Z</time>
      </trkpt>
      <trkpt lat="52.37764166666666" lon="4.898908333333334">
        <ele>6.449083929730456</ele>
        <time>2024-08-23T22:49:55.584Z</time>
      </trkpt>
      <trkpt lat="52.37767999999999" lon="4.899073333333333">
        <ele>7.049240699876535</ele>
        <time>2024-08-23T22:50:11.563Z</time>
      </trkpt>
      <trkpt lat="52.37762333333333" lon="4.899206666666667">
        <ele>6.549375341405138</ele>
        <time>2024-08-23T22:50:21.565Z</time>
      </trkpt>
      <trkpt lat="52.37783833333333" lon="4.899278333333333">
        <ele>5.949458094221399</ele>
        <time>2024-08-23T22:51:09.176Z</time>
      </trkpt>
      <trkpt lat="52.377921666666666" lon="4.899631666666666">
        <ele>1.9717916594955862</ele>
        <time>2024-08-23T22:51:59.352Z</time>
      </trkpt>
      <trkpt lat="52.378144999999996" lon="4.9000916666666665">
        <ele>-1.3497501634997562</ele>
        <time>2024-08-23T22:52:45.599Z</time>
      </trkpt>
      <trkpt lat="52.37808333333334" lon="4.900156666666668">
        <ele>-1.0496553231394188</ele>
        <time>2024-08-23T22:52:51.569Z</time>
      </trkpt>
      <trkpt lat="52.37904833333334" lon="4.900774999999999">
        <ele>-1.0496595795662955</ele>
        <time>2024-08-23T22:56:02.631Z</time>
      </trkpt>
      <trkpt lat="52.379073333333324" lon="4.90069">
        <ele>-37.74897505868583</ele>
        <time>2024-08-23T22:56:03.601Z</time>
      </trkpt>
      <trkpt lat="52.37918166666667" lon="4.900738333333334">
        <ele>-39.44905536677038</ele>
        <time>2024-08-23T22:56:04.595Z</time>
      </trkpt>
      <trkpt lat="52.37908833333333" lon="4.90069">
        <ele>-30.448998980755576</ele>
        <time>2024-08-23T22:56:05.594Z</time>
      </trkpt>
      <trkpt lat="52.37945666666666" lon="4.900791666666667">
        <ele>24.351068172494962</ele>
        <time>2024-08-23T22:56:12.596Z</time>
      </trkpt>
      <trkpt lat="52.379560000000005" lon="4.900905">
        <ele>17.551165581862747</ele>
        <time>2024-08-23T22:56:16.609Z</time>
      </trkpt>
      <trkpt lat="52.379523333333324" lon="4.901045">
        <ele>44.95131223452195</ele>
        <time>2024-08-23T22:56:23.559Z</time>
      </trkpt>
      <trkpt lat="52.37963166666667" lon="4.90116">
        <ele>36.85143864500796</ele>
        <time>2024-08-23T22:56:37.595Z</time>
      </trkpt>
      <trkpt lat="52.379783333333336" lon="4.90116">
        <ele>35.05146131931548</ele>
        <time>2024-08-23T22:56:44.575Z</time>
      </trkpt>
      <trkpt lat="52.379859999999994" lon="4.900938333333333">
        <ele>29.251270611938246</ele>
        <time>2024-08-23T22:56:55.595Z</time>
      </trkpt>
      <trkpt lat="52.379806666666674" lon="4.900825">
        <ele>26.251155193315242</ele>
        <time>2024-08-23T22:57:03.611Z</time>
      </trkpt>
      <trkpt lat="52.379655" lon="4.900733333333333">
        <ele>25.15104149872699</ele>
        <time>2024-08-23T22:57:13.607Z</time>
      </trkpt>
      <trkpt lat="52.37964166666667" lon="4.900655">
        <ele>23.85097313291127</ele>
        <time>2024-08-23T22:57:18.608Z</time>
      </trkpt>
      <trkpt lat="52.379581666666674" lon="4.900684999999999">
        <ele>20.750978472667796</ele>
        <time>2024-08-23T22:57:30.588Z</time>
      </trkpt>
      <trkpt lat="52.379581666666674" lon="4.900736666666667">
        <ele>19.751031275673746</ele>
        <time>2024-08-23T22:57:37.611Z</time>
      </trkpt>
      <trkpt lat="52.37961166666667" lon="4.900646666666667">
        <ele>19.55099566898521</ele>
        <time>2024-08-23T22:57:40.602Z</time>
      </trkpt>
      <trkpt lat="52.37985333333333" lon="4.90051">
        <ele>16.55086251448016</ele>
        <time>2024-08-23T22:57:50.601Z</time>
      </trkpt>
      <trkpt lat="52.37992333333333" lon="4.9002783333333335">
        <ele>11.85064079034509</ele>
        <time>2024-08-23T22:58:00.598Z</time>
      </trkpt>
      <trkpt lat="52.379896666666674" lon="4.900201666666666">
        <ele>8.950539767121839</ele>
        <time>2024-08-23T22:58:12.596Z</time>
      </trkpt>
      <trkpt lat="52.37994833333334" lon="4.900156666666668">
        <ele>9.85051089945248</ele>
        <time>2024-08-23T22:58:25.555Z</time>
      </trkpt>
      <trkpt lat="52.380086666666664" lon="4.89971">
        <ele>5.650094419392154</ele>
        <time>2024-08-23T22:58:46.594Z</time>
      </trkpt>
      <trkpt lat="52.38010333333333" lon="4.899356666666667">
        <ele>-3.7502447016258103</ele>
        <time>2024-08-23T22:59:12.602Z</time>
      </trkpt>
      <trkpt lat="52.380255000000005" lon="4.899108333333333">
        <ele>-9.750475009823333</ele>
        <time>2024-08-23T22:59:27.604Z</time>
      </trkpt>
      <trkpt lat="52.38036666666667" lon="4.899055000000001">
        <ele>-9.750515167240387</ele>
        <time>2024-08-23T22:59:41.594Z</time>
      </trkpt>
      <trkpt lat="52.38027833333334" lon="4.89906">
        <ele>-9.750528001980854</ele>
        <time>2024-08-23T22:59:53.598Z</time>
      </trkpt>
      <trkpt lat="52.37803833333334" lon="4.896903333333334">
        <ele>79.5471941306782</ele>
        <time>2024-08-23T23:00:42.604Z</time>
      </trkpt>
      <trkpt lat="52.378384999999994" lon="4.8967583333333335">
        <ele>78.54712512396763</ele>
        <time>2024-08-23T23:00:45.562Z</time>
      </trkpt>
      <trkpt lat="52.378328333333336" lon="4.896866666666667">
        <ele>78.84713576255228</ele>
        <time>2024-08-23T23:00:49.595Z</time>
      </trkpt>
      <trkpt lat="52.37840500000001" lon="4.897031666666667">
        <ele>78.84726291858084</ele>
        <time>2024-08-23T23:00:55.566Z</time>
      </trkpt>
      <trkpt lat="52.378375000000005" lon="4.897045">
        <ele>78.84733752120763</ele>
        <time>2024-08-23T23:00:56.562Z</time>
      </trkpt>
      <trkpt lat="52.37849166666667" lon="4.8971816666666665">
        <ele>78.84734784288143</ele>
        <time>2024-08-23T23:00:57.571Z</time>
      </trkpt>
      <trkpt lat="52.37853166666667" lon="4.897301666666666">
        <ele>78.84749049707386</ele>
        <time>2024-08-23T23:00:58.565Z</time>
      </trkpt>
      <trkpt lat="52.37852833333333" lon="4.897373333333333">
        <ele>78.0475376771143</ele>
        <time>2024-08-23T23:01:00.571Z</time>
      </trkpt>
      <trkpt lat="52.37895833333334" lon="4.897868333333333">
        <ele>69.24816232252462</ele>
        <time>2024-08-23T23:01:09.568Z</time>
      </trkpt>
      <trkpt lat="52.37902999999999" lon="4.898028333333333">
        <ele>43.948343694475135</ele>
        <time>2024-08-23T23:01:19.565Z</time>
      </trkpt>
      <trkpt lat="52.37900333333334" lon="4.898070000000001">
        <ele>11.648406162465427</ele>
        <time>2024-08-23T23:01:47.611Z</time>
      </trkpt>
      <trkpt lat="52.37898166666667" lon="4.897993333333333">
        <ele>7.248325378494613</ele>
        <time>2024-08-23T23:02:00.582Z</time>
      </trkpt>
      <trkpt lat="52.37860833333334" lon="4.8976">
        <ele>4.947911443008138</ele>
        <time>2024-08-23T23:03:09.595Z</time>
      </trkpt>
      <trkpt lat="52.378465000000006" lon="4.89757">
        <ele>5.247877510327896</ele>
        <time>2024-08-23T23:03:22.579Z</time>
      </trkpt>
      <trkpt lat="52.378326666666666" lon="4.897386666666667">
        <ele>5.947690495482462</ele>
        <time>2024-08-23T23:03:40.608Z</time>
      </trkpt>
      <trkpt lat="52.37803666666667" lon="4.897413333333334">
        <ele>3.8476745220974635</ele>
        <time>2024-08-23T23:04:09.615Z</time>
      </trkpt>
      <trkpt lat="52.37782833333334" lon="4.897530000000001">
        <ele>5.3477667012107375</ele>
        <time>2024-08-23T23:04:30.612Z</time>
      </trkpt>
      <trkpt lat="52.377833333333335" lon="4.89762">
        <ele>8.647854274497362</ele>
        <time>2024-08-23T23:04:41.562Z</time>
      </trkpt>
      <trkpt lat="52.37790666666667" lon="4.897518333333333">
        <ele>7.247771928928309</ele>
        <time>2024-08-23T23:04:49.561Z</time>
      </trkpt>
      <trkpt lat="52.37798166666666" lon="4.897516666666666">
        <ele>7.247760540593767</ele>
        <time>2024-08-23T23:04:56.559Z</time>
      </trkpt>
      <trkpt lat="52.37789333333333" lon="4.897631666666666">
        <ele>5.747860229832867</ele>
        <time>2024-08-23T23:05:14.566Z</time>
      </trkpt>
      <trkpt lat="52.37806666666667" lon="4.897835">
        <ele>2.848088371431203</ele>
        <time>2024-08-23T23:05:39.561Z</time>
      </trkpt>
      <trkpt lat="52.37801833333333" lon="4.897731666666667">
        <ele>2.547994671272029</ele>
        <time>2024-08-23T23:06:10.601Z</time>
      </trkpt>
      <trkpt lat="52.37788333333333" lon="4.897646666666667">
        <ele>4.1478874122250105</ele>
        <time>2024-08-23T23:06:25.578Z</time>
      </trkpt>
      <trkpt lat="52.37769333333334" lon="4.897953333333334">
        <ele>3.148153219550835</ele>
        <time>2024-08-23T23:06:54.596Z</time>
      </trkpt>
      <trkpt lat="52.37784499999999" lon="4.8981416666666675">
        <ele>0.14836495061985744</ele>
        <time>2024-08-23T23:07:23.561Z</time>
      </trkpt>
      <trkpt lat="52.377651666666665" lon="4.897963333333333">
        <ele>1.148179981918453</ele>
        <time>2024-08-23T23:16:15.592Z</time>
      </trkpt>
      <trkpt lat="52.37755833333334" lon="4.898103333333333">
        <ele>3.248284232393601</ele>
        <time>2024-08-23T23:16:26.608Z</time>
      </trkpt>
      <trkpt lat="52.37753333333333" lon="4.898411666666666">
        <ele>1.8485767826522377</ele>
        <time>2024-08-23T23:16:42.582Z</time>
      </trkpt>
      <trkpt lat="52.37768500000001" lon="4.898658333333334">
        <ele>2.348841739882083</ele>
        <time>2024-08-23T23:17:01.622Z</time>
      </trkpt>
      <trkpt lat="52.377696666666665" lon="4.898928333333333">
        <ele>4.649100056126137</ele>
        <time>2024-08-23T23:17:18.572Z</time>
      </trkpt>
      <trkpt lat="52.37784833333333" lon="4.899166666666666">
        <ele>4.849344191655646</ele>
        <time>2024-08-23T23:17:35.609Z</time>
      </trkpt>
      <trkpt lat="52.37800833333334" lon="4.89957">
        <ele>6.449742959011509</ele>
        <time>2024-08-23T23:18:00.608Z</time>
      </trkpt>
      <trkpt lat="52.378206666666664" lon="4.899861666666666">
        <ele>6.950045918629627</ele>
        <time>2024-08-23T23:18:20.595Z</time>
      </trkpt>
      <trkpt lat="52.37830333333333" lon="4.899941666666667">
        <ele>8.850147423088146</ele>
        <time>2024-08-23T23:18:29.608Z</time>
      </trkpt>
      <trkpt lat="52.37833666666667" lon="4.899911666666667">
        <ele>9.050126377154996</ele>
        <time>2024-08-23T23:18:36.602Z</time>
      </trkpt>
      <trkpt lat="52.37821833333334" lon="4.900158333333334">
        <ele>8.150347397703804</ele>
        <time>2024-08-23T23:19:00.575Z</time>
      </trkpt>
      <trkpt lat="52.378249999999994" lon="4.900076666666666">
        <ele>6.5502901945878165</ele>
        <time>2024-08-23T23:19:15.601Z</time>
      </trkpt>
      <trkpt lat="52.37822166666667" lon="4.8996466666666665">
        <ele>4.549873480488529</ele>
        <time>2024-08-23T23:19:35.611Z</time>
      </trkpt>
      <trkpt lat="52.37878166666666" lon="4.899001666666666">
        <ele>4.849299175217723</ele>
        <time>2024-08-23T23:20:27.601Z</time>
      </trkpt>
      <trkpt lat="52.379085" lon="4.8981916666666665">
        <ele>4.748543654322667</ele>
        <time>2024-08-23T23:21:11.592Z</time>
      </trkpt>
      <trkpt lat="52.379163333333324" lon="4.8981">
        <ele>8.348449795208523</ele>
        <time>2024-08-23T23:21:18.598Z</time>
      </trkpt>
      <trkpt lat="52.379238333333326" lon="4.898215">
        <ele>10.948550516589634</ele>
        <time>2024-08-23T23:21:31.605Z</time>
      </trkpt>
      <trkpt lat="52.37938666666667" lon="4.898303333333333">
        <ele>12.248653801063071</ele>
        <time>2024-08-23T23:21:44.605Z</time>
      </trkpt>
      <trkpt lat="52.37938166666666" lon="4.898563333333333">
        <ele>13.0488342857171</ele>
        <time>2024-08-23T23:21:55.599Z</time>
      </trkpt>
      <trkpt lat="52.38068666666666" lon="4.899238333333333">
        <ele>13.248907938671259</ele>
        <time>2024-08-23T23:22:25.601Z</time>
      </trkpt>
      <trkpt lat="52.380305" lon="4.899323333333333">
        <ele>13.249713263322427</ele>
        <time>2024-08-23T23:23:42.605Z</time>
      </trkpt>
      <trkpt lat="52.38016833333333" lon="4.899675">
        <ele>13.250036507158875</ele>
        <time>2024-08-23T23:23:53.605Z</time>
      </trkpt>
      <trkpt lat="52.380129999999994" lon="4.900025">
        <ele>11.850377002869891</ele>
        <time>2024-08-23T23:24:12.592Z</time>
      </trkpt>
      <trkpt lat="52.37985833333334" lon="4.900440000000001">
        <ele>8.850759668395845</ele>
        <time>2024-08-23T23:24:41.605Z</time>
      </trkpt>
      <trkpt lat="52.379855" lon="4.900528333333334">
        <ele>8.450849535723364</ele>
        <time>2024-08-23T23:24:50.582Z</time>
      </trkpt>
      <trkpt lat="52.380019999999995" lon="4.900323333333334">
        <ele>5.750677734400924</ele>
        <time>2024-08-23T23:25:28.609Z</time>
      </trkpt>
      <trkpt lat="52.379844999999996" lon="4.901033333333333">
        <ele>2.2512260207934034</ele>
        <time>2024-08-23T23:26:10.595Z</time>
      </trkpt>
      <trkpt lat="52.379163333333324" lon="4.902775">
        <ele>2.5528995963089685</ele>
        <time>2024-08-23T23:26:24.605Z</time>
      </trkpt>
      <trkpt lat="52.37905666666667" lon="4.902886666666667">
        <ele>2.653036893126199</ele>
        <time>2024-08-23T23:26:26.552Z</time>
      </trkpt>
      <trkpt lat="52.37895833333334" lon="4.902888333333333">
        <ele>2.8530729706491442</ele>
        <time>2024-08-23T23:26:28.573Z</time>
      </trkpt>
      <trkpt lat="52.37880499999999" lon="4.902761666666667">
        <ele>2.7529337072432227</ele>
        <time>2024-08-23T23:26:33.592Z</time>
      </trkpt>
      <trkpt lat="52.378236666666666" lon="4.90394">
        <ele>-0.04602627836300144</ele>
        <time>2024-08-23T23:26:48.604Z</time>
      </trkpt>
      <trkpt lat="52.378069999999994" lon="4.903946666666667">
        <ele>-1.1459581819779032</ele>
        <time>2024-08-23T23:26:51.611Z</time>
      </trkpt>
      <trkpt lat="52.377625" lon="4.903581666666667">
        <ele>-2.546375926708393</ele>
        <time>2024-08-23T23:27:01.723Z</time>
      </trkpt>
    </trkseg>
  </trk>
  <trk>
    <trkseg>
      <trkpt lat="52.379858383050475" lon="4.900364218810637">
        <ele>2.0277542043019583</ele>
      </trkpt>
      <trkpt lat="52.37968664617384" lon="4.900186936118558">
        <ele>3.769091613312306</ele>
      </trkpt>
      <trkpt lat="52.380084227788984" lon="4.898999912873762">
        <ele>5.25423878650289</ele>
      </trkpt>
      <trkpt lat="52.380698237333064" lon="4.899454681518904">
        <ele>0.9215643018029869</ele>
      </trkpt>
      <trkpt lat="52.382270919330125" lon="4.903228242638903">
        <ele>1.0752015296062827</ele>
      </trkpt>
      <trkpt lat="52.383402111641715" lon="4.902208707417458">
        <ele>5.759193054963423</ele>
      </trkpt>
      <trkpt lat="52.38420927662216" lon="4.904018336372644">
        <ele>7.1241039344846335</ele>
      </trkpt>
      <trkpt lat="52.383306110355534" lon="4.902024976671868">
        <ele>4.494320137799256</ele>
      </trkpt>
      <trkpt lat="52.38234022308558" lon="4.903048901371818">
        <ele>0.49801601618589475</ele>
      </trkpt>
      <trkpt lat="52.38075288130568" lon="4.89928304729321">
        <ele>0.9637618349404691</ele>
      </trkpt>
    </trkseg>
  </trk>
  <trk>
    <trkseg>
      <trkpt lat="52.378054999999996" lon="4.903911666666666">
        <ele>-5.8459976214718665</ele>
        <time>2024-08-23T15:04:44.719Z</time>
      </trkpt>
      <trkpt lat="52.377966666666666" lon="4.9037533333333325">
        <ele>22.153841860705676</ele>
        <time>2024-08-23T15:05:01.595Z</time>
      </trkpt>
      <trkpt lat="52.37754833333334" lon="4.903515">
        <ele>5.353566691583218</ele>
        <time>2024-08-23T15:05:32.588Z</time>
      </trkpt>
      <trkpt lat="52.37728666666667" lon="4.903131666666667">
        <ele>5.153181422066652</ele>
        <time>2024-08-23T15:06:01.595Z</time>
      </trkpt>
      <trkpt lat="52.377224999999996" lon="4.902965">
        <ele>7.352988599156902</ele>
        <time>2024-08-23T15:06:16.565Z</time>
      </trkpt>
      <trkpt lat="52.37722999999999" lon="4.902661666666667">
        <ele>6.652746247500282</ele>
        <time>2024-08-23T15:06:36.563Z</time>
      </trkpt>
      <trkpt lat="52.37730166666667" lon="4.902503333333333">
        <ele>7.852564648156097</ele>
        <time>2024-08-23T15:06:43.559Z</time>
      </trkpt>
      <trkpt lat="52.37727499999999" lon="4.902380000000001">
        <ele>7.252434802000053</ele>
        <time>2024-08-23T15:06:51.566Z</time>
      </trkpt>
      <trkpt lat="52.377428333333334" lon="4.902195000000001">
        <ele>7.552274679809543</ele>
        <time>2024-08-23T15:07:07.561Z</time>
      </trkpt>
      <trkpt lat="52.37745333333334" lon="4.9020600000000005">
        <ele>5.952149399507945</ele>
        <time>2024-08-23T15:07:15.628Z</time>
      </trkpt>
      <trkpt lat="52.377426666666665" lon="4.901965000000001">
        <ele>5.152045295981445</ele>
        <time>2024-08-23T15:07:22.588Z</time>
      </trkpt>
      <trkpt lat="52.37761833333334" lon="4.901303333333333">
        <ele>2.651429514443457</ele>
        <time>2024-08-23T15:08:02.601Z</time>
      </trkpt>
      <trkpt lat="52.37764666666667" lon="4.901058333333333">
        <ele>2.0511961878594605</ele>
        <time>2024-08-23T15:08:14.588Z</time>
      </trkpt>
      <trkpt lat="52.3776" lon="4.900965">
        <ele>2.751079030149576</ele>
        <time>2024-08-23T15:08:26.559Z</time>
      </trkpt>
      <trkpt lat="52.37763833333334" lon="4.900901666666667">
        <ele>4.151031830634842</ele>
        <time>2024-08-23T15:08:31.562Z</time>
      </trkpt>
      <trkpt lat="52.37761999999999" lon="4.900736666666667">
        <ele>4.150891296492269</ele>
        <time>2024-08-23T15:08:44.561Z</time>
      </trkpt>
      <trkpt lat="52.377700000000004" lon="4.900555">
        <ele>3.9507120737404975</ele>
        <time>2024-08-23T15:08:55.565Z</time>
      </trkpt>
      <trkpt lat="52.377705" lon="4.9002316666666665">
        <ele>1.8503922010095692</ele>
        <time>2024-08-23T15:09:18.591Z</time>
      </trkpt>
      <trkpt lat="52.37757833333333" lon="4.900328333333333">
        <ele>0.6504679555103365</ele>
        <time>2024-08-23T15:13:50.598Z</time>
      </trkpt>
      <trkpt lat="52.37768333333334" lon="4.900048333333333">
        <ele>11.050213915075751</ele>
        <time>2024-08-23T15:15:32.595Z</time>
      </trkpt>
      <trkpt lat="52.377506666666676" lon="4.900093333333333">
        <ele>3.6502316341569454</ele>
        <time>2024-08-23T15:17:40.601Z</time>
      </trkpt>
      <trkpt lat="52.37799166666667" lon="4.899374999999999">
        <ele>4.149583935755082</ele>
        <time>2024-08-23T15:27:20.605Z</time>
      </trkpt>
      <trkpt lat="52.37785999999999" lon="4.899248333333333">
        <ele>5.549455419779761</ele>
        <time>2024-08-23T15:27:38.595Z</time>
      </trkpt>
      <trkpt lat="52.37715333333334" lon="4.898118333333333">
        <ele>9.44828380936697</ele>
        <time>2024-08-23T15:29:18.599Z</time>
      </trkpt>
      <trkpt lat="52.37727499999999" lon="4.898015">
        <ele>6.248202786523976</ele>
        <time>2024-08-23T15:29:30.582Z</time>
      </trkpt>
      <trkpt lat="52.37751" lon="4.897648333333334">
        <ele>5.3478820538395055</ele>
        <time>2024-08-23T15:29:53.595Z</time>
      </trkpt>
      <trkpt lat="52.37728833333334" lon="4.897378333333333">
        <ele>-0.7524161173858488</ele>
        <time>2024-08-23T15:30:14.614Z</time>
      </trkpt>
      <trkpt lat="52.377268333333326" lon="4.897223333333333">
        <ele>-2.25254902679454</ele>
        <time>2024-08-23T15:30:21.573Z</time>
      </trkpt>
      <trkpt lat="52.37707" lon="4.896883333333333">
        <ele>-5.552918380122051</ele>
        <time>2024-08-23T15:30:43.568Z</time>
      </trkpt>
      <trkpt lat="52.37712666666666" lon="4.896711666666667">
        <ele>8.746919294018355</ele>
        <time>2024-08-23T15:31:05.565Z</time>
      </trkpt>
      <trkpt lat="52.37698166666667" lon="4.897118333333333">
        <ele>3.147282025086625</ele>
        <time>2024-08-23T15:31:53.559Z</time>
      </trkpt>
      <trkpt lat="52.376974999999995" lon="4.897255">
        <ele>3.947416714134377</ele>
        <time>2024-08-23T15:32:02.562Z</time>
      </trkpt>
      <trkpt lat="52.37689666666667" lon="4.8973450000000005">
        <ele>9.847509006638901</ele>
        <time>2024-08-23T15:32:13.592Z</time>
      </trkpt>
      <trkpt lat="52.377056666666675" lon="4.89707">
        <ele>1.3472760976500169</ele>
        <time>2024-08-23T15:32:38.592Z</time>
      </trkpt>
      <trkpt lat="52.377046666666665" lon="4.896813333333334">
        <ele>0.44702730824937476</ele>
        <time>2024-08-23T15:32:50.588Z</time>
      </trkpt>
      <trkpt lat="52.37707833333334" lon="4.896773333333333">
        <ele>1.2469730920807507</ele>
        <time>2024-08-23T15:32:55.607Z</time>
      </trkpt>
      <trkpt lat="52.3765" lon="4.896296666666667">
        <ele>2.246466260604265</ele>
        <time>2024-08-23T15:33:55.598Z</time>
      </trkpt>
      <trkpt lat="52.37670833333333" lon="4.896466666666667">
        <ele>-0.05336138502731558</ele>
        <time>2024-08-23T15:34:24.608Z</time>
      </trkpt>
      <trkpt lat="52.37667666666666" lon="4.896603333333333">
        <ele>-0.3532471235624186</ele>
        <time>2024-08-23T15:34:38.595Z</time>
      </trkpt>
      <trkpt lat="52.376736666666666" lon="4.896451666666667">
        <ele>-0.35322817676961193</ele>
        <time>2024-08-23T15:41:18.594Z</time>
      </trkpt>
      <trkpt lat="52.37669833333333" lon="4.896541666666667">
        <ele>4.846703967062098</ele>
        <time>2024-08-23T15:41:25.585Z</time>
      </trkpt>
      <trkpt lat="52.37707" lon="4.896768333333334">
        <ele>17.746964288279628</ele>
        <time>2024-08-23T15:42:42.586Z</time>
      </trkpt>
      <trkpt lat="52.377199999999995" lon="4.896686666666667">
        <ele>12.246900871638019</ele>
        <time>2024-08-23T15:43:04.591Z</time>
      </trkpt>
      <trkpt lat="52.37767833333334" lon="4.896161666666667">
        <ele>5.146435380545341</ele>
        <time>2024-08-23T15:44:29.563Z</time>
      </trkpt>
      <trkpt lat="52.377696666666665" lon="4.896025">
        <ele>8.346304651910685</ele>
        <time>2024-08-23T15:44:44.585Z</time>
      </trkpt>
      <trkpt lat="52.37780666666666" lon="4.89607">
        <ele>19.04635254134481</ele>
        <time>2024-08-23T15:45:16.595Z</time>
      </trkpt>
      <trkpt lat="52.37774833333333" lon="4.896138333333333">
        <ele>18.44641134714101</ele>
        <time>2024-08-23T15:45:26.611Z</time>
      </trkpt>
      <trkpt lat="52.37798333333333" lon="4.895718333333334">
        <ele>10.546040081046726</ele>
        <time>2024-08-23T15:46:13.591Z</time>
      </trkpt>
      <trkpt lat="52.37826" lon="4.895403333333333">
        <ele>9.645758306730059</ele>
        <time>2024-08-23T15:47:03.608Z</time>
      </trkpt>
      <trkpt lat="52.37818000000001" lon="4.895381666666666">
        <ele>19.24571861173029</ele>
        <time>2024-08-23T15:48:19.559Z</time>
      </trkpt>
      <trkpt lat="52.37827666666667" lon="4.895386666666667">
        <ele>18.64573329757613</ele>
        <time>2024-08-23T15:52:13.601Z</time>
      </trkpt>
      <trkpt lat="52.37818666666667" lon="4.895431666666667">
        <ele>21.645769121380376</ele>
        <time>2024-08-23T15:55:26.591Z</time>
      </trkpt>
      <trkpt lat="52.37824666666667" lon="4.89542">
        <ele>18.545767505993084</ele>
        <time>2024-08-23T15:56:21.589Z</time>
      </trkpt>
      <trkpt lat="52.37827166666666" lon="4.895506666666666">
        <ele>13.045844328922072</ele>
        <time>2024-08-23T15:56:30.594Z</time>
      </trkpt>
      <trkpt lat="52.3783" lon="4.895373333333334">
        <ele>8.745731509377748</ele>
        <time>2024-08-23T15:56:47.561Z</time>
      </trkpt>
      <trkpt lat="52.37880833333334" lon="4.894791666666666">
        <ele>8.845205349402676</ele>
        <time>2024-08-23T15:57:53.605Z</time>
      </trkpt>
      <trkpt lat="52.37885833333333" lon="4.894578333333333">
        <ele>5.645004655710068</ele>
        <time>2024-08-23T15:58:12.608Z</time>
      </trkpt>
      <trkpt lat="52.37896333333333" lon="4.894565">
        <ele>5.3449929960157405</ele>
        <time>2024-08-23T15:58:39.585Z</time>
      </trkpt>
      <trkpt lat="52.379135" lon="4.894215">
        <ele>8.044682526994428</ele>
        <time>2024-08-23T15:59:10.581Z</time>
      </trkpt>
      <trkpt lat="52.37918833333333" lon="4.894183333333333">
        <ele>11.244651580586002</ele>
        <time>2024-08-23T15:59:16.588Z</time>
      </trkpt>
      <trkpt lat="52.37918500000001" lon="4.894121666666666">
        <ele>12.244596660388169</ele>
        <time>2024-08-23T15:59:22.558Z</time>
      </trkpt>
      <trkpt lat="52.379331666666666" lon="4.89398">
        <ele>7.244466699725081</ele>
        <time>2024-08-23T15:59:42.563Z</time>
      </trkpt>
      <trkpt lat="52.37977333333333" lon="4.893213333333334">
        <ele>6.64375879969672</ele>
        <time>2024-08-23T16:00:49.604Z</time>
      </trkpt>
      <trkpt lat="52.379850000000005" lon="4.893236666666667">
        <ele>5.143782850177558</ele>
        <time>2024-08-23T16:01:01.566Z</time>
      </trkpt>
      <trkpt lat="52.380095" lon="4.893533333333334">
        <ele>10.344083002347418</ele>
        <time>2024-08-23T16:01:32.582Z</time>
      </trkpt>
      <trkpt lat="52.38031833333333" lon="4.893191666666667">
        <ele>5.943793725044358</ele>
        <time>2024-08-23T16:02:10.605Z</time>
      </trkpt>
      <trkpt lat="52.380311666666664" lon="4.89311">
        <ele>8.14370559324012</ele>
        <time>2024-08-23T16:02:31.559Z</time>
      </trkpt>
      <trkpt lat="52.380341666666666" lon="4.893305">
        <ele>3.1438886539868918</ele>
        <time>2024-08-23T16:03:19.591Z</time>
      </trkpt>
      <trkpt lat="52.38073666666666" lon="4.893736666666666">
        <ele>6.044331798438272</ele>
        <time>2024-08-23T16:04:11.588Z</time>
      </trkpt>
      <trkpt lat="52.380718333333334" lon="4.893885">
        <ele>5.744466948855759</ele>
        <time>2024-08-23T16:04:21.598Z</time>
      </trkpt>
      <trkpt lat="52.38045333333333" lon="4.894488333333333">
        <ele>8.94504561155695</ele>
        <time>2024-08-23T16:05:04.585Z</time>
      </trkpt>
      <trkpt lat="52.38025" lon="4.89449">
        <ele>8.045032254759576</ele>
        <time>2024-08-23T16:05:26.589Z</time>
      </trkpt>
      <trkpt lat="52.38018833333334" lon="4.8942966666666665">
        <ele>8.044851316543316</ele>
        <time>2024-08-23T16:05:37.592Z</time>
      </trkpt>
      <trkpt lat="52.37986333333333" lon="4.894315000000001">
        <ele>10.744831451052008</ele>
        <time>2024-08-23T16:06:06.596Z</time>
      </trkpt>
      <trkpt lat="52.37987" lon="4.894746666666666">
        <ele>10.445232464821963</ele>
        <time>2024-08-23T16:06:22.595Z</time>
      </trkpt>
      <trkpt lat="52.379928333333325" lon="4.894871666666667">
        <ele>8.945374105761253</ele>
        <time>2024-08-23T16:06:34.584Z</time>
      </trkpt>
      <trkpt lat="52.37982166666667" lon="4.895036666666667">
        <ele>3.0455202962018646</ele>
        <time>2024-08-23T16:06:52.596Z</time>
      </trkpt>
      <trkpt lat="52.379709999999996" lon="4.894995">
        <ele>4.745477507593492</ele>
        <time>2024-08-23T16:07:03.612Z</time>
      </trkpt>
      <trkpt lat="52.37932666666667" lon="4.895676666666667">
        <ele>4.346066664248703</ele>
        <time>2024-08-23T16:07:46.599Z</time>
      </trkpt>
      <trkpt lat="52.37935833333333" lon="4.895613333333333">
        <ele>3.446063432499983</ele>
        <time>2024-08-23T16:07:50.615Z</time>
      </trkpt>
      <trkpt lat="52.379509999999996" lon="4.8957033333333335">
        <ele>5.246134551624166</ele>
        <time>2024-08-23T16:08:03.589Z</time>
      </trkpt>
      <trkpt lat="52.379814999999994" lon="4.896148333333333">
        <ele>12.246588381669973</ele>
        <time>2024-08-23T16:08:34.598Z</time>
      </trkpt>
      <trkpt lat="52.37900500000001" lon="4.897819999999999">
        <ele>12.94814032178494</ele>
        <time>2024-08-23T16:10:28.589Z</time>
      </trkpt>
      <trkpt lat="52.37908666666667" lon="4.898101666666666">
        <ele>11.348437534135222</ele>
        <time>2024-08-23T16:10:46.562Z</time>
      </trkpt>
      <trkpt lat="52.37891" lon="4.898358333333333">
        <ele>12.948658925564288</ele>
        <time>2024-08-23T16:11:15.604Z</time>
      </trkpt>
      <trkpt lat="52.378688333333336" lon="4.898883333333333">
        <ele>17.649142416905946</ele>
        <time>2024-08-23T16:11:55.604Z</time>
      </trkpt>
      <trkpt lat="52.37839" lon="4.899204999999999">
        <ele>12.249442533711672</ele>
        <time>2024-08-23T16:12:37.595Z</time>
      </trkpt>
      <trkpt lat="52.37848333333333" lon="4.899226666666666">
        <ele>9.749463765117596</ele>
        <time>2024-08-23T16:12:52.611Z</time>
      </trkpt>
      <trkpt lat="52.378330000000005" lon="4.899343333333333">
        <ele>9.849570014327355</ele>
        <time>2024-08-23T16:13:18.585Z</time>
      </trkpt>
      <trkpt lat="52.378371666666666" lon="4.899208333333333">
        <ele>9.949448579389767</ele>
        <time>2024-08-23T16:13:49.592Z</time>
      </trkpt>
      <trkpt lat="52.37826666666667" lon="4.899341666666667">
        <ele>6.649564478875817</ele>
        <time>2024-08-23T16:14:18.573Z</time>
      </trkpt>
      <trkpt lat="52.37817833333334" lon="4.89967">
        <ele>6.649868946993692</ele>
        <time>2024-08-23T16:14:51.592Z</time>
      </trkpt>
      <trkpt lat="52.37812833333334" lon="4.900206666666667">
        <ele>9.950379646319675</ele>
        <time>2024-08-23T16:15:43.605Z</time>
      </trkpt>
    </trkseg>
  </trk>
  <trk>
    <trkseg>
      <trkpt lat="52.32657025564009" lon="4.9457983775977254">
        <ele>3.091080346983497</ele>
        <time>2024-08-23T16:48:30.126Z</time>
      </trkpt>
      <trkpt lat="52.326943554592646" lon="4.9453881986015364">
        <ele>4.000330950145458</ele>
        <time>2024-08-23T16:49:01.091Z</time>
      </trkpt>
      <trkpt lat="52.327130000000004" lon="4.9451833333333335">
        <ele>2.4602059785284114</ele>
        <time>2024-08-23T16:49:16.556Z</time>
      </trkpt>
      <trkpt lat="52.327130000000004" lon="4.9451833333333335">
        <ele>6.588935541468182</ele>
        <time>2024-08-23T16:49:16.556Z</time>
      </trkpt>
      <trkpt lat="52.327130000000004" lon="4.9451833333333335">
        <ele>2.4602059785284114</ele>
        <time>2024-08-23T16:49:16.556Z</time>
      </trkpt>
      <trkpt lat="52.326992419719545" lon="4.94526383286896">
        <ele>3.6531452272090488</ele>
        <time>2024-08-23T16:49:25.319Z</time>
      </trkpt>
      <trkpt lat="52.32677666666667" lon="4.945443333333333">
        <ele>4.026369192048556</ele>
        <time>2024-08-23T16:49:39.835Z</time>
      </trkpt>
      <trkpt lat="52.32677666666667" lon="4.945443333333333">
        <ele>6.189138815443364</ele>
        <time>2024-08-23T16:49:39.835Z</time>
      </trkpt>
      <trkpt lat="52.326666666666675" lon="4.94562">
        <ele>6.789294119078903</ele>
        <time>2024-08-23T16:49:47.621Z</time>
      </trkpt>
      <trkpt lat="52.326240000000006" lon="4.9458866666666665">
        <ele>-1.7104971710428174</ele>
        <time>2024-08-23T16:50:02.589Z</time>
      </trkpt>
      <trkpt lat="52.326248333333325" lon="4.946211666666667">
        <ele>-0.010216703140429217</ele>
        <time>2024-08-23T16:50:12.621Z</time>
      </trkpt>
      <trkpt lat="52.32649" lon="4.946983333333334">
        <ele>16.690565308930445</ele>
        <time>2024-08-23T16:50:49.598Z</time>
      </trkpt>
      <trkpt lat="52.326095" lon="4.947221666666667">
        <ele>11.390786302164706</ele>
        <time>2024-08-23T16:51:04.601Z</time>
      </trkpt>
      <trkpt lat="52.32540833333334" lon="4.947826666666667">
        <ele>6.89128702095082</ele>
        <time>2024-08-23T16:51:52.584Z</time>
      </trkpt>
      <trkpt lat="52.32537000000001" lon="4.947933333333333">
        <ele>7.791380639407521</ele>
        <time>2024-08-23T16:51:58.582Z</time>
      </trkpt>
      <trkpt lat="52.32549833333334" lon="4.94807">
        <ele>10.191537132229342</ele>
        <time>2024-08-23T16:52:11.571Z</time>
      </trkpt>
      <trkpt lat="52.32547833333333" lon="4.94816">
        <ele>8.791617351138548</ele>
        <time>2024-08-23T16:52:16.608Z</time>
      </trkpt>
      <trkpt lat="52.325516666666665" lon="4.948183333333334">
        <ele>8.39165979812607</ele>
        <time>2024-08-23T16:52:19.607Z</time>
      </trkpt>
      <trkpt lat="52.325946666666674" lon="4.947791666666667">
        <ele>4.291335898304176</ele>
        <time>2024-08-23T16:53:02.604Z</time>
      </trkpt>
      <trkpt lat="52.325995" lon="4.948036666666667">
        <ele>2.8915314021686527</ele>
        <time>2024-08-23T16:53:10.584Z</time>
      </trkpt>
      <trkpt lat="52.32619666666666" lon="4.948568333333334">
        <ele>6.69208598978517</ele>
        <time>2024-08-23T16:53:37.575Z</time>
      </trkpt>
      <trkpt lat="52.32632666666667" lon="4.948753333333333">
        <ele>5.792304369976577</ele>
        <time>2024-08-23T16:53:55.576Z</time>
      </trkpt>
      <trkpt lat="52.326296666666664" lon="4.948865">
        <ele>5.492355899703689</ele>
        <time>2024-08-23T16:53:59.553Z</time>
      </trkpt>
      <trkpt lat="52.32598333333333" lon="4.949156666666667">
        <ele>6.492648087811368</ele>
        <time>2024-08-23T16:54:25.598Z</time>
      </trkpt>
      <trkpt lat="52.326081666666674" lon="4.949555">
        <ele>4.693031478000357</ele>
        <time>2024-08-23T16:54:44.618Z</time>
      </trkpt>
      <trkpt lat="52.32606666666667" lon="4.949738333333333">
        <ele>6.393229542813486</ele>
        <time>2024-08-23T16:54:54.588Z</time>
      </trkpt>
      <trkpt lat="52.326785" lon="4.951718333333333">
        <ele>11.395218079804955</ele>
        <time>2024-08-23T16:56:43.618Z</time>
      </trkpt>
      <trkpt lat="52.32674" lon="4.951856666666667">
        <ele>11.295345900295146</ele>
        <time>2024-08-23T16:56:50.618Z</time>
      </trkpt>
      <trkpt lat="52.32604166666667" lon="4.952398333333333">
        <ele>7.2957976694747515</ele>
        <time>2024-08-23T16:57:43.073Z</time>
      </trkpt>
      <trkpt lat="52.32604166666667" lon="4.952398333333333">
        <ele>0.858571832115471</ele>
        <time>2024-08-23T16:57:43.073Z</time>
      </trkpt>
      <trkpt lat="52.326089778122174" lon="4.953129850715094">
        <ele>3.336878432675687</ele>
        <time>2024-08-23T16:58:13.593Z</time>
      </trkpt>
      <trkpt lat="52.32613354932309" lon="4.953795376086475">
        <ele>2.1707256035652636</ele>
        <time>2024-08-23T16:58:41.360Z</time>
      </trkpt>
      <trkpt lat="52.326066341697604" lon="4.953067900237859">
        <ele>3.1849374060991424</ele>
        <time>2024-08-23T16:59:11.880Z</time>
      </trkpt>
      <trkpt lat="52.32600833333333" lon="4.95244">
        <ele>0.9849867503187065</ele>
        <time>2024-08-23T16:59:38.223Z</time>
      </trkpt>
      <trkpt lat="52.32600833333333" lon="4.95244">
        <ele>-4.804148133124954</ele>
        <time>2024-08-23T16:59:38.223Z</time>
      </trkpt>
      <trkpt lat="52.326081666666674" lon="4.952299999999999">
        <ele>-5.804271049138755</ele>
        <time>2024-08-23T18:48:54.595Z</time>
      </trkpt>
      <trkpt lat="52.326621666666675" lon="4.951833333333333">
        <ele>-8.10466843727481</ele>
        <time>2024-08-23T18:49:53.585Z</time>
      </trkpt>
      <trkpt lat="52.326775" lon="4.951778333333333">
        <ele>-6.204711388630983</ele>
        <time>2024-08-23T18:50:08.607Z</time>
      </trkpt>
      <trkpt lat="52.32727833333333" lon="4.951301666666667">
        <ele>-2.205104606859166</ele>
        <time>2024-08-23T18:50:57.599Z</time>
      </trkpt>
      <trkpt lat="52.32732666666667" lon="4.951183333333334">
        <ele>0.39478654857713735</ele>
        <time>2024-08-23T18:51:05.608Z</time>
      </trkpt>
      <trkpt lat="52.327760000000005" lon="4.950763333333333">
        <ele>5.794419504160373</ele>
        <time>2024-08-23T18:51:59.591Z</time>
      </trkpt>
      <trkpt lat="52.32793333333334" lon="4.950491666666666">
        <ele>3.6941848136684925</ele>
        <time>2024-08-23T18:52:23.592Z</time>
      </trkpt>
      <trkpt lat="52.32816166666667" lon="4.950356666666667">
        <ele>-0.7059346257704036</ele>
        <time>2024-08-23T18:52:47.588Z</time>
      </trkpt>
      <trkpt lat="52.32841166666667" lon="4.950051666666667">
        <ele>-5.906193683569711</ele>
        <time>2024-08-23T18:53:20.563Z</time>
      </trkpt>
      <trkpt lat="52.328635" lon="4.949948333333333">
        <ele>-2.1062745444404456</ele>
        <time>2024-08-23T18:53:40.573Z</time>
      </trkpt>
      <trkpt lat="52.32849833333333" lon="4.949441666666667">
        <ele>2.293228619567344</ele>
        <time>2024-08-23T18:54:07.562Z</time>
      </trkpt>
      <trkpt lat="52.32806166666666" lon="4.9482083333333335">
        <ele>-3.3079741063395645</ele>
        <time>2024-08-23T18:54:55.601Z</time>
      </trkpt>
      <trkpt lat="52.32795666666666" lon="4.947668333333333">
        <ele>-5.908504689172432</ele>
        <time>2024-08-23T18:55:06.609Z</time>
      </trkpt>
      <trkpt lat="52.32769499999999" lon="4.946868333333333">
        <ele>-10.009309573791676</ele>
        <time>2024-08-23T18:55:20.608Z</time>
      </trkpt>
      <trkpt lat="52.32756333333334" lon="4.94661">
        <ele>-9.909596249954575</ele>
        <time>2024-08-23T18:55:27.602Z</time>
      </trkpt>
      <trkpt lat="52.32743333333333" lon="4.946075">
        <ele>-3.7101246807730845</ele>
        <time>2024-08-23T18:55:42.555Z</time>
      </trkpt>
      <trkpt lat="52.327331666666666" lon="4.946075">
        <ele>-1.3101584199182597</ele>
        <time>2024-08-23T18:55:51.653Z</time>
      </trkpt>
      <trkpt lat="52.327331666666666" lon="4.946075">
        <ele>2</ele>
        <time>2024-08-23T18:55:51.653Z</time>
      </trkpt>
      <trkpt lat="52.32710194474012" lon="4.945442502630043">
        <ele>2.876095216117223</ele>
        <time>2024-08-23T18:56:31.892Z</time>
      </trkpt>
      <trkpt lat="52.32704974304403" lon="4.945298774793599">
        <ele>3.2070769530459584</ele>
        <time>2024-08-23T18:56:39.035Z</time>
      </trkpt>
      <trkpt lat="52.32704974304403" lon="4.945298774793599">
        <ele>3.2070769530459584</ele>
        <time>2024-08-23T18:56:39.035Z</time>
      </trkpt>
      <trkpt lat="52.32665549574632" lon="4.945652607640855">
        <ele>3.5401972173892986</ele>
        <time>2024-08-23T18:57:10.470Z</time>
      </trkpt>
      <trkpt lat="52.32656268707254" lon="4.94573590245983">
        <ele>3.1350124962167136</ele>
        <time>2024-08-23T18:57:17.867Z</time>
      </trkpt>
      <trkpt lat="52.32659967780501" lon="4.945820009264509">
        <ele>3.1408250095339962</ele>
        <time>2024-08-23T18:57:22.292Z</time>
      </trkpt>
    </trkseg>
  </trk>
</gpx>
