<?xml version="1.0" encoding="UTF-8"?>
<gpx version="1.1" creator="Export" xmlns="http://www.topografix.com/GPX/1/1" xmlns:xsi="http://www.w3.org/2001/XMLSchema-instance" xsi:schemaLocation="http://www.topografix.com/GPX/1/1 http://www.topografix.com/GPX/1/1/gpx.xsd http://www.garmin.com/xmlschemas/GpxExtensions/v3 http://www.garmin.com/xmlschemas/GpxExtensionsv3.xsd http://www.garmin.com/xmlschemas/TrackPointExtension/v1 http://www.garmin.com/xmlschemas/TrackPointExtensionv1.xsd http://www.garmin.com/xmlschemas/PowerExtension/v1 http://www.garmin.com/xmlschemas/PowerExtensionv1.xsd http://www.topografix.com/GPX/gpx_style/0/2 http://www.topografix.com/GPX/gpx_style/0/2/gpx_style.xsd" xmlns:gpxtpx="http://www.garmin.com/xmlschemas/TrackPointExtension/v1" xmlns:gpxx="http://www.garmin.com/xmlschemas/GpxExtensions/v3" xmlns:gpxpx="http://www.garmin.com/xmlschemas/PowerExtension/v1" xmlns:gpx_style="http://www.topografix.com/GPX/gpx_style/0/2">
  <metadata>
    <name>activity_216_2024-09-13</name>
    <author>
      <name>gpx.studio</name>
      <link href="https://gpx.studio"/>
    </author>
  </metadata>
  <wpt lat="48.134829" lon="11.574493">
    <ele>519.1314473836225</ele>
    <name>Schmalznudel Cafe Frischhut</name>
    <sym>Restaurant</sym>
  </wpt>
  <trk>
    <name>activity_216_2024-09-13</name>
    <trkseg>
      <trkpt lat="48.141160849754044" lon="11.55634361424643">
        <ele>519.1671929549556</ele>
        <time>2024-09-13T15:29:06.438Z</time>
      </trkpt>
      <trkpt lat="48.14213496908533" lon="11.556518791582391">
        <ele>521.1437838471504</ele>
        <time>2024-09-13T15:30:36.207Z</time>
      </trkpt>
      <trkpt lat="48.14749878837662" lon="11.559049130875081">
        <ele>520.1345404769436</ele>
        <time>2024-09-13T15:39:10.722Z</time>
      </trkpt>
      <trkpt lat="48.15017399477637" lon="11.558328957384703">
        <ele>523.3486660380157</ele>
        <time>2024-09-13T15:43:19.415Z</time>
      </trkpt>
      <trkpt lat="48.14856833333333" lon="11.565588333333334">
        <ele>522.0067610072406</ele>
        <time>2024-09-13T15:51:06.212Z</time>
      </trkpt>
      <trkpt lat="48.14859166666667" lon="11.565521666666665">
        <ele>544.291546153563</ele>
        <time>2024-09-13T15:51:11.108Z</time>
      </trkpt>
      <trkpt lat="48.148426666666666" lon="11.565228333333334">
        <ele>541.3913146251114</ele>
        <time>2024-09-13T15:51:37.103Z</time>
      </trkpt>
      <trkpt lat="48.14807833333332" lon="11.565365000000002">
        <ele>528.5911877877675</ele>
        <time>2024-09-13T15:51:59.110Z</time>
      </trkpt>
      <trkpt lat="48.147523333333325" lon="11.565008333333333">
        <ele>506.9906974992931</ele>
        <time>2024-09-13T15:52:50.117Z</time>
      </trkpt>
      <trkpt lat="48.14759000000001" lon="11.564919999999999">
        <ele>512.0906888213058</ele>
        <time>2024-09-13T15:53:07.104Z</time>
      </trkpt>
      <trkpt lat="48.147466666666666" lon="11.565238333333332">
        <ele>520.7907825996643</ele>
        <time>2024-09-13T15:53:53.087Z</time>
      </trkpt>
      <trkpt lat="48.14740833333334" lon="11.56579">
        <ele>520.991018510646</ele>
        <time>2024-09-13T15:54:30.107Z</time>
      </trkpt>
      <trkpt lat="48.1471362585917" lon="11.566493320977088">
        <ele>519.5361501369628</ele>
        <time>2024-09-13T15:55:21.730Z</time>
      </trkpt>
      <trkpt lat="48.1469703051589" lon="11.566572624060484">
        <ele>519.7390888095888</ele>
        <time>2024-09-13T15:55:36.412Z</time>
      </trkpt>
      <trkpt lat="48.145678333333336" lon="11.565815000000002">
        <ele>516.2900842560962</ele>
        <time>2024-09-13T15:58:34.593Z</time>
      </trkpt>
      <trkpt lat="48.14491666666666" lon="11.568529999999999">
        <ele>521.8910019049022</ele>
        <time>2024-09-13T16:01:42.077Z</time>
      </trkpt>
      <trkpt lat="48.14460333333333" lon="11.568416666666668">
        <ele>518.9907871004114</ele>
        <time>2024-09-13T16:02:21.078Z</time>
      </trkpt>
      <trkpt lat="48.14435333333333" lon="11.568476666666667">
        <ele>524.690674009825</ele>
        <time>2024-09-13T16:02:41.072Z</time>
      </trkpt>
      <trkpt lat="48.144245" lon="11.568738333333332">
        <ele>529.3907335831065</ele>
        <time>2024-09-13T16:02:57.078Z</time>
      </trkpt>
      <trkpt lat="48.14417166666667" lon="11.569410000000001">
        <ele>520.8910221441496</ele>
        <time>2024-09-13T16:04:10.095Z</time>
      </trkpt>
      <trkpt lat="48.142758333333326" lon="11.570355">
        <ele>528.2907061969785</ele>
        <time>2024-09-13T16:06:23.128Z</time>
      </trkpt>
      <trkpt lat="48.142253333333336" lon="11.570801666666666">
        <ele>525.8906430516555</ele>
        <time>2024-09-13T16:07:18.087Z</time>
      </trkpt>
      <trkpt lat="48.14209833333333" lon="11.570498333333335">
        <ele>526.1904228020612</ele>
        <time>2024-09-13T16:08:01.094Z</time>
      </trkpt>
      <trkpt lat="48.141678333333324" lon="11.570801666666666">
        <ele>528.590325784869</ele>
        <time>2024-09-13T16:08:28.091Z</time>
      </trkpt>
      <trkpt lat="48.14160333333333" lon="11.57129">
        <ele>524.6904974338197</ele>
        <time>2024-09-13T16:09:06.095Z</time>
      </trkpt>
      <trkpt lat="48.141529999999996" lon="11.571363333333332">
        <ele>527.8905090198531</ele>
        <time>2024-09-13T16:09:13.120Z</time>
      </trkpt>
      <trkpt lat="48.141576666666666" lon="11.571538333333335">
        <ele>529.6906178996301</ele>
        <time>2024-09-13T16:09:28.068Z</time>
      </trkpt>
      <trkpt lat="48.141525" lon="11.571561666666666">
        <ele>531.2906044749723</ele>
        <time>2024-09-13T16:09:37.116Z</time>
      </trkpt>
      <trkpt lat="48.14142333333333" lon="11.572439999999999">
        <ele>540.1909551164218</ele>
        <time>2024-09-13T16:10:44.114Z</time>
      </trkpt>
      <trkpt lat="48.14129166666667" lon="11.572941666666669">
        <ele>534.7911310929902</ele>
        <time>2024-09-13T16:11:16.081Z</time>
      </trkpt>
      <trkpt lat="48.14136166666667" lon="11.573058333333332">
        <ele>537.0912168752368</ele>
        <time>2024-09-13T16:11:30.117Z</time>
      </trkpt>
      <trkpt lat="48.140975" lon="11.574523333333332">
        <ele>525.8916906994741</ele>
        <time>2024-09-13T16:12:57.072Z</time>
      </trkpt>
      <trkpt lat="48.14066166666667" lon="11.574541666666669">
        <ele>526.1915557823872</ele>
        <time>2024-09-13T16:13:21.120Z</time>
      </trkpt>
      <trkpt lat="48.14001833333334" lon="11.573943333333334">
        <ele>519.9909076631561</ele>
        <time>2024-09-13T16:14:30.104Z</time>
      </trkpt>
      <trkpt lat="48.140035000000005" lon="11.573836666666667">
        <ele>521.3908658300696</ele>
        <time>2024-09-13T16:14:34.121Z</time>
      </trkpt>
      <trkpt lat="48.13992499999999" lon="11.573730000000001">
        <ele>524.3907491140308</ele>
        <time>2024-09-13T16:14:51.075Z</time>
      </trkpt>
      <trkpt lat="48.13941833333333" lon="11.575533333333333">
        <ele>532.5913021576531</ele>
        <time>2024-09-13T16:17:04.075Z</time>
      </trkpt>
      <trkpt lat="48.139153333333326" lon="11.575746666666666">
        <ele>532.3912633059883</ele>
        <time>2024-09-13T16:18:01.118Z</time>
      </trkpt>
      <trkpt lat="48.13897" lon="11.575538333333334">
        <ele>528.4910757066248</ele>
        <time>2024-09-13T16:18:24.068Z</time>
      </trkpt>
      <trkpt lat="48.13832833333333" lon="11.575304999999998">
        <ele>527.590607022925</ele>
        <time>2024-09-13T16:19:41.101Z</time>
      </trkpt>
      <trkpt lat="48.138343333333324" lon="11.575363333333334">
        <ele>527.2906327035265</ele>
        <time>2024-09-13T16:19:48.113Z</time>
      </trkpt>
      <trkpt lat="48.13842666666666" lon="11.57524">
        <ele>526.0906280056989</ele>
        <time>2024-09-13T16:20:03.107Z</time>
      </trkpt>
      <trkpt lat="48.13840833333334" lon="11.575361666666668">
        <ele>525.4906624612416</ele>
        <time>2024-09-13T16:20:12.101Z</time>
      </trkpt>
      <trkpt lat="48.13857333333333" lon="11.575496666666668">
        <ele>526.8908234586435</ele>
        <time>2024-09-13T16:20:32.104Z</time>
      </trkpt>
      <trkpt lat="48.13850166666666" lon="11.575628333333334">
        <ele>529.6908491656985</ele>
        <time>2024-09-13T16:20:49.117Z</time>
      </trkpt>
      <trkpt lat="48.138466666666666" lon="11.575515">
        <ele>530.5907782004606</ele>
        <time>2024-09-13T16:21:02.108Z</time>
      </trkpt>
      <trkpt lat="48.13853833333333" lon="11.57541">
        <ele>531.090766217061</ele>
        <time>2024-09-13T16:21:09.081Z</time>
      </trkpt>
      <trkpt lat="48.138601666666666" lon="11.575691666666668">
        <ele>536.2909262663763</ele>
        <time>2024-09-13T16:21:37.095Z</time>
      </trkpt>
      <trkpt lat="48.13864333333333" lon="11.575501666666666">
        <ele>538.5908575628905</ele>
        <time>2024-09-13T16:21:50.094Z</time>
      </trkpt>
      <trkpt lat="48.138524999999994" lon="11.575371666666667">
        <ele>543.5907909864326</ele>
        <time>2024-09-13T16:22:06.087Z</time>
      </trkpt>
      <trkpt lat="48.138478333333325" lon="11.575493333333334">
        <ele>549.1907685415772</ele>
        <time>2024-09-13T16:22:14.068Z</time>
      </trkpt>
      <trkpt lat="48.138163333333324" lon="11.575251666666668">
        <ele>527.3904924086299</ele>
        <time>2024-09-13T16:23:19.126Z</time>
      </trkpt>
      <trkpt lat="48.13771333333334" lon="11.575088333333333">
        <ele>519.3901670324383</ele>
        <time>2024-09-13T16:24:05.124Z</time>
      </trkpt>
      <trkpt lat="48.13769166666666" lon="11.574929999999998">
        <ele>520.4900723427376</ele>
        <time>2024-09-13T16:24:20.078Z</time>
      </trkpt>
      <trkpt lat="48.13746666666666" lon="11.574828333333334">
        <ele>518.2899226212028</ele>
        <time>2024-09-13T16:24:36.075Z</time>
      </trkpt>
      <trkpt lat="48.137068757072626" lon="11.576235477257683">
        <ele>522.8430256627545</ele>
        <time>2024-09-13T16:26:00.576Z</time>
      </trkpt>
      <trkpt lat="48.136612702859395" lon="11.577176986084453">
        <ele>519.3105319365161</ele>
        <time>2024-09-13T16:27:08.148Z</time>
      </trkpt>
      <trkpt lat="48.136079011342304" lon="11.576672626513869">
        <ele>520.99718348491</ele>
        <time>2024-09-13T16:28:03.064Z</time>
      </trkpt>
      <trkpt lat="48.13583607736706" lon="11.576192804032928">
        <ele>519.8255918976391</ele>
        <time>2024-09-13T16:28:38.046Z</time>
      </trkpt>
      <trkpt lat="48.13540666666666" lon="11.576076666666665">
        <ele>530.7893410818706</ele>
        <time>2024-09-13T17:32:25.080Z</time>
      </trkpt>
      <trkpt lat="48.13547333333333" lon="11.575716666666665">
        <ele>527.9892198633024</ele>
        <time>2024-09-13T17:33:41.837Z</time>
      </trkpt>
      <trkpt lat="48.1352644726162" lon="11.574918051594267">
        <ele>516.0485945936796</ele>
        <time>2024-09-13T17:37:32.368Z</time>
      </trkpt>
      <trkpt lat="48.13482195061408" lon="11.574608777142913">
        <ele>518.7906213477983</ele>
        <time>2024-09-13T17:40:08.528Z</time>
      </trkpt>
      <trkpt lat="48.13482590435814" lon="11.574491861646948">
        <ele>519.1484020060708</ele>
        <time>2024-09-13T17:40:18.062Z</time>
      </trkpt>
      <trkpt lat="48.13477583062604" lon="11.574638792188068">
        <ele>518.9558940698607</ele>
        <time>2024-09-13T17:40:31.724Z</time>
      </trkpt>
      <trkpt lat="48.135320261571735" lon="11.574843015045985">
        <ele>516.5931039096592</ele>
        <time>2024-09-13T17:41:40.847Z</time>
      </trkpt>
      <trkpt lat="48.13556833333334" lon="11.574098333333332">
        <ele>520.8416883080704</ele>
        <time>2024-09-13T17:42:49.258Z</time>
      </trkpt>
      <trkpt lat="48.13567333333334" lon="11.573916666666666">
        <ele>518.4884865295079</ele>
        <time>2024-09-13T18:09:06.116Z</time>
      </trkpt>
      <trkpt lat="48.13581333333333" lon="11.573886666666665">
        <ele>513.6885498945372</ele>
        <time>2024-09-13T18:09:22.130Z</time>
      </trkpt>
      <trkpt lat="48.135785000000006" lon="11.573283333333332">
        <ele>524.9882558993837</ele>
        <time>2024-09-13T18:09:41.121Z</time>
      </trkpt>
      <trkpt lat="48.135908333333326" lon="11.573238333333332">
        <ele>527.888295167678</ele>
        <time>2024-09-13T18:09:52.081Z</time>
      </trkpt>
      <trkpt lat="48.13622999999999" lon="11.572763333333334">
        <ele>520.7882520438876</ele>
        <time>2024-09-13T18:10:27.116Z</time>
      </trkpt>
      <trkpt lat="48.13639499999999" lon="11.572661666666667">
        <ele>522.3882923063259</ele>
        <time>2024-09-13T18:10:48.118Z</time>
      </trkpt>
      <trkpt lat="48.136791666666674" lon="11.57206333333333">
        <ele>511.58823253234743</ele>
        <time>2024-09-13T18:11:28.113Z</time>
      </trkpt>
      <trkpt lat="48.13683833333333" lon="11.571828333333334">
        <ele>511.9881447274502</ele>
        <time>2024-09-13T18:11:40.120Z</time>
      </trkpt>
      <trkpt lat="48.137431666666664" lon="11.571394999999999">
        <ele>508.7882637806952</ele>
        <time>2024-09-13T18:12:36.061Z</time>
      </trkpt>
      <trkpt lat="48.13749333333333" lon="11.571161666666667">
        <ele>519.6881843347317</ele>
        <time>2024-09-13T18:12:59.107Z</time>
      </trkpt>
      <trkpt lat="48.13744833333333" lon="11.571148333333333">
        <ele>520.9881614117535</ele>
        <time>2024-09-13T18:13:15.114Z</time>
      </trkpt>
      <trkpt lat="48.138151666666666" lon="11.571418333333334">
        <ele>547.4886628423099</ele>
        <time>2024-09-13T18:14:01.104Z</time>
      </trkpt>
      <trkpt lat="48.138253333333324" lon="11.571316666666666">
        <ele>546.2886857927588</ele>
        <time>2024-09-13T18:14:11.116Z</time>
      </trkpt>
      <trkpt lat="48.13844833333333" lon="11.570298333333335">
        <ele>541.0882997987574</ele>
        <time>2024-09-13T18:15:03.077Z</time>
      </trkpt>
      <trkpt lat="48.13859833333333" lon="11.570189999999998">
        <ele>546.4883317419839</ele>
        <time>2024-09-13T18:15:12.097Z</time>
      </trkpt>
      <trkpt lat="48.13866666666666" lon="11.569893333333335">
        <ele>550.2882320877848</ele>
        <time>2024-09-13T18:15:33.120Z</time>
      </trkpt>
      <trkpt lat="48.13860666666666" lon="11.569434999999999">
        <ele>544.087982100472</ele>
        <time>2024-09-13T18:15:54.110Z</time>
      </trkpt>
      <trkpt lat="48.13906166666667" lon="11.567288333333332">
        <ele>545.8871802006466</ele>
        <time>2024-09-13T18:17:55.071Z</time>
      </trkpt>
      <trkpt lat="48.138978333333334" lon="11.566943333333333">
        <ele>548.8869659561307</ele>
        <time>2024-09-13T18:18:18.074Z</time>
      </trkpt>
      <trkpt lat="48.139076666666675" lon="11.566401666666666">
        <ele>536.486758539882</ele>
        <time>2024-09-13T18:18:41.077Z</time>
      </trkpt>
      <trkpt lat="48.139121666666675" lon="11.566270000000001">
        <ele>527.0867094993891</ele>
        <time>2024-09-13T18:19:02.071Z</time>
      </trkpt>
      <trkpt lat="48.13936333333333" lon="11.566251666666668">
        <ele>523.4868297094629</ele>
        <time>2024-09-13T18:19:28.101Z</time>
      </trkpt>
      <trkpt lat="48.139615000000006" lon="11.566038333333331">
        <ele>521.6868510591701</ele>
        <time>2024-09-13T18:20:20.120Z</time>
      </trkpt>
      <trkpt lat="48.13971333333334" lon="11.565828333333332">
        <ele>524.4868208254753</ele>
        <time>2024-09-13T18:20:34.124Z</time>
      </trkpt>
      <trkpt lat="48.14069166666666" lon="11.562768333333334">
        <ele>528.1858371700479</ele>
        <time>2024-09-13T18:23:18.116Z</time>
      </trkpt>
      <trkpt lat="48.14066166666667" lon="11.56261">
        <ele>529.385736268683</ele>
        <time>2024-09-13T18:23:23.097Z</time>
      </trkpt>
      <trkpt lat="48.14082499999999" lon="11.562371666666666">
        <ele>525.685691625211</ele>
        <time>2024-09-13T18:23:43.104Z</time>
      </trkpt>
      <trkpt lat="48.140948333333334" lon="11.561883333333332">
        <ele>528.0855071244284</ele>
        <time>2024-09-13T18:24:16.094Z</time>
      </trkpt>
      <trkpt lat="48.14094" lon="11.561758333333334">
        <ele>525.6854424828568</ele>
        <time>2024-09-13T18:24:31.091Z</time>
      </trkpt>
      <trkpt lat="48.14069333333334" lon="11.561485000000001">
        <ele>525.8851917418913</ele>
        <time>2024-09-13T18:24:49.104Z</time>
      </trkpt>
      <trkpt lat="48.14122333333333" lon="11.559043333333333">
        <ele>528.6842124389882</ele>
        <time>2024-09-13T18:44:43.111Z</time>
      </trkpt>
      <trkpt lat="48.14088" lon="11.558876666666666">
        <ele>509.08394077488185</ele>
        <time>2024-09-13T18:45:09.105Z</time>
      </trkpt>
      <trkpt lat="48.14031833333333" lon="11.558963333333335">
        <ele>538.1836633980029</ele>
        <time>2024-09-13T19:00:52.128Z</time>
      </trkpt>
      <trkpt lat="48.14097" lon="11.559109999999999">
        <ele>459.88406665324067</ele>
        <time>2024-09-13T19:07:45.111Z</time>
      </trkpt>
      <trkpt lat="48.140890000000006" lon="11.558425">
        <ele>539.1837035151276</ele>
        <time>2024-09-13T19:11:01.110Z</time>
      </trkpt>
    </trkseg>
  </trk>
</gpx>
