<?xml version="1.0" encoding="UTF-8"?>
<gpx version="1.1" creator="Export" xmlns="http://www.topografix.com/GPX/1/1" xmlns:xsi="http://www.w3.org/2001/XMLSchema-instance" xsi:schemaLocation="http://www.topografix.com/GPX/1/1 http://www.topografix.com/GPX/1/1/gpx.xsd http://www.garmin.com/xmlschemas/GpxExtensions/v3 http://www.garmin.com/xmlschemas/GpxExtensionsv3.xsd http://www.garmin.com/xmlschemas/TrackPointExtension/v1 http://www.garmin.com/xmlschemas/TrackPointExtensionv1.xsd http://www.garmin.com/xmlschemas/PowerExtension/v1 http://www.garmin.com/xmlschemas/PowerExtensionv1.xsd http://www.topografix.com/GPX/gpx_style/0/2 http://www.topografix.com/GPX/gpx_style/0/2/gpx_style.xsd" xmlns:gpxtpx="http://www.garmin.com/xmlschemas/TrackPointExtension/v1" xmlns:gpxx="http://www.garmin.com/xmlschemas/GpxExtensions/v3" xmlns:gpxpx="http://www.garmin.com/xmlschemas/PowerExtension/v1" xmlns:gpx_style="http://www.topografix.com/GPX/gpx_style/0/2">
  <metadata>
    <name>activity_179_2024-09-02</name>
    <author>
      <name>gpx.studio</name>
      <link href="https://gpx.studio"/>
    </author>
  </metadata>
  <wpt lat="41.391581" lon="2.172944">
    <ele>31.42464646779262</ele>
    <name>The Egg Lab</name>
    <sym>Restaurant</sym>
  </wpt>
  <trk>
    <name>activity_179_2024-09-02</name>
    <trkseg>
      <trkpt lat="41.390891535081266" lon="2.1658036239418266">
        <ele>40.69098695539927</ele>
        <time>2024-09-02T06:42:53.060Z</time>
      </trkpt>
      <trkpt lat="41.391126666666665" lon="2.1659450000000002">
        <ele>41.65423984605417</ele>
        <time>2024-09-02T06:43:12.039Z</time>
      </trkpt>
      <trkpt lat="41.39138166666667" lon="2.166303333333333">
        <ele>21.26268722941287</ele>
        <time>2024-09-02T06:43:42.082Z</time>
      </trkpt>
      <trkpt lat="41.391216666666665" lon="2.1664766666666666">
        <ele>21.762331910168434</ele>
        <time>2024-09-02T06:43:57.078Z</time>
      </trkpt>
      <trkpt lat="41.391171666666665" lon="2.166575">
        <ele>22.06215730414965</ele>
        <time>2024-09-02T06:44:03.092Z</time>
      </trkpt>
      <trkpt lat="41.390721666666664" lon="2.1671316666666667">
        <ele>28.26098108891452</ele>
        <time>2024-09-02T06:44:53.046Z</time>
      </trkpt>
      <trkpt lat="41.39073166666667" lon="2.1673466666666665">
        <ele>30.760631217043063</ele>
        <time>2024-09-02T06:45:03.072Z</time>
      </trkpt>
      <trkpt lat="41.391484999999996" lon="2.1683383333333333">
        <ele>12.559314436397528</ele>
        <time>2024-09-02T06:46:30.061Z</time>
      </trkpt>
      <trkpt lat="41.39143166666666" lon="2.1685516666666667">
        <ele>20.75891536991965</ele>
        <time>2024-09-02T06:46:42.084Z</time>
      </trkpt>
      <trkpt lat="41.39144666666666" lon="2.168603333333333">
        <ele>25.358828463974774</ele>
        <time>2024-09-02T06:46:50.065Z</time>
      </trkpt>
      <trkpt lat="41.39151166666667" lon="2.16865">
        <ele>33.95882363456137</ele>
        <time>2024-09-02T06:47:16.069Z</time>
      </trkpt>
      <trkpt lat="41.39151333333333" lon="2.1687016666666663">
        <ele>34.2587129262967</ele>
        <time>2024-09-02T06:47:20.084Z</time>
      </trkpt>
      <trkpt lat="41.39150166666666" lon="2.1687149999999997">
        <ele>33.25867069430459</ele>
        <time>2024-09-02T06:47:22.076Z</time>
      </trkpt>
      <trkpt lat="41.391535000000005" lon="2.1688400000000003">
        <ele>33.358471104456044</ele>
        <time>2024-09-02T06:47:33.078Z</time>
      </trkpt>
      <trkpt lat="41.39091666666666" lon="2.1696316666666666">
        <ele>13.956852062604831</ele>
        <time>2024-09-02T06:48:50.107Z</time>
      </trkpt>
      <trkpt lat="41.390903333333334" lon="2.1696683333333335">
        <ele>15.156777689766969</ele>
        <time>2024-09-02T06:48:55.039Z</time>
      </trkpt>
      <trkpt lat="41.390944999999995" lon="2.1698700000000004">
        <ele>16.556474336284026</ele>
        <time>2024-09-02T06:49:07.085Z</time>
      </trkpt>
      <trkpt lat="41.39097833333334" lon="2.1699533333333334">
        <ele>15.356344353602097</ele>
        <time>2024-09-02T06:49:12.094Z</time>
      </trkpt>
      <trkpt lat="41.39103333333334" lon="2.17002">
        <ele>14.156252133340502</ele>
        <time>2024-09-02T06:49:17.082Z</time>
      </trkpt>
      <trkpt lat="41.39105500000001" lon="2.1700749999999998">
        <ele>13.456182874684913</ele>
        <time>2024-09-02T06:49:20.079Z</time>
      </trkpt>
      <trkpt lat="41.39109166666667" lon="2.1701016666666666">
        <ele>13.156136967787177</ele>
        <time>2024-09-02T06:49:22.094Z</time>
      </trkpt>
      <trkpt lat="41.39147" lon="2.1706166666666666">
        <ele>13.455447658318803</ele>
        <time>2024-09-02T06:50:09.088Z</time>
      </trkpt>
      <trkpt lat="41.39129" lon="2.17085">
        <ele>14.354993853439005</ele>
        <time>2024-09-02T06:50:22.098Z</time>
      </trkpt>
      <trkpt lat="41.39120666666666" lon="2.170985">
        <ele>14.454694398721358</ele>
        <time>2024-09-02T06:50:28.096Z</time>
      </trkpt>
      <trkpt lat="41.391146666666664" lon="2.1711883333333333">
        <ele>14.554377960447994</ele>
        <time>2024-09-02T06:50:37.081Z</time>
      </trkpt>
      <trkpt lat="41.39114333333334" lon="2.171255">
        <ele>16.154217901206657</ele>
        <time>2024-09-02T06:50:41.089Z</time>
      </trkpt>
      <trkpt lat="41.391085000000004" lon="2.171335">
        <ele>16.154055564124604</ele>
        <time>2024-09-02T06:50:53.068Z</time>
      </trkpt>
      <trkpt lat="41.39121166666667" lon="2.1713">
        <ele>13.654145708705997</ele>
        <time>2024-09-02T06:51:05.078Z</time>
      </trkpt>
      <trkpt lat="41.39125166666666" lon="2.1713533333333337">
        <ele>14.454085195616756</ele>
        <time>2024-09-02T06:51:13.092Z</time>
      </trkpt>
      <trkpt lat="41.39130166666667" lon="2.1713866666666664">
        <ele>15.354058893628775</ele>
        <time>2024-09-02T06:51:20.072Z</time>
      </trkpt>
      <trkpt lat="41.39141500000001" lon="2.171375">
        <ele>18.05410322193383</ele>
        <time>2024-09-02T06:51:28.089Z</time>
      </trkpt>
      <trkpt lat="41.39154166666667" lon="2.171395">
        <ele>19.854149911623082</ele>
        <time>2024-09-02T06:51:37.088Z</time>
      </trkpt>
      <trkpt lat="41.391585" lon="2.1714183333333335">
        <ele>21.454131597546237</ele>
        <time>2024-09-02T06:51:39.052Z</time>
      </trkpt>
      <trkpt lat="41.392174999999995" lon="2.1721833333333334">
        <ele>19.653147469434877</ele>
        <time>2024-09-02T06:52:50.378Z</time>
      </trkpt>
      <trkpt lat="41.39162773415859" lon="2.1729800860794626">
        <ele>31.330611159999165</ele>
        <time>2024-09-02T06:54:27.402Z</time>
      </trkpt>
      <trkpt lat="41.39158020130904" lon="2.1729432914215465">
        <ele>31.42698072294076</ele>
        <time>2024-09-02T06:54:33.982Z</time>
      </trkpt>
      <trkpt lat="41.39163496265223" lon="2.1730078839941314">
        <ele>31.270308431053657</ele>
        <time>2024-09-02T07:03:07.299Z</time>
      </trkpt>
      <trkpt lat="41.392365000000005" lon="2.1720650000000004">
        <ele>39.586140805331446</ele>
        <time>2024-09-02T07:04:19.530Z</time>
      </trkpt>
      <trkpt lat="41.39229333333333" lon="2.171815">
        <ele>4.25373742136599</ele>
        <time>2024-09-02T07:56:14.101Z</time>
      </trkpt>
      <trkpt lat="41.39221666666667" lon="2.171673333333333">
        <ele>0.45395383544153134</ele>
        <time>2024-09-02T07:56:18.101Z</time>
      </trkpt>
      <trkpt lat="41.392141666666674" lon="2.1714716666666667">
        <ele>-2.4457726185655346</ele>
        <time>2024-09-02T07:56:22.101Z</time>
      </trkpt>
      <trkpt lat="41.39192666666666" lon="2.171113333333333">
        <ele>-9.945216468559614</ele>
        <time>2024-09-02T07:56:33.105Z</time>
      </trkpt>
      <trkpt lat="41.39188833333333" lon="2.1709933333333336">
        <ele>-12.345028798163568</ele>
        <time>2024-09-02T07:56:38.095Z</time>
      </trkpt>
      <trkpt lat="41.391823333333335" lon="2.1709266666666664">
        <ele>-13.744944148783276</ele>
        <time>2024-09-02T07:56:41.104Z</time>
      </trkpt>
      <trkpt lat="41.39167166666666" lon="2.170715">
        <ele>-13.444657577477415</ele>
        <time>2024-09-02T07:56:50.095Z</time>
      </trkpt>
      <trkpt lat="41.391510000000004" lon="2.170575">
        <ele>-12.844488935318118</ele>
        <time>2024-09-02T07:57:01.108Z</time>
      </trkpt>
      <trkpt lat="41.39147666666666" lon="2.1704833333333338">
        <ele>-13.04436651877949</ele>
        <time>2024-09-02T07:57:07.105Z</time>
      </trkpt>
      <trkpt lat="41.391400000000004" lon="2.1703683333333337">
        <ele>-13.244209807979765</ele>
        <time>2024-09-02T07:57:15.105Z</time>
      </trkpt>
      <trkpt lat="41.391303333333326" lon="2.1702999999999997">
        <ele>-8.144113023171379</ele>
        <time>2024-09-02T07:57:22.095Z</time>
      </trkpt>
      <trkpt lat="41.391128333333334" lon="2.170058333333333">
        <ele>-4.943818551768629</ele>
        <time>2024-09-02T07:57:38.092Z</time>
      </trkpt>
      <trkpt lat="41.391036666666665" lon="2.1699766666666664">
        <ele>-5.04373027499966</ele>
        <time>2024-09-02T07:57:41.111Z</time>
      </trkpt>
      <trkpt lat="41.39097666666667" lon="2.1698250000000003">
        <ele>-5.843512897310127</ele>
        <time>2024-09-02T07:57:45.101Z</time>
      </trkpt>
      <trkpt lat="41.39079" lon="2.1696250000000004">
        <ele>-2.9432502834911745</ele>
        <time>2024-09-02T07:57:51.095Z</time>
      </trkpt>
      <trkpt lat="41.39066166666667" lon="2.1694383333333334">
        <ele>2.5569715462143137</ele>
        <time>2024-09-02T07:57:56.105Z</time>
      </trkpt>
      <trkpt lat="41.39059666666667" lon="2.1693016666666667">
        <ele>8.457192075087569</ele>
        <time>2024-09-02T07:58:00.085Z</time>
      </trkpt>
      <trkpt lat="41.39050666666667" lon="2.169208333333333">
        <ele>10.05732009976748</ele>
        <time>2024-09-02T07:58:04.098Z</time>
      </trkpt>
      <trkpt lat="41.39040833333333" lon="2.16907">
        <ele>8.75750202177231</ele>
        <time>2024-09-02T07:58:09.105Z</time>
      </trkpt>
      <trkpt lat="41.39029000000001" lon="2.1688533333333333">
        <ele>6.457811825287543</ele>
        <time>2024-09-02T07:58:20.095Z</time>
      </trkpt>
      <trkpt lat="41.39023166666666" lon="2.1688016666666665">
        <ele>7.257902770648059</ele>
        <time>2024-09-02T07:58:26.105Z</time>
      </trkpt>
      <trkpt lat="41.39015666666666" lon="2.1686683333333336">
        <ele>7.258061679147019</ele>
        <time>2024-09-02T07:58:34.099Z</time>
      </trkpt>
      <trkpt lat="41.39006666666668" lon="2.168585">
        <ele>7.858171139934321</ele>
        <time>2024-09-02T07:58:41.076Z</time>
      </trkpt>
      <trkpt lat="41.39000666666667" lon="2.1685616666666667">
        <ele>5.558190904997183</ele>
        <time>2024-09-02T07:58:45.055Z</time>
      </trkpt>
      <trkpt lat="41.38995" lon="2.1684833333333335">
        <ele>2.8582946972242382</ele>
        <time>2024-09-02T07:58:52.072Z</time>
      </trkpt>
      <trkpt lat="41.38995" lon="2.168406666666667">
        <ele>1.3583935981817632</ele>
        <time>2024-09-02T07:58:57.082Z</time>
      </trkpt>
      <trkpt lat="41.38992499999999" lon="2.1683749999999997">
        <ele>3.058453914837891</ele>
        <time>2024-09-02T07:58:59.098Z</time>
      </trkpt>
      <trkpt lat="41.389921666666666" lon="2.1683033333333332">
        <ele>4.358560860291817</ele>
        <time>2024-09-02T07:59:02.072Z</time>
      </trkpt>
      <trkpt lat="41.389878333333336" lon="2.1682550000000003">
        <ele>7.1586449158578915</ele>
        <time>2024-09-02T07:59:06.095Z</time>
      </trkpt>
      <trkpt lat="41.389876666666666" lon="2.1682283333333334">
        <ele>8.158679892537222</ele>
        <time>2024-09-02T07:59:08.095Z</time>
      </trkpt>
      <trkpt lat="41.38978166666667" lon="2.168178333333333">
        <ele>10.458726172530817</ele>
        <time>2024-09-02T07:59:13.092Z</time>
      </trkpt>
      <trkpt lat="41.389716666666665" lon="2.168118333333333">
        <ele>11.458774866077029</ele>
        <time>2024-09-02T07:59:15.096Z</time>
      </trkpt>
      <trkpt lat="41.389616666666676" lon="2.1679733333333333">
        <ele>12.858948589703658</ele>
        <time>2024-09-02T07:59:19.112Z</time>
      </trkpt>
      <trkpt lat="41.389603333333326" lon="2.16792">
        <ele>13.259066783481543</ele>
        <time>2024-09-02T07:59:23.105Z</time>
      </trkpt>
      <trkpt lat="41.389604999999996" lon="2.1679016666666664">
        <ele>13.359089696997131</ele>
        <time>2024-09-02T07:59:24.108Z</time>
      </trkpt>
      <trkpt lat="41.389673333333334" lon="2.167858333333333">
        <ele>14.259181715769436</ele>
        <time>2024-09-02T07:59:27.102Z</time>
      </trkpt>
      <trkpt lat="41.389751666666676" lon="2.1677516666666667">
        <ele>14.75941078428005</ele>
        <time>2024-09-02T07:59:31.081Z</time>
      </trkpt>
      <trkpt lat="41.38982333333333" lon="2.1675683333333335">
        <ele>15.959700176620963</ele>
        <time>2024-09-02T07:59:35.108Z</time>
      </trkpt>
      <trkpt lat="41.389941666666665" lon="2.1673899999999997">
        <ele>16.66000284674145</ele>
        <time>2024-09-02T07:59:38.073Z</time>
      </trkpt>
      <trkpt lat="41.39025333333334" lon="2.1670516666666666">
        <ele>16.66075501646175</ele>
        <time>2024-09-02T07:59:44.094Z</time>
      </trkpt>
      <trkpt lat="41.390350000000005" lon="2.1669150000000004">
        <ele>16.76106663576803</ele>
        <time>2024-09-02T07:59:47.096Z</time>
      </trkpt>
      <trkpt lat="41.390451666666664" lon="2.166838333333333">
        <ele>16.76125765481717</ele>
        <time>2024-09-02T07:59:50.107Z</time>
      </trkpt>
      <trkpt lat="41.39067333333334" lon="2.166575">
        <ele>17.661799804687483</ele>
        <time>2024-09-02T07:59:57.091Z</time>
      </trkpt>
      <trkpt lat="41.39079666666667" lon="2.166455">
        <ele>18.062100296793787</ele>
        <time>2024-09-02T08:00:03.078Z</time>
      </trkpt>
      <trkpt lat="41.39082499999999" lon="2.166415">
        <ele>18.16218597993808</ele>
        <time>2024-09-02T08:00:05.096Z</time>
      </trkpt>
      <trkpt lat="41.39081666666666" lon="2.1663783333333333">
        <ele>18.162252746063594</ele>
        <time>2024-09-02T08:00:07.075Z</time>
      </trkpt>
      <trkpt lat="41.39082833333334" lon="2.166333333333333">
        <ele>17.26233036528872</ele>
        <time>2024-09-02T08:00:11.085Z</time>
      </trkpt>
      <trkpt lat="41.39089333333333" lon="2.166218333333333">
        <ele>18.36255562974049</ele>
        <time>2024-09-02T08:00:18.085Z</time>
      </trkpt>
      <trkpt lat="41.39093166666667" lon="2.1660933333333334">
        <ele>19.5627905419069</ele>
        <time>2024-09-02T08:00:25.072Z</time>
      </trkpt>
      <trkpt lat="41.391015" lon="2.165931666666667">
        <ele>20.36312445094093</ele>
        <time>2024-09-02T08:00:36.419Z</time>
      </trkpt>
      <trkpt lat="41.39089520216368" lon="2.1658254400940677">
        <ele>40.68001644588147</ele>
        <time>2024-09-02T08:00:44.959Z</time>
      </trkpt>
      <trkpt lat="41.390993447232006" lon="2.1657043534182208">
        <ele>41.36533792990528</ele>
        <time>2024-09-02T08:00:52.900Z</time>
      </trkpt>
      <trkpt lat="41.390993333333334" lon="2.165585">
        <ele>29.463663752398958</ele>
        <time>2024-09-02T08:04:54.588Z</time>
      </trkpt>
      <trkpt lat="41.39051666666666" lon="2.164946666666667">
        <ele>31.76453554830877</ele>
        <time>2024-09-02T08:05:48.607Z</time>
      </trkpt>
      <trkpt lat="41.390481666666666" lon="2.1648516666666664">
        <ele>28.364658091600162</ele>
        <time>2024-09-02T08:05:54.617Z</time>
      </trkpt>
      <trkpt lat="41.39039833333333" lon="2.164738333333333">
        <ele>25.764823993121567</ele>
        <time>2024-09-02T08:06:02.568Z</time>
      </trkpt>
      <trkpt lat="41.390385" lon="2.164695">
        <ele>25.96487744028977</ele>
        <time>2024-09-02T08:06:04.584Z</time>
      </trkpt>
      <trkpt lat="41.39041666666667" lon="2.1645733333333337">
        <ele>27.66508411250851</ele>
        <time>2024-09-02T08:06:10.584Z</time>
      </trkpt>
      <trkpt lat="41.39047166666666" lon="2.1644433333333333">
        <ele>30.165354431401205</ele>
        <time>2024-09-02T08:06:16.568Z</time>
      </trkpt>
      <trkpt lat="41.39046666666666" lon="2.1643850000000002">
        <ele>30.76545694798942</ele>
        <time>2024-09-02T08:06:21.558Z</time>
      </trkpt>
      <trkpt lat="41.39106" lon="2.16354">
        <ele>24.567169618047494</ele>
        <time>2024-09-02T08:07:32.571Z</time>
      </trkpt>
      <trkpt lat="41.39109833333334" lon="2.163431666666667">
        <ele>26.767365599329835</ele>
        <time>2024-09-02T08:07:39.568Z</time>
      </trkpt>
      <trkpt lat="41.391056666666664" lon="2.16328">
        <ele>27.56758066602385</ele>
        <time>2024-09-02T08:07:46.597Z</time>
      </trkpt>
      <trkpt lat="41.39097666666667" lon="2.163125">
        <ele>28.46779679474021</ele>
        <time>2024-09-02T08:07:51.564Z</time>
      </trkpt>
      <trkpt lat="41.390890000000006" lon="2.16316">
        <ele>28.767771166818648</ele>
        <time>2024-09-02T08:07:54.584Z</time>
      </trkpt>
      <trkpt lat="41.390876666666664" lon="2.163143333333333">
        <ele>28.567749758452962</ele>
        <time>2024-09-02T08:07:55.565Z</time>
      </trkpt>
      <trkpt lat="41.39079" lon="2.16315">
        <ele>27.067723322340278</ele>
        <time>2024-09-02T08:07:59.568Z</time>
      </trkpt>
      <trkpt lat="41.39073666666666" lon="2.16299">
        <ele>30.567931781732796</ele>
        <time>2024-09-02T08:08:06.577Z</time>
      </trkpt>
      <trkpt lat="41.390674999999995" lon="2.1629883333333333">
        <ele>30.96794124669026</ele>
        <time>2024-09-02T08:08:09.571Z</time>
      </trkpt>
      <trkpt lat="41.39065333333333" lon="2.162945">
        <ele>31.26797570147977</ele>
        <time>2024-09-02T08:08:12.569Z</time>
      </trkpt>
      <trkpt lat="41.39061166666667" lon="2.1629283333333333">
        <ele>31.167987212067743</ele>
        <time>2024-09-02T08:08:15.549Z</time>
      </trkpt>
      <trkpt lat="41.390595" lon="2.1628583333333333">
        <ele>31.86808806126404</ele>
        <time>2024-09-02T08:08:18.548Z</time>
      </trkpt>
      <trkpt lat="41.390565" lon="2.1628516666666666">
        <ele>31.568114112756973</ele>
        <time>2024-09-02T08:08:20.561Z</time>
      </trkpt>
      <trkpt lat="41.39052" lon="2.1626733333333332">
        <ele>32.36834709603981</ele>
        <time>2024-09-02T08:08:26.552Z</time>
      </trkpt>
      <trkpt lat="41.39045833333333" lon="2.1626499999999997">
        <ele>32.7684043899542</ele>
        <time>2024-09-02T08:08:29.558Z</time>
      </trkpt>
      <trkpt lat="41.390440000000005" lon="2.1625900000000002">
        <ele>33.068472220132165</ele>
        <time>2024-09-02T08:08:32.565Z</time>
      </trkpt>
      <trkpt lat="41.39029666666667" lon="2.162535">
        <ele>30.068502610954454</ele>
        <time>2024-09-02T08:08:42.558Z</time>
      </trkpt>
      <trkpt lat="41.390275" lon="2.1624783333333335">
        <ele>29.76857124392029</ele>
        <time>2024-09-02T08:08:45.557Z</time>
      </trkpt>
      <trkpt lat="41.39018833333333" lon="2.162393333333333">
        <ele>28.66869271552767</ele>
        <time>2024-09-02T08:08:52.561Z</time>
      </trkpt>
      <trkpt lat="41.39015833333333" lon="2.162315">
        <ele>27.668785424673374</ele>
        <time>2024-09-02T08:08:55.561Z</time>
      </trkpt>
      <trkpt lat="41.39016166666667" lon="2.1622633333333336">
        <ele>27.868868215947103</ele>
        <time>2024-09-02T08:08:57.569Z</time>
      </trkpt>
      <trkpt lat="41.39013333333334" lon="2.1622483333333333">
        <ele>27.768914377974667</ele>
        <time>2024-09-02T08:08:59.565Z</time>
      </trkpt>
      <trkpt lat="41.390080000000005" lon="2.162175">
        <ele>27.86900497636058</ele>
        <time>2024-09-02T08:09:05.565Z</time>
      </trkpt>
      <trkpt lat="41.38991333333333" lon="2.1621433333333333">
        <ele>30.668993393037553</ele>
        <time>2024-09-02T08:09:16.591Z</time>
      </trkpt>
      <trkpt lat="41.38984666666667" lon="2.1621733333333335">
        <ele>30.668932816899357</ele>
        <time>2024-09-02T08:09:21.598Z</time>
      </trkpt>
      <trkpt lat="41.389815" lon="2.1621633333333334">
        <ele>29.66890934792496</ele>
        <time>2024-09-02T08:09:25.601Z</time>
      </trkpt>
      <trkpt lat="41.389808333333335" lon="2.1621433333333333">
        <ele>27.468933805798805</ele>
        <time>2024-09-02T08:09:29.578Z</time>
      </trkpt>
      <trkpt lat="41.389825" lon="2.1621466666666667">
        <ele>26.8689402433464</ele>
        <time>2024-09-02T08:09:31.605Z</time>
      </trkpt>
      <trkpt lat="41.38986333333334" lon="2.1620733333333333">
        <ele>24.96905378999599</ele>
        <time>2024-09-02T08:09:37.610Z</time>
      </trkpt>
      <trkpt lat="41.389876666666666" lon="2.1619083333333333">
        <ele>28.569332793259647</ele>
        <time>2024-09-02T08:09:43.601Z</time>
      </trkpt>
      <trkpt lat="41.38989" lon="2.161895">
        <ele>29.66937017797268</ele>
        <time>2024-09-02T08:09:44.552Z</time>
      </trkpt>
      <trkpt lat="41.389829999999996" lon="2.16173">
        <ele>34.66960633390963</ele>
        <time>2024-09-02T08:09:52.594Z</time>
      </trkpt>
      <trkpt lat="41.38975333333333" lon="2.1616316666666666">
        <ele>35.86975791734863</ele>
        <time>2024-09-02T08:09:57.601Z</time>
      </trkpt>
      <trkpt lat="41.38972833333334" lon="2.16162">
        <ele>35.06976175347336</ele>
        <time>2024-09-02T08:09:59.564Z</time>
      </trkpt>
      <trkpt lat="41.389669999999995" lon="2.1616333333333335">
        <ele>33.76975027862895</ele>
        <time>2024-09-02T08:10:02.597Z</time>
      </trkpt>
      <trkpt lat="41.38963333333333" lon="2.16162">
        <ele>33.069755737590704</ele>
        <time>2024-09-02T08:10:05.594Z</time>
      </trkpt>
      <trkpt lat="41.389608333333335" lon="2.1615816666666663">
        <ele>31.569782076317352</ele>
        <time>2024-09-02T08:10:09.578Z</time>
      </trkpt>
      <trkpt lat="41.389518333333335" lon="2.16158">
        <ele>29.769757992049982</ele>
        <time>2024-09-02T08:10:15.600Z</time>
      </trkpt>
      <trkpt lat="41.389444999999995" lon="2.16153">
        <ele>27.969803037242222</ele>
        <time>2024-09-02T08:10:23.587Z</time>
      </trkpt>
      <trkpt lat="41.38929499999999" lon="2.1613033333333336">
        <ele>28.170094802250745</ele>
        <time>2024-09-02T08:10:33.552Z</time>
      </trkpt>
      <trkpt lat="41.389210000000006" lon="2.1610633333333333">
        <ele>31.07044468959925</ele>
        <time>2024-09-02T08:10:44.585Z</time>
      </trkpt>
      <trkpt lat="41.38899500000001" lon="2.160795">
        <ele>28.570808347477332</ele>
        <time>2024-09-02T08:11:04.600Z</time>
      </trkpt>
      <trkpt lat="41.38897" lon="2.160751666666667">
        <ele>28.37085721197537</ele>
        <time>2024-09-02T08:11:07.598Z</time>
      </trkpt>
      <trkpt lat="41.38897" lon="2.1607183333333335">
        <ele>27.77092626052503</ele>
        <time>2024-09-02T08:11:10.600Z</time>
      </trkpt>
      <trkpt lat="41.38881500000001" lon="2.160483333333333">
        <ele>25.671234346302086</ele>
        <time>2024-09-02T08:11:30.614Z</time>
      </trkpt>
      <trkpt lat="41.38868333333333" lon="2.1603766666666666">
        <ele>25.771360139795227</ele>
        <time>2024-09-02T08:11:39.559Z</time>
      </trkpt>
      <trkpt lat="41.388645" lon="2.1603233333333334">
        <ele>26.471442657956494</ele>
        <time>2024-09-02T08:11:43.595Z</time>
      </trkpt>
      <trkpt lat="41.38862833333333" lon="2.160251666666667">
        <ele>26.771527238965923</ele>
        <time>2024-09-02T08:11:48.600Z</time>
      </trkpt>
      <trkpt lat="41.38859666666667" lon="2.16023">
        <ele>26.971556402436043</ele>
        <time>2024-09-02T08:11:50.601Z</time>
      </trkpt>
      <trkpt lat="41.3886" lon="2.1601933333333334">
        <ele>27.271610191199677</ele>
        <time>2024-09-02T08:11:52.585Z</time>
      </trkpt>
      <trkpt lat="41.388526666666664" lon="2.1601566666666665">
        <ele>27.971674949392288</ele>
        <time>2024-09-02T08:11:58.597Z</time>
      </trkpt>
      <trkpt lat="41.388515000000005" lon="2.1601083333333335">
        <ele>28.171728597498436</ele>
        <time>2024-09-02T08:12:01.604Z</time>
      </trkpt>
      <trkpt lat="41.388466666666666" lon="2.1600800000000002">
        <ele>27.571761310811887</ele>
        <time>2024-09-02T08:12:06.598Z</time>
      </trkpt>
      <trkpt lat="41.38843166666667" lon="2.1599966666666663">
        <ele>26.771862233358924</ele>
        <time>2024-09-02T08:12:11.611Z</time>
      </trkpt>
      <trkpt lat="41.38839333333333" lon="2.1599816666666665">
        <ele>26.57189619738557</ele>
        <time>2024-09-02T08:12:14.602Z</time>
      </trkpt>
      <trkpt lat="41.38837" lon="2.1599166666666667">
        <ele>26.37196670398081</ele>
        <time>2024-09-02T08:12:17.617Z</time>
      </trkpt>
      <trkpt lat="41.38831666666667" lon="2.159873333333333">
        <ele>26.672032256769995</ele>
        <time>2024-09-02T08:12:22.601Z</time>
      </trkpt>
      <trkpt lat="41.38813333333333" lon="2.1598233333333337">
        <ele>27.972043609481318</ele>
        <time>2024-09-02T08:12:35.585Z</time>
      </trkpt>
      <trkpt lat="41.388058333333326" lon="2.159768333333333">
        <ele>28.672099318146593</ele>
        <time>2024-09-02T08:12:41.598Z</time>
      </trkpt>
      <trkpt lat="41.388085000000004" lon="2.1596933333333337">
        <ele>31.872213442052676</ele>
        <time>2024-09-02T08:12:51.564Z</time>
      </trkpt>
      <trkpt lat="41.38815666666666" lon="2.1596100000000003">
        <ele>34.7723667677663</ele>
        <time>2024-09-02T08:12:58.561Z</time>
      </trkpt>
      <trkpt lat="41.38814166666666" lon="2.1594866666666666">
        <ele>36.37255515831688</ele>
        <time>2024-09-02T08:13:02.578Z</time>
      </trkpt>
      <trkpt lat="41.38809166666667" lon="2.159345">
        <ele>36.77280736920198</ele>
        <time>2024-09-02T08:13:07.588Z</time>
      </trkpt>
      <trkpt lat="41.387924999999996" lon="2.1591566666666666">
        <ele>41.27305360887073</ele>
        <time>2024-09-02T08:13:29.610Z</time>
      </trkpt>
      <trkpt lat="41.38791333333334" lon="2.15912">
        <ele>40.87310086007484</ele>
        <time>2024-09-02T08:13:32.600Z</time>
      </trkpt>
      <trkpt lat="41.38781666666667" lon="2.1589933333333335">
        <ele>38.87326766114134</ele>
        <time>2024-09-02T08:13:43.604Z</time>
      </trkpt>
      <trkpt lat="41.387361666666656" lon="2.1584266666666663">
        <ele>38.07400063380699</ele>
        <time>2024-09-02T08:14:19.604Z</time>
      </trkpt>
      <trkpt lat="41.387328333333336" lon="2.1584383333333337">
        <ele>38.773974279508366</ele>
        <time>2024-09-02T08:14:25.605Z</time>
      </trkpt>
      <trkpt lat="41.38661833333334" lon="2.1574983333333337">
        <ele>14.475221166517557</ele>
        <time>2024-09-02T08:15:39.601Z</time>
      </trkpt>
      <trkpt lat="41.386541666666666" lon="2.157521666666667">
        <ele>16.575158556191532</ele>
        <time>2024-09-02T08:15:43.608Z</time>
      </trkpt>
      <trkpt lat="41.386476666666674" lon="2.157496666666667">
        <ele>17.075140343528886</ele>
        <time>2024-09-02T08:15:47.607Z</time>
      </trkpt>
      <trkpt lat="41.386451666666666" lon="2.1574683333333335">
        <ele>20.775177013360853</ele>
        <time>2024-09-02T08:15:49.604Z</time>
      </trkpt>
      <trkpt lat="41.38635833333333" lon="2.1573149999999996">
        <ele>23.775366033272327</ele>
        <time>2024-09-02T08:15:56.604Z</time>
      </trkpt>
      <trkpt lat="41.38630833333333" lon="2.1571933333333333">
        <ele>26.47555450566678</ele>
        <time>2024-09-02T08:16:01.584Z</time>
      </trkpt>
      <trkpt lat="41.386235000000006" lon="2.157128333333333">
        <ele>23.77564694733794</ele>
        <time>2024-09-02T08:16:09.581Z</time>
      </trkpt>
      <trkpt lat="41.386226666666666" lon="2.1570683333333336">
        <ele>22.375731900134205</ele>
        <time>2024-09-02T08:16:13.567Z</time>
      </trkpt>
      <trkpt lat="41.386179999999996" lon="2.1569583333333333">
        <ele>19.47590558931605</ele>
        <time>2024-09-02T08:16:23.572Z</time>
      </trkpt>
      <trkpt lat="41.38566333333333" lon="2.1562983333333334">
        <ele>9.676764970561756</ele>
        <time>2024-09-02T08:17:27.569Z</time>
      </trkpt>
      <trkpt lat="41.38568" lon="2.156203333333333">
        <ele>10.176904604201724</ele>
        <time>2024-09-02T08:17:34.585Z</time>
      </trkpt>
      <trkpt lat="41.38567166666667" lon="2.156115">
        <ele>11.377040508988216</ele>
        <time>2024-09-02T08:17:37.578Z</time>
      </trkpt>
      <trkpt lat="41.385650000000005" lon="2.1560333333333332">
        <ele>14.47716262717551</ele>
        <time>2024-09-02T08:17:40.591Z</time>
      </trkpt>
      <trkpt lat="41.38561166666667" lon="2.1559616666666668">
        <ele>20.677283817860392</ele>
        <time>2024-09-02T08:17:44.607Z</time>
      </trkpt>
      <trkpt lat="41.38509333333333" lon="2.1553066666666667">
        <ele>25.378139716790265</ele>
        <time>2024-09-02T08:18:40.614Z</time>
      </trkpt>
      <trkpt lat="41.384996666666666" lon="2.155155">
        <ele>25.978341651671705</ele>
        <time>2024-09-02T08:18:49.585Z</time>
      </trkpt>
      <trkpt lat="41.38501333333333" lon="2.15497">
        <ele>26.27866830339829</ele>
        <time>2024-09-02T08:18:56.588Z</time>
      </trkpt>
      <trkpt lat="41.38495833333333" lon="2.154796666666667">
        <ele>26.378927956895893</ele>
        <time>2024-09-02T08:19:09.594Z</time>
      </trkpt>
      <trkpt lat="41.38496833333333" lon="2.1547199999999997">
        <ele>26.079052229970422</ele>
        <time>2024-09-02T08:19:14.598Z</time>
      </trkpt>
      <trkpt lat="41.385101666666664" lon="2.154456666666667">
        <ele>29.179576263783368</ele>
        <time>2024-09-02T08:19:32.561Z</time>
      </trkpt>
      <trkpt lat="41.385278333333325" lon="2.154256666666667">
        <ele>35.679991764617036</ele>
        <time>2024-09-02T08:19:49.561Z</time>
      </trkpt>
      <trkpt lat="41.38529666666667" lon="2.1541366666666666">
        <ele>35.28021054771203</ele>
        <time>2024-09-02T08:19:57.568Z</time>
      </trkpt>
      <trkpt lat="41.38527333333333" lon="2.154116666666667">
        <ele>35.18025052842576</ele>
        <time>2024-09-02T08:20:00.578Z</time>
      </trkpt>
      <trkpt lat="41.38517" lon="2.1539116666666667">
        <ele>30.88053595682979</ele>
        <time>2024-09-02T08:20:14.561Z</time>
      </trkpt>
      <trkpt lat="41.38485833333334" lon="2.1532233333333335">
        <ele>22.381545299458878</ele>
        <time>2024-09-02T08:21:01.608Z</time>
      </trkpt>
      <trkpt lat="41.38482666666667" lon="2.153205">
        <ele>20.881562684844837</ele>
        <time>2024-09-02T08:21:06.588Z</time>
      </trkpt>
      <trkpt lat="41.384750000000004" lon="2.153045">
        <ele>17.78176140206466</ele>
        <time>2024-09-02T08:21:16.567Z</time>
      </trkpt>
      <trkpt lat="41.38466833333334" lon="2.152978333333333">
        <ele>16.28185384638695</ele>
        <time>2024-09-02T08:21:21.592Z</time>
      </trkpt>
      <trkpt lat="41.384634999999996" lon="2.1529716666666667">
        <ele>15.58186780594216</ele>
        <time>2024-09-02T08:21:24.567Z</time>
      </trkpt>
      <trkpt lat="41.38457833333334" lon="2.1528983333333334">
        <ele>15.481942518984987</ele>
        <time>2024-09-02T08:21:32.567Z</time>
      </trkpt>
      <trkpt lat="41.38453333333334" lon="2.1527833333333333">
        <ele>14.582103019530507</ele>
        <time>2024-09-02T08:21:38.601Z</time>
      </trkpt>
      <trkpt lat="41.384505000000004" lon="2.152765">
        <ele>14.882144338435403</ele>
        <time>2024-09-02T08:21:42.555Z</time>
      </trkpt>
      <trkpt lat="41.38449333333333" lon="2.152731666666667">
        <ele>14.882183469307371</ele>
        <time>2024-09-02T08:21:45.584Z</time>
      </trkpt>
      <trkpt lat="41.38420666666666" lon="2.1523600000000003">
        <ele>11.08266730511182</ele>
        <time>2024-09-02T08:22:16.848Z</time>
      </trkpt>
      <trkpt lat="41.383895" lon="2.1517983333333333">
        <ele>29.08345024062708</ele>
        <time>2024-09-02T08:23:48.321Z</time>
      </trkpt>
      <trkpt lat="41.38383166666667" lon="2.151641666666667">
        <ele>27.383688512259972</ele>
        <time>2024-09-02T08:23:56.311Z</time>
      </trkpt>
      <trkpt lat="41.383691666666664" lon="2.1514533333333334">
        <ele>19.783950274527157</ele>
        <time>2024-09-02T08:24:18.327Z</time>
      </trkpt>
      <trkpt lat="41.38366333333333" lon="2.1513833333333334">
        <ele>17.88404645619039</ele>
        <time>2024-09-02T08:24:27.341Z</time>
      </trkpt>
      <trkpt lat="41.38321166666666" lon="2.1508066666666665">
        <ele>45.440753320139734</ele>
        <time>2024-09-02T08:25:15.949Z</time>
      </trkpt>
      <trkpt lat="41.38310666666666" lon="2.1507283333333334">
        <ele>6.7848760672494635</ele>
        <time>2024-09-02T08:25:43.334Z</time>
      </trkpt>
      <trkpt lat="41.38306333333333" lon="2.1506600000000002">
        <ele>7.184948134628215</ele>
        <time>2024-09-02T08:25:46.335Z</time>
      </trkpt>
      <trkpt lat="41.382991666666676" lon="2.1504666666666665">
        <ele>9.185212125778165</ele>
        <time>2024-09-02T08:25:51.338Z</time>
      </trkpt>
      <trkpt lat="41.382760000000005" lon="2.15005">
        <ele>21.88581785478688</ele>
        <time>2024-09-02T08:26:11.327Z</time>
      </trkpt>
      <trkpt lat="41.38258333333333" lon="2.1498399999999998">
        <ele>29.486105987046827</ele>
        <time>2024-09-02T08:26:24.344Z</time>
      </trkpt>
      <trkpt lat="41.38251333333333" lon="2.1498166666666667">
        <ele>30.186121147103876</ele>
        <time>2024-09-02T08:26:27.338Z</time>
      </trkpt>
      <trkpt lat="41.38245666666667" lon="2.14982">
        <ele>29.886098067901706</ele>
        <time>2024-09-02T08:26:31.341Z</time>
      </trkpt>
      <trkpt lat="41.382416666666664" lon="2.149775">
        <ele>29.286130862879098</ele>
        <time>2024-09-02T08:26:34.344Z</time>
      </trkpt>
      <trkpt lat="41.38235833333333" lon="2.149761666666667">
        <ele>29.186152612812336</ele>
        <time>2024-09-02T08:26:37.331Z</time>
      </trkpt>
      <trkpt lat="41.38231333333333" lon="2.149713333333333">
        <ele>29.28618342406196</ele>
        <time>2024-09-02T08:26:40.337Z</time>
      </trkpt>
      <trkpt lat="41.382078333333325" lon="2.1493483333333336">
        <ele>28.986678220011115</ele>
        <time>2024-09-02T08:27:02.338Z</time>
      </trkpt>
      <trkpt lat="41.381845000000006" lon="2.149061666666667">
        <ele>33.78705014011549</ele>
        <time>2024-09-02T08:27:32.335Z</time>
      </trkpt>
      <trkpt lat="41.38185166666667" lon="2.149015">
        <ele>34.087117687388115</ele>
        <time>2024-09-02T08:27:35.338Z</time>
      </trkpt>
      <trkpt lat="41.381735" lon="2.1488633333333333">
        <ele>36.18732816028603</ele>
        <time>2024-09-02T08:27:50.334Z</time>
      </trkpt>
      <trkpt lat="41.381346666666666" lon="2.1483666666666665">
        <ele>53.88790816135686</ele>
        <time>2024-09-02T08:28:15.319Z</time>
      </trkpt>
      <trkpt lat="41.38129666666667" lon="2.1483866666666667">
        <ele>53.38795253808292</ele>
        <time>2024-09-02T08:28:18.325Z</time>
      </trkpt>
      <trkpt lat="41.38127166666666" lon="2.1483766666666666">
        <ele>52.48794327794198</ele>
        <time>2024-09-02T08:28:21.318Z</time>
      </trkpt>
      <trkpt lat="41.38127666666666" lon="2.148353333333333">
        <ele>51.58795709904816</ele>
        <time>2024-09-02T08:28:23.322Z</time>
      </trkpt>
      <trkpt lat="41.38125333333334" lon="2.148276666666667">
        <ele>50.188078790860324</ele>
        <time>2024-09-02T08:28:31.332Z</time>
      </trkpt>
      <trkpt lat="41.381205" lon="2.148213333333333">
        <ele>49.28814792659649</ele>
        <time>2024-09-02T08:28:35.318Z</time>
      </trkpt>
      <trkpt lat="41.38118833333333" lon="2.1481483333333333">
        <ele>46.08827025752322</ele>
        <time>2024-09-02T08:28:43.327Z</time>
      </trkpt>
      <trkpt lat="41.38122666666666" lon="2.14813">
        <ele>43.6883042183546</ele>
        <time>2024-09-02T08:28:46.308Z</time>
      </trkpt>
      <trkpt lat="41.38124500000001" lon="2.14808">
        <ele>38.8883994562388</ele>
        <time>2024-09-02T08:28:51.338Z</time>
      </trkpt>
      <trkpt lat="41.38127833333333" lon="2.1480699999999997">
        <ele>37.48843984510631</ele>
        <time>2024-09-02T08:28:54.331Z</time>
      </trkpt>
      <trkpt lat="41.38136166666666" lon="2.1481">
        <ele>38.08843996958699</ele>
        <time>2024-09-02T08:29:01.344Z</time>
      </trkpt>
      <trkpt lat="41.38142166666667" lon="2.1480866666666665">
        <ele>38.688480080282694</ele>
        <time>2024-09-02T08:29:05.334Z</time>
      </trkpt>
      <trkpt lat="41.381988333333325" lon="2.1473516666666668">
        <ele>30.889978557733976</ele>
        <time>2024-09-02T08:29:59.297Z</time>
      </trkpt>
      <trkpt lat="41.38202833333333" lon="2.1473500000000003">
        <ele>30.590014711316954</ele>
        <time>2024-09-02T08:30:04.344Z</time>
      </trkpt>
      <trkpt lat="41.38208666666666" lon="2.1472633333333335">
        <ele>34.6901674237689</ele>
        <time>2024-09-02T08:30:13.328Z</time>
      </trkpt>
      <trkpt lat="41.382078333333325" lon="2.147213333333333">
        <ele>35.790206828821724</ele>
        <time>2024-09-02T08:30:14.311Z</time>
      </trkpt>
      <trkpt lat="41.38205833333333" lon="2.147183333333333">
        <ele>37.29028672180171</ele>
        <time>2024-09-02T08:30:15.341Z</time>
      </trkpt>
      <trkpt lat="41.382001666666675" lon="2.147168333333333">
        <ele>34.49032497848419</ele>
        <time>2024-09-02T08:30:19.331Z</time>
      </trkpt>
      <trkpt lat="41.38198666666667" lon="2.1471216666666666">
        <ele>34.290385387416656</ele>
        <time>2024-09-02T08:30:23.331Z</time>
      </trkpt>
      <trkpt lat="41.381888333333336" lon="2.1470766666666665">
        <ele>30.790409885398326</ele>
        <time>2024-09-02T08:30:29.311Z</time>
      </trkpt>
      <trkpt lat="41.381845000000006" lon="2.1470083333333334">
        <ele>30.190484417298826</ele>
        <time>2024-09-02T08:30:32.289Z</time>
      </trkpt>
      <trkpt lat="41.381805" lon="2.1467983333333334">
        <ele>30.390815580600304</ele>
        <time>2024-09-02T08:30:41.338Z</time>
      </trkpt>
      <trkpt lat="41.381764999999994" lon="2.14669">
        <ele>29.190990602141476</ele>
        <time>2024-09-02T08:30:50.345Z</time>
      </trkpt>
      <trkpt lat="41.38151666666666" lon="2.1460966666666668">
        <ele>32.69185930388537</ele>
        <time>2024-09-02T08:31:24.347Z</time>
      </trkpt>
      <trkpt lat="41.381455" lon="2.1460416666666666">
        <ele>33.19195121260267</ele>
        <time>2024-09-02T08:31:30.347Z</time>
      </trkpt>
      <trkpt lat="41.381415" lon="2.145958333333333">
        <ele>33.19204871578804</ele>
        <time>2024-09-02T08:31:36.347Z</time>
      </trkpt>
      <trkpt lat="41.38140666666666" lon="2.145906666666667">
        <ele>33.89212805355559</ele>
        <time>2024-09-02T08:31:40.355Z</time>
      </trkpt>
      <trkpt lat="41.38144666666667" lon="2.1458583333333334">
        <ele>35.792235580735145</ele>
        <time>2024-09-02T08:31:45.353Z</time>
      </trkpt>
      <trkpt lat="41.38119" lon="2.1451816666666668">
        <ele>35.49324060693158</ele>
        <time>2024-09-02T08:32:26.351Z</time>
      </trkpt>
      <trkpt lat="41.38113166666667" lon="2.1450466666666665">
        <ele>32.89342484196408</ele>
        <time>2024-09-02T08:32:33.311Z</time>
      </trkpt>
      <trkpt lat="41.38109666666666" lon="2.1450716666666665">
        <ele>33.09341051847062</ele>
        <time>2024-09-02T08:32:37.328Z</time>
      </trkpt>
      <trkpt lat="41.38105166666666" lon="2.1450316666666667">
        <ele>36.09341185241199</ele>
        <time>2024-09-02T08:32:43.302Z</time>
      </trkpt>
      <trkpt lat="41.38062333333334" lon="2.1440616666666665">
        <ele>34.79483052635944</ele>
        <time>2024-09-02T08:33:39.337Z</time>
      </trkpt>
      <trkpt lat="41.38032333333334" lon="2.1432966666666666">
        <ele>31.89596924673421</ele>
        <time>2024-09-02T08:34:24.338Z</time>
      </trkpt>
      <trkpt lat="41.38027" lon="2.1432149999999996">
        <ele>32.59609818008938</ele>
        <time>2024-09-02T08:34:32.301Z</time>
      </trkpt>
      <trkpt lat="41.38018999999999" lon="2.143245">
        <ele>32.99602042423534</ele>
        <time>2024-09-02T08:34:38.305Z</time>
      </trkpt>
      <trkpt lat="41.380076666666675" lon="2.1431866666666664">
        <ele>31.196044144881448</ele>
        <time>2024-09-02T08:34:45.298Z</time>
      </trkpt>
      <trkpt lat="41.380031666666675" lon="2.1431366666666665">
        <ele>31.3961003159491</ele>
        <time>2024-09-02T08:34:49.298Z</time>
      </trkpt>
      <trkpt lat="41.37996166666667" lon="2.1428983333333336">
        <ele>34.396441385236265</ele>
        <time>2024-09-02T08:35:02.315Z</time>
      </trkpt>
      <trkpt lat="41.37996" lon="2.1428599999999998">
        <ele>35.49652311733815</ele>
        <time>2024-09-02T08:35:04.350Z</time>
      </trkpt>
      <trkpt lat="41.37997666666667" lon="2.142845">
        <ele>35.59654353341525</ele>
        <time>2024-09-02T08:35:05.344Z</time>
      </trkpt>
      <trkpt lat="41.37990833333333" lon="2.1426483333333333">
        <ele>36.89685343159948</ele>
        <time>2024-09-02T08:35:20.335Z</time>
      </trkpt>
      <trkpt lat="41.37979" lon="2.1424366666666668">
        <ele>34.09713974849204</ele>
        <time>2024-09-02T08:35:33.312Z</time>
      </trkpt>
      <trkpt lat="41.379515000000005" lon="2.1420966666666668">
        <ele>34.39759556276299</ele>
        <time>2024-09-02T08:36:00.304Z</time>
      </trkpt>
      <trkpt lat="41.37934666666667" lon="2.1419466666666667">
        <ele>42.19773698342809</ele>
        <time>2024-09-02T08:36:14.308Z</time>
      </trkpt>
      <trkpt lat="41.37927666666666" lon="2.1420666666666666">
        <ele>42.09755636695995</ele>
        <time>2024-09-02T08:36:19.305Z</time>
      </trkpt>
      <trkpt lat="41.379235" lon="2.142035">
        <ele>40.7975524968238</ele>
        <time>2024-09-02T08:36:23.298Z</time>
      </trkpt>
      <trkpt lat="41.379198333333335" lon="2.1420766666666666">
        <ele>41.29751827407396</ele>
        <time>2024-09-02T08:36:26.304Z</time>
      </trkpt>
      <trkpt lat="41.37908666666667" lon="2.142033333333333">
        <ele>39.49749100131397</ele>
        <time>2024-09-02T08:36:34.298Z</time>
      </trkpt>
      <trkpt lat="41.379036666666664" lon="2.141965">
        <ele>37.29757059577372</ele>
        <time>2024-09-02T08:36:40.308Z</time>
      </trkpt>
      <trkpt lat="41.379018333333335" lon="2.141971666666667">
        <ele>36.897570947525566</ele>
        <time>2024-09-02T08:36:46.341Z</time>
      </trkpt>
      <trkpt lat="41.37901166666667" lon="2.1419566666666667">
        <ele>36.69757124378067</ele>
        <time>2024-09-02T08:36:48.321Z</time>
      </trkpt>
      <trkpt lat="41.379018333333335" lon="2.1419300000000003">
        <ele>36.19760955776458</ele>
        <time>2024-09-02T08:36:51.328Z</time>
      </trkpt>
      <trkpt lat="41.37900333333334" lon="2.1418733333333337">
        <ele>34.69771920256507</ele>
        <time>2024-09-02T08:37:03.348Z</time>
      </trkpt>
      <trkpt lat="41.37904666666667" lon="2.14186">
        <ele>32.997732537904085</ele>
        <time>2024-09-02T08:37:13.341Z</time>
      </trkpt>
      <trkpt lat="41.37909166666667" lon="2.1417766666666664">
        <ele>32.3978973582033</ele>
        <time>2024-09-02T08:37:18.338Z</time>
      </trkpt>
      <trkpt lat="41.37921500000001" lon="2.1416433333333336">
        <ele>33.99821490033129</ele>
        <time>2024-09-02T08:37:30.330Z</time>
      </trkpt>
      <trkpt lat="41.37920333333333" lon="2.141625">
        <ele>35.098222211585174</ele>
        <time>2024-09-02T08:37:34.321Z</time>
      </trkpt>
      <trkpt lat="41.37925666666667" lon="2.1415583333333337">
        <ele>35.298350994992276</ele>
        <time>2024-09-02T08:37:39.344Z</time>
      </trkpt>
      <trkpt lat="41.37934" lon="2.14116">
        <ele>36.79904568551361</ele>
        <time>2024-09-02T08:38:04.334Z</time>
      </trkpt>
      <trkpt lat="41.37940166666667" lon="2.141025">
        <ele>36.799307022177786</ele>
        <time>2024-09-02T08:38:11.390Z</time>
      </trkpt>
      <trkpt lat="41.37946" lon="2.1409883333333335">
        <ele>37.19941542678424</ele>
        <time>2024-09-02T08:38:14.304Z</time>
      </trkpt>
      <trkpt lat="41.37951666666666" lon="2.1410183333333332">
        <ele>37.29941355088483</ele>
        <time>2024-09-02T08:38:20.294Z</time>
      </trkpt>
      <trkpt lat="41.37953000000001" lon="2.141001666666667">
        <ele>36.79941830966739</ele>
        <time>2024-09-02T08:38:22.321Z</time>
      </trkpt>
      <trkpt lat="41.37955" lon="2.1409083333333334">
        <ele>36.79956003356081</ele>
        <time>2024-09-02T08:38:27.351Z</time>
      </trkpt>
      <trkpt lat="41.379569999999994" lon="2.140878333333333">
        <ele>38.29964865933901</ele>
        <time>2024-09-02T08:38:29.345Z</time>
      </trkpt>
      <trkpt lat="41.37956666666667" lon="2.1408300000000002">
        <ele>37.29974709484639</ele>
        <time>2024-09-02T08:38:36.338Z</time>
      </trkpt>
      <trkpt lat="41.37963666666666" lon="2.1406733333333334">
        <ele>37.19997157194081</ele>
        <time>2024-09-02T08:38:42.335Z</time>
      </trkpt>
      <trkpt lat="41.37963" lon="2.14057">
        <ele>37.200161184999246</ele>
        <time>2024-09-02T08:38:45.340Z</time>
      </trkpt>
      <trkpt lat="41.379646666666666" lon="2.1404733333333334">
        <ele>38.40032871331257</ele>
        <time>2024-09-02T08:38:48.351Z</time>
      </trkpt>
      <trkpt lat="41.37971833333333" lon="2.140416666666667">
        <ele>38.60043856477056</ele>
        <time>2024-09-02T08:38:50.338Z</time>
      </trkpt>
      <trkpt lat="41.379735" lon="2.140353333333333">
        <ele>38.70052350306651</ele>
        <time>2024-09-02T08:38:51.342Z</time>
      </trkpt>
      <trkpt lat="41.37976666666667" lon="2.140095">
        <ele>38.70094020786683</ele>
        <time>2024-09-02T08:38:55.353Z</time>
      </trkpt>
      <trkpt lat="41.379756666666665" lon="2.140046666666667">
        <ele>38.60108758986288</ele>
        <time>2024-09-02T08:38:56.334Z</time>
      </trkpt>
      <trkpt lat="41.37972333333334" lon="2.140025">
        <ele>38.601163687701025</ele>
        <time>2024-09-02T08:38:57.347Z</time>
      </trkpt>
      <trkpt lat="41.37967666666667" lon="2.139946666666667">
        <ele>38.601233145917824</ele>
        <time>2024-09-02T08:38:59.338Z</time>
      </trkpt>
      <trkpt lat="41.379568333333324" lon="2.1398533333333334">
        <ele>38.50137061229253</ele>
        <time>2024-09-02T08:39:02.328Z</time>
      </trkpt>
      <trkpt lat="41.379286666666665" lon="2.1397866666666667">
        <ele>38.401363476511435</ele>
        <time>2024-09-02T08:39:08.298Z</time>
      </trkpt>
      <trkpt lat="41.37903500000001" lon="2.1398266666666665">
        <ele>38.101234350043875</ele>
        <time>2024-09-02T08:39:14.332Z</time>
      </trkpt>
    </trkseg>
  </trk>
</gpx>
