<?xml version="1.0" encoding="UTF-8"?>
<gpx version="1.1" creator="Export" xmlns="http://www.topografix.com/GPX/1/1" xmlns:xsi="http://www.w3.org/2001/XMLSchema-instance" xsi:schemaLocation="http://www.topografix.com/GPX/1/1 http://www.topografix.com/GPX/1/1/gpx.xsd http://www.garmin.com/xmlschemas/GpxExtensions/v3 http://www.garmin.com/xmlschemas/GpxExtensionsv3.xsd http://www.garmin.com/xmlschemas/TrackPointExtension/v1 http://www.garmin.com/xmlschemas/TrackPointExtensionv1.xsd http://www.garmin.com/xmlschemas/PowerExtension/v1 http://www.garmin.com/xmlschemas/PowerExtensionv1.xsd http://www.topografix.com/GPX/gpx_style/0/2 http://www.topografix.com/GPX/gpx_style/0/2/gpx_style.xsd" xmlns:gpxtpx="http://www.garmin.com/xmlschemas/TrackPointExtension/v1" xmlns:gpxx="http://www.garmin.com/xmlschemas/GpxExtensions/v3" xmlns:gpxpx="http://www.garmin.com/xmlschemas/PowerExtension/v1" xmlns:gpx_style="http://www.topografix.com/GPX/gpx_style/0/2">
  <metadata>
    <name>activity_180_2024-09-02</name>
    <author>
      <name>gpx.studio</name>
      <link href="https://gpx.studio"/>
    </author>
  </metadata>
  <wpt lat="40.428037" lon="-3.69829">
    <ele>685.6998977182438</ele>
    <name>SafeStay Madrid Hostel</name>
    <sym>Hotel</sym>
  </wpt>
  <wpt lat="40.404281" lon="-3.687937">
    <ele>621.0418164400385</ele>
    <name>Madrid Atocha Train Station</name>
    <sym>Ground Transportation</sym>
  </wpt>
  <wpt lat="40.426756" lon="-3.698787">
    <ele>672.1746099837039</ele>
    <name>Pupuseria</name>
    <sym>Restaurant</sym>
  </wpt>
  <wpt lat="40.419909" lon="-3.701622">
    <ele>688.0873232576507</ele>
    <name>Gran Via</name>
    <sym>Summit</sym>
  </wpt>
  <wpt lat="40.419428" lon="-3.702031">
    <ele>680.6621935740387</ele>
    <name>Taco Bell</name>
    <sym>Restaurant</sym>
  </wpt>
  <wpt lat="40.418944" lon="-3.70226">
    <ele>675.8533042963605</ele>
    <name>Dunkin&apos;</name>
    <sym>Restaurant</sym>
  </wpt>
  <wpt lat="40.423331" lon="-3.701056">
    <ele>679.5520942643994</ele>
    <name>Decathlon</name>
    <sym>Shopping Center</sym>
  </wpt>
  <trk>
    <name>activity_180_2024-09-02</name>
    <trkseg>
      <trkpt lat="40.40429166666667" lon="-3.6879333333333335">
        <ele>590.1459187202263</ele>
        <time>2024-09-02T11:42:47.046Z</time>
      </trkpt>
      <trkpt lat="40.40443333333334" lon="-3.687958333333333">
        <ele>641.8459824572979</ele>
        <time>2024-09-02T11:42:56.085Z</time>
      </trkpt>
      <trkpt lat="40.404379999999996" lon="-3.6878449999999994">
        <ele>637.2459779615158</ele>
        <time>2024-09-02T11:43:15.051Z</time>
      </trkpt>
      <trkpt lat="40.40447833333334" lon="-3.687491666666667">
        <ele>636.2460439986621</ele>
        <time>2024-09-02T11:43:37.049Z</time>
      </trkpt>
      <trkpt lat="40.404473333333335" lon="-3.6873700000000005">
        <ele>634.2460577945332</ele>
        <time>2024-09-02T11:43:55.055Z</time>
      </trkpt>
      <trkpt lat="40.404448333333335" lon="-3.687355">
        <ele>634.3460587272072</ele>
        <time>2024-09-02T11:44:01.049Z</time>
      </trkpt>
      <trkpt lat="40.404325" lon="-3.68745">
        <ele>633.1460062847586</ele>
        <time>2024-09-02T11:44:24.049Z</time>
      </trkpt>
      <trkpt lat="40.404284999999994" lon="-3.6873799999999997">
        <ele>630.4459916497025</ele>
        <time>2024-09-02T11:44:39.046Z</time>
      </trkpt>
      <trkpt lat="40.40429833333334" lon="-3.687411666666667">
        <ele>629.1459883629975</ele>
        <time>2024-09-02T11:44:46.048Z</time>
      </trkpt>
      <trkpt lat="40.40426166666667" lon="-3.6874583333333333">
        <ele>628.1459750076405</ele>
        <time>2024-09-02T11:44:53.046Z</time>
      </trkpt>
      <trkpt lat="40.40432166666667" lon="-3.687478333333333">
        <ele>628.1459868844248</ele>
        <time>2024-09-02T11:44:57.052Z</time>
      </trkpt>
      <trkpt lat="40.4043" lon="-3.687431666666667">
        <ele>628.0459896956918</ele>
        <time>2024-09-02T11:45:03.059Z</time>
      </trkpt>
      <trkpt lat="40.40436666666667" lon="-3.687355">
        <ele>628.0460103090284</ele>
        <time>2024-09-02T11:45:05.046Z</time>
      </trkpt>
      <trkpt lat="40.40441" lon="-3.6872249999999998">
        <ele>628.1460498917593</ele>
        <time>2024-09-02T11:45:10.046Z</time>
      </trkpt>
      <trkpt lat="40.40458666666667" lon="-3.687136666666667">
        <ele>628.3461194356821</ele>
        <time>2024-09-02T11:45:17.048Z</time>
      </trkpt>
      <trkpt lat="40.40456166666667" lon="-3.687145">
        <ele>628.6461165557639</ele>
        <time>2024-09-02T11:45:22.048Z</time>
      </trkpt>
      <trkpt lat="40.404610000000005" lon="-3.6880249999999997">
        <ele>628.7461127465683</ele>
        <time>2024-09-02T11:45:53.052Z</time>
      </trkpt>
      <trkpt lat="40.404505" lon="-3.688031666666667">
        <ele>649.0460122789993</ele>
        <time>2024-09-02T11:46:00.046Z</time>
      </trkpt>
      <trkpt lat="40.404808333333335" lon="-3.68827">
        <ele>661.9460901639802</ele>
        <time>2024-09-02T11:46:10.053Z</time>
      </trkpt>
      <trkpt lat="40.40514833333334" lon="-3.688453333333334">
        <ele>659.0461883896087</ele>
        <time>2024-09-02T11:46:16.049Z</time>
      </trkpt>
      <trkpt lat="40.40485666666667" lon="-3.6882099999999998">
        <ele>656.6461347754513</ele>
        <time>2024-09-02T11:46:21.049Z</time>
      </trkpt>
      <trkpt lat="40.40491166666666" lon="-3.6883183333333336">
        <ele>629.6461225214471</ele>
        <time>2024-09-02T11:46:28.051Z</time>
      </trkpt>
      <trkpt lat="40.40492833333334" lon="-3.688261666666667">
        <ele>628.4461347246502</ele>
        <time>2024-09-02T11:46:34.089Z</time>
      </trkpt>
      <trkpt lat="40.40480166666667" lon="-3.6881">
        <ele>630.6461059048733</ele>
        <time>2024-09-02T11:46:44.085Z</time>
      </trkpt>
      <trkpt lat="40.404788333333336" lon="-3.6880683333333337">
        <ele>629.8461048145077</ele>
        <time>2024-09-02T11:46:49.088Z</time>
      </trkpt>
      <trkpt lat="40.40483833333334" lon="-3.6880950000000006">
        <ele>630.146104375471</ele>
        <time>2024-09-02T11:46:50.078Z</time>
      </trkpt>
      <trkpt lat="40.40502166666667" lon="-3.6882749999999995">
        <ele>634.9461607808734</ele>
        <time>2024-09-02T11:46:57.075Z</time>
      </trkpt>
      <trkpt lat="40.40523833333334" lon="-3.688395">
        <ele>637.5462272690123</ele>
        <time>2024-09-02T11:47:04.078Z</time>
      </trkpt>
      <trkpt lat="40.40526666666666" lon="-3.6884566666666663">
        <ele>639.3462484952464</ele>
        <time>2024-09-02T11:47:10.061Z</time>
      </trkpt>
      <trkpt lat="40.40532666666666" lon="-3.688543333333333">
        <ele>636.1462516684842</ele>
        <time>2024-09-02T11:47:14.086Z</time>
      </trkpt>
      <trkpt lat="40.405665" lon="-3.6887383333333332">
        <ele>607.2463440204494</ele>
        <time>2024-09-02T11:47:24.088Z</time>
      </trkpt>
      <trkpt lat="40.405541666666664" lon="-3.688773333333333">
        <ele>600.9463108919832</ele>
        <time>2024-09-02T11:47:32.081Z</time>
      </trkpt>
      <trkpt lat="40.40557333333334" lon="-3.6888283333333334">
        <ele>602.4463142977692</ele>
        <time>2024-09-02T11:47:36.061Z</time>
      </trkpt>
      <trkpt lat="40.40547333333333" lon="-3.6887816666666673">
        <ele>605.446283571255</ele>
        <time>2024-09-02T11:47:41.068Z</time>
      </trkpt>
      <trkpt lat="40.40550666666666" lon="-3.688863333333333">
        <ele>606.1462810911304</ele>
        <time>2024-09-02T11:47:48.078Z</time>
      </trkpt>
      <trkpt lat="40.405903333333335" lon="-3.6890666666666667">
        <ele>602.6463907408547</ele>
        <time>2024-09-02T11:48:03.089Z</time>
      </trkpt>
      <trkpt lat="40.40604666666666" lon="-3.6892533333333337">
        <ele>600.1464291744969</ele>
        <time>2024-09-02T11:48:13.089Z</time>
      </trkpt>
      <trkpt lat="40.40599333333333" lon="-3.689263333333333">
        <ele>600.4464195729756</ele>
        <time>2024-09-02T11:48:16.109Z</time>
      </trkpt>
      <trkpt lat="40.405928333333335" lon="-3.6892133333333335">
        <ele>600.9464041267316</ele>
        <time>2024-09-02T11:48:20.095Z</time>
      </trkpt>
      <trkpt lat="40.40634166666667" lon="-3.688691666666667">
        <ele>601.0463997582428</ele>
        <time>2024-09-02T11:49:06.066Z</time>
      </trkpt>
      <trkpt lat="40.40632166666667" lon="-3.6887233333333334">
        <ele>639.3465947854326</ele>
        <time>2024-09-02T11:49:09.092Z</time>
      </trkpt>
      <trkpt lat="40.40630833333333" lon="-3.68869">
        <ele>631.9465952370695</ele>
        <time>2024-09-02T11:49:13.088Z</time>
      </trkpt>
      <trkpt lat="40.40634" lon="-3.688771666666667">
        <ele>632.6465952565817</ele>
        <time>2024-09-02T11:49:18.098Z</time>
      </trkpt>
      <trkpt lat="40.406106666666666" lon="-3.6884016666666666">
        <ele>632.5465955761266</ele>
        <time>2024-09-02T11:51:41.104Z</time>
      </trkpt>
      <trkpt lat="40.40613666666666" lon="-3.6883866666666667">
        <ele>642.5465530869915</ele>
        <time>2024-09-02T11:51:43.091Z</time>
      </trkpt>
      <trkpt lat="40.40612333333333" lon="-3.6884466666666667">
        <ele>632.7465510391183</ele>
        <time>2024-09-02T11:51:49.098Z</time>
      </trkpt>
      <trkpt lat="40.40621" lon="-3.6885600000000003">
        <ele>639.8465707265925</ele>
        <time>2024-09-02T11:52:20.063Z</time>
      </trkpt>
      <trkpt lat="40.40613166666667" lon="-3.688596666666667">
        <ele>639.6465406061503</ele>
        <time>2024-09-02T11:52:30.088Z</time>
      </trkpt>
      <trkpt lat="40.406645000000005" lon="-3.689446666666667">
        <ele>652.9466300352634</ele>
        <time>2024-09-02T11:57:14.098Z</time>
      </trkpt>
      <trkpt lat="40.40674" lon="-3.6894866666666664">
        <ele>648.4466608221604</ele>
        <time>2024-09-02T11:57:28.095Z</time>
      </trkpt>
      <trkpt lat="40.40688166666666" lon="-3.689678333333333">
        <ele>647.546688440755</ele>
        <time>2024-09-02T11:57:40.095Z</time>
      </trkpt>
      <trkpt lat="40.40701166666667" lon="-3.690023333333334">
        <ele>646.9467051491011</ele>
        <time>2024-09-02T11:57:45.088Z</time>
      </trkpt>
      <trkpt lat="40.40692833333333" lon="-3.690025">
        <ele>646.5466791622172</ele>
        <time>2024-09-02T11:57:51.104Z</time>
      </trkpt>
      <trkpt lat="40.40686" lon="-3.6901583333333328">
        <ele>646.4466400911205</ele>
        <time>2024-09-02T11:58:00.109Z</time>
      </trkpt>
      <trkpt lat="40.406868333333335" lon="-3.6901166666666665">
        <ele>646.4466378271003</ele>
        <time>2024-09-02T11:58:04.088Z</time>
      </trkpt>
      <trkpt lat="40.40690666666667" lon="-3.6901533333333334">
        <ele>646.546653880039</ele>
        <time>2024-09-02T11:58:08.092Z</time>
      </trkpt>
      <trkpt lat="40.40686" lon="-3.6901549999999994">
        <ele>646.546640276976</ele>
        <time>2024-09-02T11:58:11.085Z</time>
      </trkpt>
      <trkpt lat="40.40685666666666" lon="-3.690215">
        <ele>646.5466297404656</ele>
        <time>2024-09-02T11:58:13.079Z</time>
      </trkpt>
      <trkpt lat="40.40678833333333" lon="-3.6902716666666664">
        <ele>646.6466076783688</ele>
        <time>2024-09-02T11:58:18.075Z</time>
      </trkpt>
      <trkpt lat="40.40641333333333" lon="-3.689388333333333">
        <ele>650.4465606898012</ele>
        <time>2024-09-02T12:14:40.088Z</time>
      </trkpt>
      <trkpt lat="40.40638666666667" lon="-3.6894216666666666">
        <ele>649.746544500712</ele>
        <time>2024-09-02T12:14:46.098Z</time>
      </trkpt>
      <trkpt lat="40.406415" lon="-3.6893866666666666">
        <ele>653.0465498459992</ele>
        <time>2024-09-02T12:17:24.081Z</time>
      </trkpt>
      <trkpt lat="40.40638833333333" lon="-3.689351666666667">
        <ele>644.4465480620166</ele>
        <time>2024-09-02T12:17:36.094Z</time>
      </trkpt>
      <trkpt lat="40.40618" lon="-3.6896166666666668">
        <ele>652.0464550639007</ele>
        <time>2024-09-02T12:22:57.065Z</time>
      </trkpt>
      <trkpt lat="40.40687833333333" lon="-3.6895133333333328">
        <ele>643.646604217093</ele>
        <time>2024-09-02T12:26:26.079Z</time>
      </trkpt>
      <trkpt lat="40.406865" lon="-3.689655">
        <ele>528.846711152352</ele>
        <time>2024-09-02T12:26:27.049Z</time>
      </trkpt>
      <trkpt lat="40.40687166666667" lon="-3.6897250000000006">
        <ele>522.2466881328144</ele>
        <time>2024-09-02T12:26:32.102Z</time>
      </trkpt>
      <trkpt lat="40.40691833333334" lon="-3.689756666666667">
        <ele>523.0466946435112</ele>
        <time>2024-09-02T12:26:36.095Z</time>
      </trkpt>
      <trkpt lat="40.40703666666666" lon="-3.6900716666666664">
        <ele>530.2467034018883</ele>
        <time>2024-09-02T12:26:46.056Z</time>
      </trkpt>
      <trkpt lat="40.40702666666667" lon="-3.6901316666666664">
        <ele>531.0467022755863</ele>
        <time>2024-09-02T12:26:48.085Z</time>
      </trkpt>
      <trkpt lat="40.40753666666667" lon="-3.6912233333333337">
        <ele>607.6467541057079</ele>
        <time>2024-09-02T13:16:53.069Z</time>
      </trkpt>
      <trkpt lat="40.40637" lon="-3.690823333333334">
        <ele>571.946383319408</ele>
        <time>2024-09-02T14:05:15.086Z</time>
      </trkpt>
      <trkpt lat="40.40649166666667" lon="-3.690841666666666">
        <ele>569.2464099358056</ele>
        <time>2024-09-02T14:05:22.086Z</time>
      </trkpt>
      <trkpt lat="40.406641666666665" lon="-3.69064">
        <ele>606.4464966730214</ele>
        <time>2024-09-02T14:09:55.042Z</time>
      </trkpt>
      <trkpt lat="40.406515" lon="-3.6908516666666666">
        <ele>603.9464366417807</ele>
        <time>2024-09-02T14:12:37.101Z</time>
      </trkpt>
      <trkpt lat="40.40626333333333" lon="-3.690758333333333">
        <ele>603.946351996327</ele>
        <time>2024-09-02T14:12:57.082Z</time>
      </trkpt>
      <trkpt lat="40.40629666666667" lon="-3.690766666666667">
        <ele>603.9463558313253</ele>
        <time>2024-09-02T14:12:59.088Z</time>
      </trkpt>
      <trkpt lat="40.40618" lon="-3.6906749999999997">
        <ele>603.7463408991214</ele>
        <time>2024-09-02T14:13:06.049Z</time>
      </trkpt>
      <trkpt lat="40.406495" lon="-3.6908950000000003">
        <ele>603.6463946234688</ele>
        <time>2024-09-02T14:13:10.096Z</time>
      </trkpt>
      <trkpt lat="40.40763333333334" lon="-3.691263333333333">
        <ele>605.1467969884509</ele>
        <time>2024-09-02T14:16:05.098Z</time>
      </trkpt>
      <trkpt lat="40.40755333333333" lon="-3.6912350000000003">
        <ele>605.0467743462888</ele>
        <time>2024-09-02T14:16:07.086Z</time>
      </trkpt>
      <trkpt lat="40.40754833333334" lon="-3.690796666666666">
        <ele>598.4467966623857</ele>
        <time>2024-09-02T14:19:37.082Z</time>
      </trkpt>
      <trkpt lat="40.407646666666665" lon="-3.690808333333334">
        <ele>601.4468305862831</ele>
        <time>2024-09-02T14:19:40.085Z</time>
      </trkpt>
      <trkpt lat="40.40763166666667" lon="-3.69072">
        <ele>607.3468477267155</ele>
        <time>2024-09-02T14:19:47.082Z</time>
      </trkpt>
      <trkpt lat="40.407635" lon="-3.6907900000000002">
        <ele>608.3468380637707</ele>
        <time>2024-09-02T14:20:19.094Z</time>
      </trkpt>
      <trkpt lat="40.407574999999994" lon="-3.6907833333333335">
        <ele>608.4468356908325</ele>
        <time>2024-09-02T14:20:36.098Z</time>
      </trkpt>
      <trkpt lat="40.407090000000004" lon="-3.6903333333333337">
        <ele>610.3467474439157</ele>
        <time>2024-09-02T14:21:10.095Z</time>
      </trkpt>
      <trkpt lat="40.407106666666664" lon="-3.6902566666666665">
        <ele>637.3466969236177</ele>
        <time>2024-09-02T14:21:11.092Z</time>
      </trkpt>
      <trkpt lat="40.40718833333334" lon="-3.6902083333333335">
        <ele>657.0467177790275</ele>
        <time>2024-09-02T14:21:13.084Z</time>
      </trkpt>
      <trkpt lat="40.407175" lon="-3.69016">
        <ele>671.2467463998197</ele>
        <time>2024-09-02T14:21:14.089Z</time>
      </trkpt>
      <trkpt lat="40.40746166666667" lon="-3.69069">
        <ele>626.1467762257654</ele>
        <time>2024-09-02T14:21:22.088Z</time>
      </trkpt>
      <trkpt lat="40.40734166666667" lon="-3.6906533333333336">
        <ele>611.9467563136255</ele>
        <time>2024-09-02T14:31:21.091Z</time>
      </trkpt>
      <trkpt lat="40.406960000000005" lon="-3.690313333333333">
        <ele>655.4466496735588</ele>
        <time>2024-09-02T14:51:27.091Z</time>
      </trkpt>
      <trkpt lat="40.406925" lon="-3.6901666666666673">
        <ele>653.1466528796635</ele>
        <time>2024-09-02T14:51:33.088Z</time>
      </trkpt>
      <trkpt lat="40.40694333333333" lon="-3.690136666666667">
        <ele>649.3466597951331</ele>
        <time>2024-09-02T14:51:35.075Z</time>
      </trkpt>
      <trkpt lat="40.40712833333334" lon="-3.690123333333333">
        <ele>638.9467312590053</ele>
        <time>2024-09-02T14:51:50.088Z</time>
      </trkpt>
      <trkpt lat="40.40732" lon="-3.690276666666667">
        <ele>629.3467800663852</ele>
        <time>2024-09-02T14:52:09.098Z</time>
      </trkpt>
      <trkpt lat="40.407349999999994" lon="-3.690383333333333">
        <ele>630.2467851772808</ele>
        <time>2024-09-02T14:52:26.049Z</time>
      </trkpt>
      <trkpt lat="40.407725" lon="-3.69078">
        <ele>636.2468721817575</ele>
        <time>2024-09-02T14:53:06.085Z</time>
      </trkpt>
      <trkpt lat="40.408069999999995" lon="-3.6912416666666665">
        <ele>625.9469437701595</ele>
        <time>2024-09-02T14:54:03.059Z</time>
      </trkpt>
      <trkpt lat="40.408215000000006" lon="-3.6914966666666666">
        <ele>627.0469687653557</ele>
        <time>2024-09-02T14:54:35.055Z</time>
      </trkpt>
      <trkpt lat="40.408635" lon="-3.691393333333334">
        <ele>626.047123005943</ele>
        <time>2024-09-02T14:55:40.062Z</time>
      </trkpt>
      <trkpt lat="40.40886166666667" lon="-3.6912733333333336">
        <ele>628.7472209268889</ele>
        <time>2024-09-02T14:55:58.055Z</time>
      </trkpt>
      <trkpt lat="40.409013333333334" lon="-3.691445">
        <ele>628.0472549367468</ele>
        <time>2024-09-02T14:56:15.085Z</time>
      </trkpt>
      <trkpt lat="40.40911833333333" lon="-3.6913466666666666">
        <ele>625.3473053375228</ele>
        <time>2024-09-02T14:56:30.075Z</time>
      </trkpt>
      <trkpt lat="40.409456666666664" lon="-3.6912233333333337">
        <ele>630.5474402415904</ele>
        <time>2024-09-02T14:57:03.046Z</time>
      </trkpt>
      <trkpt lat="40.409576666666666" lon="-3.691441666666666">
        <ele>628.6474586923949</ele>
        <time>2024-09-02T14:57:20.043Z</time>
      </trkpt>
      <trkpt lat="40.40958333333333" lon="-3.691648333333333">
        <ele>624.8474402043297</ele>
        <time>2024-09-02T14:57:37.048Z</time>
      </trkpt>
      <trkpt lat="40.40969666666667" lon="-3.6920066666666664">
        <ele>621.1474354862261</ele>
        <time>2024-09-02T14:57:59.056Z</time>
      </trkpt>
      <trkpt lat="40.40994166666667" lon="-3.6921333333333335">
        <ele>630.8475040197825</ele>
        <time>2024-09-02T14:58:24.068Z</time>
      </trkpt>
      <trkpt lat="40.412325" lon="-3.69266">
        <ele>621.0482868868078</ele>
        <time>2024-09-02T15:01:59.051Z</time>
      </trkpt>
      <trkpt lat="40.412371666666665" lon="-3.6927099999999995">
        <ele>625.5482977540767</ele>
        <time>2024-09-02T15:02:15.049Z</time>
      </trkpt>
      <trkpt lat="40.412373333333335" lon="-3.6926866666666665">
        <ele>626.3483145717737</ele>
        <time>2024-09-02T15:02:44.088Z</time>
      </trkpt>
      <trkpt lat="40.412415" lon="-3.6927216666666673">
        <ele>626.348309616562</ele>
        <time>2024-09-02T15:02:50.079Z</time>
      </trkpt>
      <trkpt lat="40.412553333333335" lon="-3.6927399999999997">
        <ele>626.7483547713325</ele>
        <time>2024-09-02T15:03:01.052Z</time>
      </trkpt>
      <trkpt lat="40.412635" lon="-3.692693333333333">
        <ele>629.3483917965608</ele>
        <time>2024-09-02T15:03:14.082Z</time>
      </trkpt>
      <trkpt lat="40.41271666666667" lon="-3.6927966666666663">
        <ele>630.9484064404893</ele>
        <time>2024-09-02T15:03:43.052Z</time>
      </trkpt>
      <trkpt lat="40.413671666666666" lon="-3.6929900000000004">
        <ele>636.4487209707945</ele>
        <time>2024-09-02T15:05:09.052Z</time>
      </trkpt>
      <trkpt lat="40.4137" lon="-3.6928500000000004">
        <ele>636.8487483575448</ele>
        <time>2024-09-02T15:05:22.055Z</time>
      </trkpt>
      <trkpt lat="40.41369833333333" lon="-3.6929999999999996">
        <ele>630.7487292817709</ele>
        <time>2024-09-02T15:05:36.091Z</time>
      </trkpt>
      <trkpt lat="40.414793333333336" lon="-3.693231666666667">
        <ele>634.4490826321098</ele>
        <time>2024-09-02T15:07:34.053Z</time>
      </trkpt>
      <trkpt lat="40.415038333333335" lon="-3.6933233333333333">
        <ele>638.7491383189829</ele>
        <time>2024-09-02T15:08:29.071Z</time>
      </trkpt>
      <trkpt lat="40.41510666666667" lon="-3.6933133333333332">
        <ele>640.3491779052446</ele>
        <time>2024-09-02T15:08:34.072Z</time>
      </trkpt>
      <trkpt lat="40.415235" lon="-3.693216666666667">
        <ele>637.3492374458622</ele>
        <time>2024-09-02T15:08:49.078Z</time>
      </trkpt>
      <trkpt lat="40.415778333333336" lon="-3.69338">
        <ele>637.9494035359302</ele>
        <time>2024-09-02T15:09:36.094Z</time>
      </trkpt>
      <trkpt lat="40.41589" lon="-3.693496666666667">
        <ele>639.8494314512955</ele>
        <time>2024-09-02T15:09:50.092Z</time>
      </trkpt>
      <trkpt lat="40.41603333333333" lon="-3.693393333333333">
        <ele>640.1494326097742</ele>
        <time>2024-09-02T15:09:51.086Z</time>
      </trkpt>
      <trkpt lat="40.415910000000004" lon="-3.693595">
        <ele>650.2494961220065</ele>
        <time>2024-09-02T15:09:52.095Z</time>
      </trkpt>
      <trkpt lat="40.415931666666665" lon="-3.6936216666666666">
        <ele>620.9494315455327</ele>
        <time>2024-09-02T15:09:54.085Z</time>
      </trkpt>
      <trkpt lat="40.41593833333333" lon="-3.6935766666666665">
        <ele>632.5494412164348</ele>
        <time>2024-09-02T15:10:00.045Z</time>
      </trkpt>
      <trkpt lat="40.415971666666664" lon="-3.693533333333334">
        <ele>648.6494458751713</ele>
        <time>2024-09-02T15:10:05.055Z</time>
      </trkpt>
      <trkpt lat="40.41593" lon="-3.6935116666666667">
        <ele>643.6494457546787</ele>
        <time>2024-09-02T15:10:20.056Z</time>
      </trkpt>
      <trkpt lat="40.41592" lon="-3.6935583333333333">
        <ele>642.3494361468545</ele>
        <time>2024-09-02T15:10:26.059Z</time>
      </trkpt>
      <trkpt lat="40.41598833333333" lon="-3.6939116666666667">
        <ele>641.0494142698794</ele>
        <time>2024-09-02T15:10:48.051Z</time>
      </trkpt>
      <trkpt lat="40.41607" lon="-3.694081666666667">
        <ele>640.3494169488207</ele>
        <time>2024-09-02T15:11:04.082Z</time>
      </trkpt>
      <trkpt lat="40.41645666666667" lon="-3.694031666666667">
        <ele>638.7495536555347</ele>
        <time>2024-09-02T15:11:40.055Z</time>
      </trkpt>
      <trkpt lat="40.41666333333333" lon="-3.693955">
        <ele>638.2496351225117</ele>
        <time>2024-09-02T15:12:00.058Z</time>
      </trkpt>
      <trkpt lat="40.416815" lon="-3.6939683333333333">
        <ele>637.8496886880519</ele>
        <time>2024-09-02T15:12:13.056Z</time>
      </trkpt>
      <trkpt lat="40.417093333333334" lon="-3.6939150000000005">
        <ele>637.8497871996931</ele>
        <time>2024-09-02T15:12:49.062Z</time>
      </trkpt>
      <trkpt lat="40.41708666666667" lon="-3.69386">
        <ele>639.249795391266</ele>
        <time>2024-09-02T15:12:52.055Z</time>
      </trkpt>
      <trkpt lat="40.417235" lon="-3.693823333333333">
        <ele>642.0498523044753</ele>
        <time>2024-09-02T15:13:10.058Z</time>
      </trkpt>
      <trkpt lat="40.41721833333334" lon="-3.6937316666666664">
        <ele>643.0498668491709</ele>
        <time>2024-09-02T15:13:26.052Z</time>
      </trkpt>
      <trkpt lat="40.41721166666667" lon="-3.6936649999999993">
        <ele>646.4498637857658</ele>
        <time>2024-09-02T15:13:53.091Z</time>
      </trkpt>
      <trkpt lat="40.417321666666666" lon="-3.693683333333333">
        <ele>643.6498998374661</ele>
        <time>2024-09-02T15:14:02.073Z</time>
      </trkpt>
      <trkpt lat="40.417386666666665" lon="-3.69381">
        <ele>640.9499106615623</ele>
        <time>2024-09-02T15:14:12.082Z</time>
      </trkpt>
      <trkpt lat="40.41748833333334" lon="-3.6938583333333335">
        <ele>641.4499369876999</ele>
        <time>2024-09-02T15:14:20.082Z</time>
      </trkpt>
      <trkpt lat="40.417735" lon="-3.6938216666666666">
        <ele>637.3500278676217</ele>
        <time>2024-09-02T15:14:45.101Z</time>
      </trkpt>
      <trkpt lat="40.417901666666666" lon="-3.6937399999999996">
        <ele>636.4500939542044</ele>
        <time>2024-09-02T15:14:59.078Z</time>
      </trkpt>
      <trkpt lat="40.418155" lon="-3.6936949999999995">
        <ele>635.7501876403759</ele>
        <time>2024-09-02T15:15:24.078Z</time>
      </trkpt>
      <trkpt lat="40.41823333333333" lon="-3.6937249999999997">
        <ele>633.9502135881327</ele>
        <time>2024-09-02T15:15:31.095Z</time>
      </trkpt>
      <trkpt lat="40.41868833333333" lon="-3.6935983333333335">
        <ele>640.8503899298906</ele>
        <time>2024-09-02T15:16:17.052Z</time>
      </trkpt>
      <trkpt lat="40.41872166666667" lon="-3.6936566666666666">
        <ele>641.9503922735263</ele>
        <time>2024-09-02T15:16:23.063Z</time>
      </trkpt>
      <trkpt lat="40.418834999999994" lon="-3.6936850000000003">
        <ele>645.1504282513577</ele>
        <time>2024-09-02T15:16:44.058Z</time>
      </trkpt>
      <trkpt lat="40.41890333333333" lon="-3.6938933333333335">
        <ele>643.6504238076593</ele>
        <time>2024-09-02T15:17:22.061Z</time>
      </trkpt>
      <trkpt lat="40.418998333333334" lon="-3.693891666666667">
        <ele>643.7504544415624</ele>
        <time>2024-09-02T15:17:36.058Z</time>
      </trkpt>
      <trkpt lat="40.41900333333333" lon="-3.693905">
        <ele>644.2504558756286</ele>
        <time>2024-09-02T15:17:49.052Z</time>
      </trkpt>
      <trkpt lat="40.41894666666667" lon="-3.6939883333333334">
        <ele>646.9504293360274</ele>
        <time>2024-09-02T15:18:20.091Z</time>
      </trkpt>
      <trkpt lat="40.41896" lon="-3.6942066666666666">
        <ele>642.1504039362866</ele>
        <time>2024-09-02T15:18:40.108Z</time>
      </trkpt>
      <trkpt lat="40.418765" lon="-3.6952199999999995">
        <ele>641.3501960596527</ele>
        <time>2024-09-02T15:20:01.051Z</time>
      </trkpt>
      <trkpt lat="40.41912833333333" lon="-3.6954">
        <ele>643.5502911255059</ele>
        <time>2024-09-02T15:20:16.072Z</time>
      </trkpt>
      <trkpt lat="40.41925833333333" lon="-3.6955466666666665">
        <ele>643.9503157219107</ele>
        <time>2024-09-02T15:20:32.076Z</time>
      </trkpt>
      <trkpt lat="40.41982333333333" lon="-3.695585">
        <ele>661.7505071236437</ele>
        <time>2024-09-02T15:21:30.056Z</time>
      </trkpt>
      <trkpt lat="40.419845" lon="-3.6956783333333334">
        <ele>663.8505009847321</ele>
        <time>2024-09-02T15:21:35.059Z</time>
      </trkpt>
      <trkpt lat="40.419945" lon="-3.695801666666667">
        <ele>671.9505119643352</ele>
        <time>2024-09-02T15:22:20.056Z</time>
      </trkpt>
      <trkpt lat="40.42004333333333" lon="-3.6957999999999998">
        <ele>670.8505457016388</ele>
        <time>2024-09-02T15:22:34.105Z</time>
      </trkpt>
      <trkpt lat="40.42010333333334" lon="-3.6957283333333333">
        <ele>664.6505805193447</ele>
        <time>2024-09-02T15:22:44.099Z</time>
      </trkpt>
      <trkpt lat="40.42032166666667" lon="-3.6957016666666664">
        <ele>659.7506553811952</ele>
        <time>2024-09-02T15:22:59.095Z</time>
      </trkpt>
      <trkpt lat="40.421078333333334" lon="-3.695733333333334">
        <ele>663.5509122701324</ele>
        <time>2024-09-02T15:24:02.075Z</time>
      </trkpt>
      <trkpt lat="40.42109000000001" lon="-3.695703333333334">
        <ele>665.7509214123139</ele>
        <time>2024-09-02T15:24:06.068Z</time>
      </trkpt>
      <trkpt lat="40.421301666666665" lon="-3.695688333333334">
        <ele>679.5509938961997</ele>
        <time>2024-09-02T15:24:23.099Z</time>
      </trkpt>
      <trkpt lat="40.42133166666667" lon="-3.695643333333334">
        <ele>681.2510124945157</ele>
        <time>2024-09-02T15:24:31.095Z</time>
      </trkpt>
      <trkpt lat="40.42180833333334" lon="-3.69564">
        <ele>670.0511731484326</ele>
        <time>2024-09-02T15:25:09.085Z</time>
      </trkpt>
      <trkpt lat="40.42185833333333" lon="-3.6957166666666668">
        <ele>668.8511833708019</ele>
        <time>2024-09-02T15:25:17.098Z</time>
      </trkpt>
      <trkpt lat="40.42194333333334" lon="-3.6956733333333336">
        <ele>669.3512175303523</ele>
        <time>2024-09-02T15:25:24.096Z</time>
      </trkpt>
      <trkpt lat="40.42243333333333" lon="-3.6956566666666664">
        <ele>668.6513858495952</ele>
        <time>2024-09-02T15:26:13.096Z</time>
      </trkpt>
      <trkpt lat="40.422556666666665" lon="-3.695603333333333">
        <ele>661.6514355612425</ele>
        <time>2024-09-02T15:26:25.072Z</time>
      </trkpt>
      <trkpt lat="40.423118333333335" lon="-3.6955666666666662">
        <ele>661.6516300257141</ele>
        <time>2024-09-02T15:27:21.082Z</time>
      </trkpt>
      <trkpt lat="40.424371666666666" lon="-3.69552">
        <ele>662.2520634335859</ele>
        <time>2024-09-02T15:29:11.071Z</time>
      </trkpt>
      <trkpt lat="40.42461166666667" lon="-3.6954116666666663">
        <ele>664.4521607539098</ele>
        <time>2024-09-02T15:29:30.055Z</time>
      </trkpt>
      <trkpt lat="40.424663333333335" lon="-3.6955166666666663">
        <ele>663.2521650733307</ele>
        <time>2024-09-02T15:30:02.065Z</time>
      </trkpt>
      <trkpt lat="40.425376666666665" lon="-3.6963000000000004">
        <ele>657.3522882829442</ele>
        <time>2024-09-02T15:31:24.053Z</time>
      </trkpt>
      <trkpt lat="40.425356666666666" lon="-3.6963766666666666">
        <ele>656.2522733385653</ele>
        <time>2024-09-02T15:31:35.059Z</time>
      </trkpt>
      <trkpt lat="40.42540333333333" lon="-3.69638">
        <ele>658.2522869353794</ele>
        <time>2024-09-02T15:31:43.072Z</time>
      </trkpt>
      <trkpt lat="40.42591166666667" lon="-3.697148333333333">
        <ele>659.7523411352892</ele>
        <time>2024-09-02T15:33:03.056Z</time>
      </trkpt>
      <trkpt lat="40.42591166666667" lon="-3.6972349999999996">
        <ele>662.9523319562593</ele>
        <time>2024-09-02T15:33:12.056Z</time>
      </trkpt>
      <trkpt lat="40.42594666666666" lon="-3.6972166666666673">
        <ele>664.2523396345614</ele>
        <time>2024-09-02T15:33:17.055Z</time>
      </trkpt>
      <trkpt lat="40.42596833333334" lon="-3.697268333333333">
        <ele>668.8523437157512</ele>
        <time>2024-09-02T15:33:25.095Z</time>
      </trkpt>
      <trkpt lat="40.42612" lon="-3.6971450000000003">
        <ele>672.4524117984618</ele>
        <time>2024-09-02T15:33:48.078Z</time>
      </trkpt>
      <trkpt lat="40.42611" lon="-3.697115">
        <ele>673.9524152606385</ele>
        <time>2024-09-02T15:33:55.072Z</time>
      </trkpt>
      <trkpt lat="40.42616833333333" lon="-3.6971383333333336">
        <ele>673.25242866141</ele>
        <time>2024-09-02T15:34:04.091Z</time>
      </trkpt>
      <trkpt lat="40.42613666666667" lon="-3.6970866666666664">
        <ele>670.8524274530179</ele>
        <time>2024-09-02T15:34:11.092Z</time>
      </trkpt>
      <trkpt lat="40.42615333333333" lon="-3.6970049999999994">
        <ele>669.9524413627895</ele>
        <time>2024-09-02T15:34:18.072Z</time>
      </trkpt>
      <trkpt lat="40.42651333333333" lon="-3.6967849999999998">
        <ele>666.6525988269075</ele>
        <time>2024-09-02T15:34:53.065Z</time>
      </trkpt>
      <trkpt lat="40.426665" lon="-3.6969683333333334">
        <ele>671.5526216913371</ele>
        <time>2024-09-02T15:35:07.053Z</time>
      </trkpt>
      <trkpt lat="40.42676666666667" lon="-3.697115">
        <ele>670.6526333897193</ele>
        <time>2024-09-02T15:35:33.091Z</time>
      </trkpt>
      <trkpt lat="40.427055" lon="-3.6975983333333335">
        <ele>671.7526558404115</ele>
        <time>2024-09-02T15:36:15.051Z</time>
      </trkpt>
      <trkpt lat="40.42718" lon="-3.6976033333333334">
        <ele>674.4526932311971</ele>
        <time>2024-09-02T15:36:42.059Z</time>
      </trkpt>
      <trkpt lat="40.42724833333333" lon="-3.697518333333333">
        <ele>671.5527296391006</ele>
        <time>2024-09-02T15:36:52.086Z</time>
      </trkpt>
      <trkpt lat="40.42777666666667" lon="-3.697191666666667">
        <ele>661.8529572488512</ele>
        <time>2024-09-02T15:37:49.049Z</time>
      </trkpt>
      <trkpt lat="40.427794999999996" lon="-3.697333333333333">
        <ele>659.3529481319339</ele>
        <time>2024-09-02T15:38:02.102Z</time>
      </trkpt>
      <trkpt lat="40.42784666666667" lon="-3.697363333333333">
        <ele>658.352955918375</ele>
        <time>2024-09-02T15:38:07.104Z</time>
      </trkpt>
      <trkpt lat="40.428" lon="-3.698173333333333">
        <ele>656.4528840562474</ele>
        <time>2024-09-02T15:38:58.091Z</time>
      </trkpt>
      <trkpt lat="40.42796333333333" lon="-3.6981383333333335">
        <ele>683.9528759534542</ele>
        <time>2024-09-02T15:46:27.082Z</time>
      </trkpt>
      <trkpt lat="40.428085" lon="-3.698243333333334">
        <ele>705.3528974414587</ele>
        <time>2024-09-02T15:55:50.082Z</time>
      </trkpt>
      <trkpt lat="40.428223333333335" lon="-3.6981083333333338">
        <ele>700.7528347821759</ele>
        <time>2024-09-02T16:09:08.641Z</time>
      </trkpt>
      <trkpt lat="40.42811166666667" lon="-3.6981249999999997">
        <ele>698.7529267467562</ele>
        <time>2024-09-02T16:09:15.677Z</time>
      </trkpt>
      <trkpt lat="40.42793833333334" lon="-3.698358333333333">
        <ele>698.4528353382739</ele>
        <time>2024-09-02T16:09:41.072Z</time>
      </trkpt>
      <trkpt lat="40.427884999999996" lon="-3.6983533333333334">
        <ele>686.8528167597149</ele>
        <time>2024-09-02T16:19:17.088Z</time>
      </trkpt>
      <trkpt lat="40.42789666666667" lon="-3.698378333333333">
        <ele>693.2528211618136</ele>
        <time>2024-09-02T16:30:44.052Z</time>
      </trkpt>
      <trkpt lat="40.428043333333335" lon="-3.6982733333333337">
        <ele>690.15287665937</ele>
        <time>2024-09-02T16:37:06.088Z</time>
      </trkpt>
      <trkpt lat="40.428605" lon="-3.698118333333333">
        <ele>660.4528522534838</ele>
        <time>2024-09-02T16:40:58.092Z</time>
      </trkpt>
      <trkpt lat="40.428583333333336" lon="-3.6981699999999997">
        <ele>707.353090511267</ele>
        <time>2024-09-02T16:40:59.098Z</time>
      </trkpt>
      <trkpt lat="40.42845666666666" lon="-3.698221666666667">
        <ele>684.4530452665945</ele>
        <time>2024-09-02T16:41:01.096Z</time>
      </trkpt>
      <trkpt lat="40.42831833333333" lon="-3.6981699999999997">
        <ele>675.9530040588545</ele>
        <time>2024-09-02T16:41:03.092Z</time>
      </trkpt>
      <trkpt lat="40.428443333333334" lon="-3.698556666666667">
        <ele>685.852966699755</ele>
        <time>2024-09-02T16:41:37.085Z</time>
      </trkpt>
      <trkpt lat="40.428405" lon="-3.698851666666667">
        <ele>684.4529102837815</ele>
        <time>2024-09-02T16:42:01.094Z</time>
      </trkpt>
      <trkpt lat="40.42852333333334" lon="-3.699148333333333">
        <ele>681.0528994216254</ele>
        <time>2024-09-02T16:42:22.101Z</time>
      </trkpt>
      <trkpt lat="40.42837833333333" lon="-3.699348333333333">
        <ele>680.0528235970576</ele>
        <time>2024-09-02T16:42:30.091Z</time>
      </trkpt>
      <trkpt lat="40.428275" lon="-3.6993883333333333">
        <ele>682.352776987588</ele>
        <time>2024-09-02T16:42:43.055Z</time>
      </trkpt>
      <trkpt lat="40.428325" lon="-3.69943">
        <ele>681.8527847695482</ele>
        <time>2024-09-02T16:42:50.052Z</time>
      </trkpt>
      <trkpt lat="40.42836666666667" lon="-3.6995766666666667">
        <ele>676.25277606721</ele>
        <time>2024-09-02T16:43:04.052Z</time>
      </trkpt>
      <trkpt lat="40.428871666666666" lon="-3.7019883333333334">
        <ele>668.6525315555058</ele>
        <time>2024-09-02T16:46:21.075Z</time>
      </trkpt>
      <trkpt lat="40.428778333333334" lon="-3.702035">
        <ele>677.4524937371424</ele>
        <time>2024-09-02T16:47:04.066Z</time>
      </trkpt>
      <trkpt lat="40.428716666666666" lon="-3.702103333333333">
        <ele>678.4524615717872</ele>
        <time>2024-09-02T16:47:17.072Z</time>
      </trkpt>
      <trkpt lat="40.42878333333333" lon="-3.7022833333333334">
        <ele>680.2524494540534</ele>
        <time>2024-09-02T16:47:36.068Z</time>
      </trkpt>
      <trkpt lat="40.42875166666667" lon="-3.702331666666667">
        <ele>680.0524305507412</ele>
        <time>2024-09-02T16:47:46.055Z</time>
      </trkpt>
      <trkpt lat="40.42873833333333" lon="-3.7022416666666667">
        <ele>680.5524384567047</ele>
        <time>2024-09-02T16:48:06.052Z</time>
      </trkpt>
      <trkpt lat="40.42869333333333" lon="-3.702271666666667">
        <ele>677.9524239928503</ele>
        <time>2024-09-02T16:48:14.076Z</time>
      </trkpt>
      <trkpt lat="40.42854166666667" lon="-3.7022233333333334">
        <ele>681.5523802866403</ele>
        <time>2024-09-02T16:48:26.069Z</time>
      </trkpt>
      <trkpt lat="40.42727333333333" lon="-3.701695">
        <ele>695.7520566112214</ele>
        <time>2024-09-02T16:50:49.075Z</time>
      </trkpt>
      <trkpt lat="40.427308333333336" lon="-3.701645">
        <ele>687.9520693939343</ele>
        <time>2024-09-02T16:50:59.092Z</time>
      </trkpt>
      <trkpt lat="40.42740833333333" lon="-3.7017016666666667">
        <ele>685.4520954975222</ele>
        <time>2024-09-02T16:51:22.058Z</time>
      </trkpt>
      <trkpt lat="40.427254999999995" lon="-3.7016349999999996">
        <ele>686.05205926021</ele>
        <time>2024-09-02T16:51:37.065Z</time>
      </trkpt>
      <trkpt lat="40.42730166666667" lon="-3.701408333333333">
        <ele>678.5521071706314</ele>
        <time>2024-09-02T16:51:51.075Z</time>
      </trkpt>
      <trkpt lat="40.427369999999996" lon="-3.700053333333333">
        <ele>672.052365161368</ele>
        <time>2024-09-02T16:53:32.068Z</time>
      </trkpt>
      <trkpt lat="40.427083333333336" lon="-3.699993333333333">
        <ele>675.8522836928136</ele>
        <time>2024-09-02T16:53:56.078Z</time>
      </trkpt>
      <trkpt lat="40.42699666666667" lon="-3.699978333333333">
        <ele>671.6522576195016</ele>
        <time>2024-09-02T16:54:03.082Z</time>
      </trkpt>
      <trkpt lat="40.426901666666666" lon="-3.6999433333333336">
        <ele>667.8522323637486</ele>
        <time>2024-09-02T16:54:12.055Z</time>
      </trkpt>
      <trkpt lat="40.426813333333335" lon="-3.6997583333333335">
        <ele>672.8522278123419</ele>
        <time>2024-09-02T16:54:29.072Z</time>
      </trkpt>
      <trkpt lat="40.42686666666667" lon="-3.699688333333333">
        <ele>671.9522532717701</ele>
        <time>2024-09-02T16:54:36.086Z</time>
      </trkpt>
      <trkpt lat="40.42702" lon="-3.69926">
        <ele>664.6523788257176</ele>
        <time>2024-09-02T16:55:15.075Z</time>
      </trkpt>
      <trkpt lat="40.42695833333333" lon="-3.699221666666667">
        <ele>663.6523673144328</ele>
        <time>2024-09-02T16:55:25.059Z</time>
      </trkpt>
      <trkpt lat="40.426943333333334" lon="-3.6991533333333337">
        <ele>663.552369604062</ele>
        <time>2024-09-02T16:55:29.081Z</time>
      </trkpt>
      <trkpt lat="40.42697" lon="-3.69909">
        <ele>661.7523859388992</ele>
        <time>2024-09-02T16:55:35.073Z</time>
      </trkpt>
      <trkpt lat="40.42690833333334" lon="-3.6988100000000004">
        <ele>675.8524234416019</ele>
        <time>2024-09-02T16:58:24.082Z</time>
      </trkpt>
      <trkpt lat="40.426759999999994" lon="-3.6987883333333333">
        <ele>675.5524081963979</ele>
        <time>2024-09-02T17:20:20.058Z</time>
      </trkpt>
      <trkpt lat="40.42693333333333" lon="-3.698741666666667">
        <ele>624.5523950581144</ele>
        <time>2024-09-02T17:20:23.105Z</time>
      </trkpt>
      <trkpt lat="40.42683" lon="-3.698111666666667">
        <ele>688.2525030294813</ele>
        <time>2024-09-02T17:21:56.089Z</time>
      </trkpt>
      <trkpt lat="40.42650666666667" lon="-3.6976883333333337">
        <ele>679.5524601871102</ele>
        <time>2024-09-02T17:22:34.053Z</time>
      </trkpt>
      <trkpt lat="40.426435" lon="-3.6977583333333333">
        <ele>674.6524292504682</ele>
        <time>2024-09-02T17:22:43.091Z</time>
      </trkpt>
      <trkpt lat="40.42623666666667" lon="-3.6978266666666664">
        <ele>660.4523657287876</ele>
        <time>2024-09-02T17:24:42.075Z</time>
      </trkpt>
      <trkpt lat="40.425245000000004" lon="-3.7000416666666665">
        <ele>660.051659013718</ele>
        <time>2024-09-02T17:28:01.052Z</time>
      </trkpt>
      <trkpt lat="40.42521833333333" lon="-3.7000400000000004">
        <ele>667.8516498077902</ele>
        <time>2024-09-02T17:28:12.065Z</time>
      </trkpt>
      <trkpt lat="40.425246666666666" lon="-3.700065">
        <ele>669.3516545782873</ele>
        <time>2024-09-02T17:28:16.055Z</time>
      </trkpt>
      <trkpt lat="40.424994999999996" lon="-3.7006333333333337">
        <ele>663.2514778551188</ele>
        <time>2024-09-02T17:29:27.049Z</time>
      </trkpt>
      <trkpt lat="40.42489333333333" lon="-3.7006499999999996">
        <ele>670.7514390023226</ele>
        <time>2024-09-02T17:29:49.095Z</time>
      </trkpt>
      <trkpt lat="40.42489166666667" lon="-3.700696666666667">
        <ele>669.7514322477064</ele>
        <time>2024-09-02T17:29:59.062Z</time>
      </trkpt>
      <trkpt lat="40.42374333333333" lon="-3.7006216666666667">
        <ele>679.6510586830342</ele>
        <time>2024-09-02T17:32:05.709Z</time>
      </trkpt>
      <trkpt lat="40.423323647394255" lon="-3.70093616714405">
        <ele>679.5183361073271</ele>
        <time>2024-09-02T17:33:03.285Z</time>
      </trkpt>
      <trkpt lat="40.423177879526264" lon="-3.7007597757356905">
        <ele>678.9323285915191</ele>
        <time>2024-09-02T17:33:26.855Z</time>
      </trkpt>
      <trkpt lat="40.421728333333334" lon="-3.7009716666666663">
        <ele>677.5100477731175</ele>
        <time>2024-09-02T17:36:20.309Z</time>
      </trkpt>
      <trkpt lat="40.420190000000005" lon="-3.7015733333333336">
        <ele>680.249701081087</ele>
        <time>2024-09-02T18:19:23.052Z</time>
      </trkpt>
      <trkpt lat="40.420010000000005" lon="-3.7015650000000004">
        <ele>676.2496363997093</ele>
        <time>2024-09-02T18:20:37.071Z</time>
      </trkpt>
      <trkpt lat="40.41996166666667" lon="-3.7016033333333334">
        <ele>676.4496170785609</ele>
        <time>2024-09-02T18:20:41.085Z</time>
      </trkpt>
      <trkpt lat="40.41997166666667" lon="-3.7017016666666667">
        <ele>676.2495999251327</ele>
        <time>2024-09-02T18:20:47.055Z</time>
      </trkpt>
      <trkpt lat="40.419783333333335" lon="-3.701785">
        <ele>672.8495222815975</ele>
        <time>2024-09-02T18:21:05.066Z</time>
      </trkpt>
      <trkpt lat="40.41967666666667" lon="-3.701888333333333">
        <ele>669.8494675629222</ele>
        <time>2024-09-02T18:21:19.075Z</time>
      </trkpt>
      <trkpt lat="40.419419999999995" lon="-3.7019299999999995">
        <ele>681.1037882928977</ele>
        <time>2024-09-02T18:21:59.446Z</time>
      </trkpt>
      <trkpt lat="40.419445" lon="-3.702126666666666">
        <ele>664.6493497411499</ele>
        <time>2024-09-02T18:25:05.513Z</time>
      </trkpt>
      <trkpt lat="40.41937333333333" lon="-3.7018833333333334">
        <ele>680.7249092218038</ele>
        <time>2024-09-02T18:25:54.724Z</time>
      </trkpt>
      <trkpt lat="40.41874" lon="-3.7020600000000004">
        <ele>677.7248895999985</ele>
        <time>2024-09-02T18:27:31.518Z</time>
      </trkpt>
      <trkpt lat="40.41874166666666" lon="-3.7022266666666668">
        <ele>673.5490901376413</ele>
        <time>2024-09-02T18:49:01.155Z</time>
      </trkpt>
      <trkpt lat="40.418686666666666" lon="-3.70233">
        <ele>674.3490522388211</ele>
        <time>2024-09-02T18:49:10.159Z</time>
      </trkpt>
      <trkpt lat="40.418438333333334" lon="-3.7023283333333334">
        <ele>675.9489641396907</ele>
        <time>2024-09-02T18:49:42.151Z</time>
      </trkpt>
      <trkpt lat="40.41840833333333" lon="-3.702435">
        <ele>674.3489375976308</ele>
        <time>2024-09-02T18:50:08.163Z</time>
      </trkpt>
      <trkpt lat="40.41894921587232" lon="-3.702229840376134">
        <ele>676.1615688160771</ele>
        <time>2024-09-02T18:52:20.938Z</time>
      </trkpt>
      <trkpt lat="40.418875654510174" lon="-3.7021562229318477">
        <ele>676.9950391624022</ele>
        <time>2024-09-02T18:52:35.057Z</time>
      </trkpt>
      <trkpt lat="40.41780333333334" lon="-3.7027433333333333">
        <ele>666.9897759007683</ele>
        <time>2024-09-02T18:55:32.426Z</time>
      </trkpt>
      <trkpt lat="40.41775666666667" lon="-3.7025866666666665">
        <ele>678.8486900931272</ele>
        <time>2024-09-02T19:06:36.168Z</time>
      </trkpt>
      <trkpt lat="40.417715" lon="-3.7027216666666667">
        <ele>670.2486513949092</ele>
        <time>2024-09-02T19:06:46.119Z</time>
      </trkpt>
      <trkpt lat="40.41721166666667" lon="-3.702983333333333">
        <ele>666.0484360603334</ele>
        <time>2024-09-02T19:07:52.110Z</time>
      </trkpt>
      <trkpt lat="40.417161666666665" lon="-3.7030549999999995">
        <ele>662.7484016053049</ele>
        <time>2024-09-02T19:08:02.140Z</time>
      </trkpt>
      <trkpt lat="40.41711833333333" lon="-3.7029433333333337">
        <ele>660.2484038393839</ele>
        <time>2024-09-02T19:08:15.148Z</time>
      </trkpt>
      <trkpt lat="40.417138333333334" lon="-3.70283">
        <ele>657.2484298403814</ele>
        <time>2024-09-02T19:08:34.130Z</time>
      </trkpt>
      <trkpt lat="40.4171" lon="-3.702726666666666">
        <ele>654.6484354258536</ele>
        <time>2024-09-02T19:08:59.126Z</time>
      </trkpt>
      <trkpt lat="40.41703666666667" lon="-3.702635">
        <ele>652.9484288165114</ele>
        <time>2024-09-02T19:09:27.155Z</time>
      </trkpt>
      <trkpt lat="40.4171" lon="-3.7024316666666666">
        <ele>657.2484872916043</ele>
        <time>2024-09-02T19:09:48.152Z</time>
      </trkpt>
      <trkpt lat="40.41703833333334" lon="-3.70249">
        <ele>659.1484847181637</ele>
        <time>2024-09-02T19:10:23.118Z</time>
      </trkpt>
      <trkpt lat="40.417138333333334" lon="-3.702028333333333">
        <ele>663.1485660084932</ele>
        <time>2024-09-02T19:11:07.119Z</time>
      </trkpt>
      <trkpt lat="40.417161666666665" lon="-3.702035">
        <ele>661.6485743203988</ele>
        <time>2024-09-02T19:11:13.142Z</time>
      </trkpt>
      <trkpt lat="40.41719" lon="-3.7019299999999995">
        <ele>658.7486032675953</ele>
        <time>2024-09-02T19:11:23.142Z</time>
      </trkpt>
      <trkpt lat="40.41722166666667" lon="-3.70203">
        <ele>656.6485995325858</ele>
        <time>2024-09-02T19:11:33.145Z</time>
      </trkpt>
      <trkpt lat="40.41721166666667" lon="-3.701985">
        <ele>656.6486029770346</ele>
        <time>2024-09-02T19:11:42.118Z</time>
      </trkpt>
      <trkpt lat="40.41729833333333" lon="-3.7016649999999998">
        <ele>663.4486858720351</ele>
        <time>2024-09-02T19:12:03.155Z</time>
      </trkpt>
      <trkpt lat="40.41732666666667" lon="-3.7016766666666663">
        <ele>663.6486950373726</ele>
        <time>2024-09-02T19:12:09.142Z</time>
      </trkpt>
      <trkpt lat="40.41744833333333" lon="-3.7011650000000005">
        <ele>666.8488246843891</ele>
        <time>2024-09-02T19:12:53.126Z</time>
      </trkpt>
      <trkpt lat="40.41743666666667" lon="-3.7010533333333333">
        <ele>665.8488371921928</ele>
        <time>2024-09-02T19:13:03.136Z</time>
      </trkpt>
      <trkpt lat="40.41749166666667" lon="-3.700896666666667">
        <ele>663.7488828331241</ele>
        <time>2024-09-02T19:13:26.119Z</time>
      </trkpt>
      <trkpt lat="40.417471666666664" lon="-3.7008183333333333">
        <ele>662.9488907748639</ele>
        <time>2024-09-02T19:13:38.146Z</time>
      </trkpt>
      <trkpt lat="40.417541666666665" lon="-3.7006033333333335">
        <ele>661.9489499456789</ele>
        <time>2024-09-02T19:14:00.168Z</time>
      </trkpt>
      <trkpt lat="40.41753833333333" lon="-3.7006333333333337">
        <ele>662.5489451897239</ele>
        <time>2024-09-02T19:14:05.123Z</time>
      </trkpt>
      <trkpt lat="40.417471666666664" lon="-3.7004716666666666">
        <ele>662.1489441265351</ele>
        <time>2024-09-02T19:14:06.126Z</time>
      </trkpt>
      <trkpt lat="40.41742833333333" lon="-3.7004483333333336">
        <ele>703.7489380130057</ele>
        <time>2024-09-02T19:14:16.149Z</time>
      </trkpt>
      <trkpt lat="40.417519999999996" lon="-3.7005116666666673">
        <ele>695.0489582261795</ele>
        <time>2024-09-02T19:14:58.139Z</time>
      </trkpt>
      <trkpt lat="40.41749166666667" lon="-3.7004783333333338">
        <ele>691.9489539825922</ele>
        <time>2024-09-02T19:15:07.152Z</time>
      </trkpt>
      <trkpt lat="40.417518333333334" lon="-3.70051">
        <ele>685.9489576301653</ele>
        <time>2024-09-02T19:15:34.152Z</time>
      </trkpt>
      <trkpt lat="40.417500000000004" lon="-3.7004799999999998">
        <ele>683.848955268404</ele>
        <time>2024-09-02T19:15:46.112Z</time>
      </trkpt>
      <trkpt lat="40.41749166666667" lon="-3.7004616666666665">
        <ele>681.9489522412256</ele>
        <time>2024-09-02T19:16:05.125Z</time>
      </trkpt>
      <trkpt lat="40.41751166666666" lon="-3.7003966666666663">
        <ele>680.3489690325316</ele>
        <time>2024-09-02T19:16:08.119Z</time>
      </trkpt>
      <trkpt lat="40.41770666666666" lon="-3.699925">
        <ele>662.9491177075561</ele>
        <time>2024-09-02T19:17:06.140Z</time>
      </trkpt>
      <trkpt lat="40.417678333333335" lon="-3.699881666666667">
        <ele>661.5491152993461</ele>
        <time>2024-09-02T19:17:13.122Z</time>
      </trkpt>
      <trkpt lat="40.417566666666666" lon="-3.6999133333333334">
        <ele>661.0490733947227</ele>
        <time>2024-09-02T19:17:30.126Z</time>
      </trkpt>
      <trkpt lat="40.417105" lon="-3.7002700000000006">
        <ele>660.2488556936114</ele>
        <time>2024-09-02T19:19:30.138Z</time>
      </trkpt>
      <trkpt lat="40.41710833333333" lon="-3.7002250000000005">
        <ele>660.2488631472212</ele>
        <time>2024-09-02T19:19:36.136Z</time>
      </trkpt>
      <trkpt lat="40.41703" lon="-3.700168333333334">
        <ele>660.1488470827996</ele>
        <time>2024-09-02T19:19:58.110Z</time>
      </trkpt>
      <trkpt lat="40.41701833333333" lon="-3.700196666666667">
        <ele>660.6488395516676</ele>
        <time>2024-09-02T19:20:01.119Z</time>
      </trkpt>
      <trkpt lat="40.41699166666667" lon="-3.7001166666666667">
        <ele>661.0488415786061</ele>
        <time>2024-09-02T19:20:06.112Z</time>
      </trkpt>
      <trkpt lat="40.41700166666667" lon="-3.6999216666666666">
        <ele>660.6488730297664</ele>
        <time>2024-09-02T19:20:15.122Z</time>
      </trkpt>
      <trkpt lat="40.416936666666665" lon="-3.699748333333333">
        <ele>656.1488852214375</ele>
        <time>2024-09-02T19:20:27.143Z</time>
      </trkpt>
      <trkpt lat="40.416963333333335" lon="-3.6996016666666662">
        <ele>651.9489109378819</ele>
        <time>2024-09-02T19:20:42.132Z</time>
      </trkpt>
      <trkpt lat="40.417141666666666" lon="-3.6996116666666667">
        <ele>653.1489731642156</ele>
        <time>2024-09-02T19:21:16.142Z</time>
      </trkpt>
      <trkpt lat="40.41708666666667" lon="-3.69958">
        <ele>654.7489630815958</ele>
        <time>2024-09-02T19:21:23.138Z</time>
      </trkpt>
      <trkpt lat="40.417071666666665" lon="-3.699656666666667">
        <ele>655.8489476147706</ele>
        <time>2024-09-02T19:21:30.142Z</time>
      </trkpt>
      <trkpt lat="40.41699166666667" lon="-3.699756666666667">
        <ele>654.8489042660909</ele>
        <time>2024-09-02T19:21:38.140Z</time>
      </trkpt>
      <trkpt lat="40.41699166666667" lon="-3.7000100000000002">
        <ele>654.0488624426231</ele>
        <time>2024-09-02T19:21:55.129Z</time>
      </trkpt>
      <trkpt lat="40.41710833333333" lon="-3.700103333333333">
        <ele>656.0488819059681</ele>
        <time>2024-09-02T19:22:06.142Z</time>
      </trkpt>
      <trkpt lat="40.41714666666667" lon="-3.7003533333333336">
        <ele>670.3488563246403</ele>
        <time>2024-09-02T19:23:05.163Z</time>
      </trkpt>
      <trkpt lat="40.41721333333333" lon="-3.700391666666667">
        <ele>671.6488651567619</ele>
        <time>2024-09-02T19:23:53.126Z</time>
      </trkpt>
      <trkpt lat="40.41715166666667" lon="-3.700446666666666">
        <ele>674.7488438734149</ele>
        <time>2024-09-02T19:24:17.132Z</time>
      </trkpt>
      <trkpt lat="40.41707833333333" lon="-3.700385">
        <ele>675.5488307807335</ele>
        <time>2024-09-02T19:24:26.140Z</time>
      </trkpt>
      <trkpt lat="40.417098333333335" lon="-3.7003683333333335">
        <ele>675.14883217662</ele>
        <time>2024-09-02T19:24:28.142Z</time>
      </trkpt>
      <trkpt lat="40.416846666666665" lon="-3.700528333333333">
        <ele>672.2487290456048</ele>
        <time>2024-09-02T19:24:47.130Z</time>
      </trkpt>
      <trkpt lat="40.416805" lon="-3.7004933333333336">
        <ele>674.0487208265002</ele>
        <time>2024-09-02T19:24:57.123Z</time>
      </trkpt>
      <trkpt lat="40.416775" lon="-3.700533333333333">
        <ele>672.7486995157449</ele>
        <time>2024-09-02T19:25:08.143Z</time>
      </trkpt>
      <trkpt lat="40.41673" lon="-3.7005133333333333">
        <ele>673.1486918936487</ele>
        <time>2024-09-02T19:25:14.145Z</time>
      </trkpt>
      <trkpt lat="40.41667833333334" lon="-3.7005516666666667">
        <ele>671.5486620302435</ele>
        <time>2024-09-02T19:25:25.116Z</time>
      </trkpt>
      <trkpt lat="40.41658666666667" lon="-3.700746666666667">
        <ele>662.6485989809602</ele>
        <time>2024-09-02T19:26:27.119Z</time>
      </trkpt>
      <trkpt lat="40.41666166666666" lon="-3.700623333333333">
        <ele>662.3486424926028</ele>
        <time>2024-09-02T19:26:49.129Z</time>
      </trkpt>
      <trkpt lat="40.416716666666666" lon="-3.7013666666666665">
        <ele>670.6485419926516</ele>
        <time>2024-09-02T19:27:48.120Z</time>
      </trkpt>
      <trkpt lat="40.41675333333333" lon="-3.7012550000000006">
        <ele>660.5485712399922</ele>
        <time>2024-09-02T19:28:12.142Z</time>
      </trkpt>
      <trkpt lat="40.416775" lon="-3.701286666666667">
        <ele>658.3485736131538</ele>
        <time>2024-09-02T19:28:22.153Z</time>
      </trkpt>
      <trkpt lat="40.41677166666667" lon="-3.701405">
        <ele>660.1485547476115</ele>
        <time>2024-09-02T19:28:32.149Z</time>
      </trkpt>
      <trkpt lat="40.41673166666667" lon="-3.701435">
        <ele>656.8485368148788</ele>
        <time>2024-09-02T19:28:37.146Z</time>
      </trkpt>
      <trkpt lat="40.41671833333333" lon="-3.7017366666666667">
        <ele>655.9484792319564</ele>
        <time>2024-09-02T19:29:06.118Z</time>
      </trkpt>
      <trkpt lat="40.41674" lon="-3.702413333333333">
        <ele>668.1483678555903</ele>
        <time>2024-09-02T19:30:00.151Z</time>
      </trkpt>
      <trkpt lat="40.41668333333334" lon="-3.702443333333333">
        <ele>665.848361547489</ele>
        <time>2024-09-02T19:30:13.162Z</time>
      </trkpt>
      <trkpt lat="40.41665" lon="-3.7025866666666665">
        <ele>662.5483084143145</ele>
        <time>2024-09-02T19:30:24.156Z</time>
      </trkpt>
      <trkpt lat="40.41665833333333" lon="-3.7030766666666666">
        <ele>654.9482228332254</ele>
        <time>2024-09-02T19:31:07.161Z</time>
      </trkpt>
      <trkpt lat="40.416621666666664" lon="-3.7030683333333334">
        <ele>650.7482104511729</ele>
        <time>2024-09-02T19:31:27.139Z</time>
      </trkpt>
      <trkpt lat="40.41657166666666" lon="-3.7031350000000005">
        <ele>649.3481852841375</ele>
        <time>2024-09-02T19:31:36.143Z</time>
      </trkpt>
      <trkpt lat="40.416655" lon="-3.7032983333333336">
        <ele>650.1481826786929</ele>
        <time>2024-09-02T19:31:48.118Z</time>
      </trkpt>
      <trkpt lat="40.41666" lon="-3.703383333333333">
        <ele>654.7481709704408</ele>
        <time>2024-09-02T19:32:12.113Z</time>
      </trkpt>
      <trkpt lat="40.41655" lon="-3.7042933333333337">
        <ele>647.1479703337549</ele>
        <time>2024-09-02T19:33:31.123Z</time>
      </trkpt>
      <trkpt lat="40.416578333333334" lon="-3.704346666666667">
        <ele>647.3479679891194</ele>
        <time>2024-09-02T19:33:37.136Z</time>
      </trkpt>
      <trkpt lat="40.41655166666667" lon="-3.704495">
        <ele>648.1479315622431</ele>
        <time>2024-09-02T19:33:50.132Z</time>
      </trkpt>
      <trkpt lat="40.41672833333334" lon="-3.7046483333333335">
        <ele>644.947960330113</ele>
        <time>2024-09-02T19:34:10.138Z</time>
      </trkpt>
      <trkpt lat="40.41688666666666" lon="-3.704716666666667">
        <ele>649.0480036548805</ele>
        <time>2024-09-02T19:34:27.123Z</time>
      </trkpt>
      <trkpt lat="40.417116666666665" lon="-3.7058083333333336">
        <ele>656.447880966547</ele>
        <time>2024-09-02T19:35:49.149Z</time>
      </trkpt>
      <trkpt lat="40.41712166666667" lon="-3.7060383333333333">
        <ele>665.4478373587236</ele>
        <time>2024-09-02T19:36:22.113Z</time>
      </trkpt>
      <trkpt lat="40.417185" lon="-3.7061633333333335">
        <ele>665.347834464319</ele>
        <time>2024-09-02T19:36:43.119Z</time>
      </trkpt>
      <trkpt lat="40.41724166666667" lon="-3.706435">
        <ele>656.3478025419565</ele>
        <time>2024-09-02T19:37:13.116Z</time>
      </trkpt>
      <trkpt lat="40.41730166666667" lon="-3.70648">
        <ele>655.8478132102019</ele>
        <time>2024-09-02T19:37:30.120Z</time>
      </trkpt>
      <trkpt lat="40.417321666666666" lon="-3.7064099999999995">
        <ele>654.6478327048064</ele>
        <time>2024-09-02T19:37:41.138Z</time>
      </trkpt>
      <trkpt lat="40.417355" lon="-3.7064150000000002">
        <ele>654.1478425589536</ele>
        <time>2024-09-02T19:37:46.136Z</time>
      </trkpt>
      <trkpt lat="40.41733" lon="-3.7063799999999993">
        <ele>650.0478393142546</ele>
        <time>2024-09-02T19:38:00.156Z</time>
      </trkpt>
      <trkpt lat="40.41735666666667" lon="-3.7064249999999994">
        <ele>651.0478437960926</ele>
        <time>2024-09-02T19:38:13.254Z</time>
      </trkpt>
      <trkpt lat="40.417405" lon="-3.7064233333333334">
        <ele>654.7478602099466</ele>
        <time>2024-09-02T19:38:26.152Z</time>
      </trkpt>
      <trkpt lat="40.417323333333336" lon="-3.7064866666666667">
        <ele>658.347820312207</ele>
        <time>2024-09-02T19:38:59.122Z</time>
      </trkpt>
      <trkpt lat="40.41733166666667" lon="-3.7064083333333335">
        <ele>657.0478387958813</ele>
        <time>2024-09-02T19:39:09.163Z</time>
      </trkpt>
      <trkpt lat="40.41728833333333" lon="-3.706465">
        <ele>656.2478155411379</ele>
        <time>2024-09-02T19:39:17.112Z</time>
      </trkpt>
      <trkpt lat="40.417366666666666" lon="-3.7063499999999996">
        <ele>655.8478605521207</ele>
        <time>2024-09-02T19:39:28.162Z</time>
      </trkpt>
      <trkpt lat="40.41717833333333" lon="-3.706433333333334">
        <ele>655.7478603041011</ele>
        <time>2024-09-02T19:41:13.129Z</time>
      </trkpt>
      <trkpt lat="40.41725333333333" lon="-3.706478333333333">
        <ele>655.9477798527938</ele>
        <time>2024-09-02T19:41:14.126Z</time>
      </trkpt>
      <trkpt lat="40.417323333333336" lon="-3.706375">
        <ele>646.7478376794825</ele>
        <time>2024-09-02T19:41:21.132Z</time>
      </trkpt>
      <trkpt lat="40.417355" lon="-3.706428333333333">
        <ele>647.2478406745633</ele>
        <time>2024-09-02T19:41:30.122Z</time>
      </trkpt>
      <trkpt lat="40.417355" lon="-3.706523333333333">
        <ele>653.6478254763575</ele>
        <time>2024-09-02T19:41:38.129Z</time>
      </trkpt>
      <trkpt lat="40.417318333333334" lon="-3.7065550000000003">
        <ele>652.1478091880405</ele>
        <time>2024-09-02T19:41:42.145Z</time>
      </trkpt>
      <trkpt lat="40.417365000000004" lon="-3.7066300000000005">
        <ele>656.3478047331228</ele>
        <time>2024-09-02T19:41:56.118Z</time>
      </trkpt>
      <trkpt lat="40.41731" lon="-3.7064916666666665">
        <ele>658.547813745964</ele>
        <time>2024-09-02T19:42:18.155Z</time>
      </trkpt>
      <trkpt lat="40.41734833333333" lon="-3.706523333333333">
        <ele>659.247816175009</ele>
        <time>2024-09-02T19:42:49.146Z</time>
      </trkpt>
      <trkpt lat="40.417366666666666" lon="-3.706716666666667">
        <ele>660.1477904011861</ele>
        <time>2024-09-02T19:43:07.138Z</time>
      </trkpt>
      <trkpt lat="40.41733166666667" lon="-3.70674">
        <ele>660.8477774872927</ele>
        <time>2024-09-02T19:43:14.128Z</time>
      </trkpt>
      <trkpt lat="40.417201666666664" lon="-3.7067449999999997">
        <ele>654.1477306400218</ele>
        <time>2024-09-02T19:43:28.156Z</time>
      </trkpt>
      <trkpt lat="40.41711833333333" lon="-3.7067033333333335">
        <ele>650.5477105214867</ele>
        <time>2024-09-02T19:43:35.159Z</time>
      </trkpt>
      <trkpt lat="40.41685333333333" lon="-3.70677">
        <ele>649.9476106702672</ele>
        <time>2024-09-02T19:43:50.156Z</time>
      </trkpt>
      <trkpt lat="40.41681166666667" lon="-3.7067033333333335">
        <ele>653.1476029509851</ele>
        <time>2024-09-02T19:43:59.129Z</time>
      </trkpt>
      <trkpt lat="40.41684166666666" lon="-3.706731666666667">
        <ele>653.0476063213544</ele>
        <time>2024-09-02T19:44:05.118Z</time>
      </trkpt>
      <trkpt lat="40.41683166666667" lon="-3.7067050000000004">
        <ele>650.7476089001799</ele>
        <time>2024-09-02T19:44:09.119Z</time>
      </trkpt>
      <trkpt lat="40.416805" lon="-3.7067949999999996">
        <ele>647.9475834080073</ele>
        <time>2024-09-02T19:44:27.151Z</time>
      </trkpt>
      <trkpt lat="40.416889999999995" lon="-3.7067816666666666">
        <ele>651.1476131270139</ele>
        <time>2024-09-02T19:44:36.153Z</time>
      </trkpt>
      <trkpt lat="40.41688166666667" lon="-3.706796666666667">
        <ele>654.3475983278341</ele>
        <time>2024-09-02T19:44:59.130Z</time>
      </trkpt>
      <trkpt lat="40.416788333333336" lon="-3.7068900000000005">
        <ele>652.5475661824229</ele>
        <time>2024-09-02T19:45:09.119Z</time>
      </trkpt>
      <trkpt lat="40.416795" lon="-3.7067766666666673">
        <ele>652.9475799770868</ele>
        <time>2024-09-02T19:45:17.159Z</time>
      </trkpt>
      <trkpt lat="40.416803333333334" lon="-3.706813333333333">
        <ele>653.1475790916434</ele>
        <time>2024-09-02T19:45:21.156Z</time>
      </trkpt>
      <trkpt lat="40.41667666666667" lon="-3.706785">
        <ele>653.2475394003328</ele>
        <time>2024-09-02T19:45:29.155Z</time>
      </trkpt>
      <trkpt lat="40.41678" lon="-3.706783333333333">
        <ele>653.2475691305227</ele>
        <time>2024-09-02T19:45:46.146Z</time>
      </trkpt>
      <trkpt lat="40.416745" lon="-3.7068399999999997">
        <ele>653.5475594729417</ele>
        <time>2024-09-02T19:45:49.155Z</time>
      </trkpt>
      <trkpt lat="40.41674833333333" lon="-3.7068816666666664">
        <ele>652.7475543724295</ele>
        <time>2024-09-02T19:45:52.152Z</time>
      </trkpt>
      <trkpt lat="40.41681833333334" lon="-3.707196666666667">
        <ele>658.6475083049494</ele>
        <time>2024-09-02T19:46:21.143Z</time>
      </trkpt>
      <trkpt lat="40.41676666666667" lon="-3.7070600000000002">
        <ele>661.7475190901768</ele>
        <time>2024-09-02T19:46:49.152Z</time>
      </trkpt>
      <trkpt lat="40.41684333333333" lon="-3.7071716666666665">
        <ele>664.9475244738717</ele>
        <time>2024-09-02T19:47:43.122Z</time>
      </trkpt>
      <trkpt lat="40.41683666666667" lon="-3.7072916666666664">
        <ele>666.3474975127449</ele>
        <time>2024-09-02T19:47:57.162Z</time>
      </trkpt>
      <trkpt lat="40.41679" lon="-3.707398333333333">
        <ele>669.5474600919927</ele>
        <time>2024-09-02T19:48:17.172Z</time>
      </trkpt>
      <trkpt lat="40.416385" lon="-3.7077483333333334">
        <ele>659.4472527970114</ele>
        <time>2024-09-02T19:49:30.136Z</time>
      </trkpt>
      <trkpt lat="40.416354999999996" lon="-3.7077616666666673">
        <ele>658.0472418245675</ele>
        <time>2024-09-02T19:49:32.135Z</time>
      </trkpt>
      <trkpt lat="40.41637333333333" lon="-3.707715">
        <ele>660.947252876903</ele>
        <time>2024-09-02T19:49:43.152Z</time>
      </trkpt>
      <trkpt lat="40.416336666666666" lon="-3.7077033333333334">
        <ele>661.7472532084698</ele>
        <time>2024-09-02T19:49:49.133Z</time>
      </trkpt>
      <trkpt lat="40.416325" lon="-3.707796666666667">
        <ele>662.0472198325973</ele>
        <time>2024-09-02T19:50:01.151Z</time>
      </trkpt>
      <trkpt lat="40.416216666666664" lon="-3.70777">
        <ele>663.4471908154895</ele>
        <time>2024-09-02T19:50:16.146Z</time>
      </trkpt>
      <trkpt lat="40.41616" lon="-3.7079">
        <ele>662.3471436275895</ele>
        <time>2024-09-02T19:50:41.115Z</time>
      </trkpt>
      <trkpt lat="40.41619166666667" lon="-3.7077416666666663">
        <ele>665.3471799183545</ele>
        <time>2024-09-02T19:51:27.118Z</time>
      </trkpt>
      <trkpt lat="40.416113333333335" lon="-3.7076833333333337">
        <ele>663.9471717264305</ele>
        <time>2024-09-02T19:51:38.115Z</time>
      </trkpt>
      <trkpt lat="40.416115" lon="-3.7075433333333336">
        <ele>658.6471969184485</ele>
        <time>2024-09-02T19:51:53.119Z</time>
      </trkpt>
      <trkpt lat="40.416185000000006" lon="-3.707456666666667">
        <ele>656.4472369074865</ele>
        <time>2024-09-02T19:52:05.110Z</time>
      </trkpt>
      <trkpt lat="40.416309999999996" lon="-3.7074483333333337">
        <ele>654.7472829310123</ele>
        <time>2024-09-02T19:52:27.118Z</time>
      </trkpt>
      <trkpt lat="40.416375" lon="-3.7070483333333337">
        <ele>646.8473824908585</ele>
        <time>2024-09-02T19:53:10.113Z</time>
      </trkpt>
      <trkpt lat="40.416261666666664" lon="-3.70699">
        <ele>647.8473482136651</ele>
        <time>2024-09-02T19:55:20.155Z</time>
      </trkpt>
      <trkpt lat="40.41618833333334" lon="-3.7069583333333336">
        <ele>651.0473396252695</ele>
        <time>2024-09-02T19:55:35.152Z</time>
      </trkpt>
      <trkpt lat="40.416306666666664" lon="-3.7068600000000003">
        <ele>656.7473940666757</ele>
        <time>2024-09-02T19:55:48.158Z</time>
      </trkpt>
      <trkpt lat="40.416216666666664" lon="-3.7067033333333335">
        <ele>653.9473984231504</ele>
        <time>2024-09-02T19:56:01.149Z</time>
      </trkpt>
      <trkpt lat="40.416293333333336" lon="-3.706701666666667">
        <ele>653.1474208590383</ele>
        <time>2024-09-02T19:56:09.153Z</time>
      </trkpt>
      <trkpt lat="40.4163" lon="-3.7066483333333338">
        <ele>652.3474362713393</ele>
        <time>2024-09-02T19:56:15.162Z</time>
      </trkpt>
      <trkpt lat="40.41635833333333" lon="-3.7066016666666664">
        <ele>651.7474476739945</ele>
        <time>2024-09-02T19:56:28.155Z</time>
      </trkpt>
      <trkpt lat="40.41629666666667" lon="-3.706553333333333">
        <ele>650.0474568789909</ele>
        <time>2024-09-02T19:56:32.163Z</time>
      </trkpt>
      <trkpt lat="40.41626833333333" lon="-3.7064249999999994">
        <ele>648.1474693399165</ele>
        <time>2024-09-02T19:56:46.132Z</time>
      </trkpt>
      <trkpt lat="40.41636833333334" lon="-3.706391666666667">
        <ele>649.3475036966855</ele>
        <time>2024-09-02T19:56:54.118Z</time>
      </trkpt>
      <trkpt lat="40.416293333333336" lon="-3.7061433333333333">
        <ele>651.2475314638879</ele>
        <time>2024-09-02T19:57:14.158Z</time>
      </trkpt>
      <trkpt lat="40.41622333333333" lon="-3.7060766666666667">
        <ele>650.2475228735791</ele>
        <time>2024-09-02T19:57:20.159Z</time>
      </trkpt>
      <trkpt lat="40.416286666666664" lon="-3.7060233333333334">
        <ele>648.247546784611</ele>
        <time>2024-09-02T19:57:31.142Z</time>
      </trkpt>
      <trkpt lat="40.41635333333333" lon="-3.705576666666667">
        <ele>646.0476580834752</ele>
        <time>2024-09-02T19:58:07.172Z</time>
      </trkpt>
      <trkpt lat="40.416435" lon="-3.705435">
        <ele>646.7477056162032</ele>
        <time>2024-09-02T19:58:24.156Z</time>
      </trkpt>
      <trkpt lat="40.41645833333334" lon="-3.705236666666667">
        <ele>648.8477601793969</ele>
        <time>2024-09-02T19:58:44.155Z</time>
      </trkpt>
      <trkpt lat="40.41650666666667" lon="-3.7052099999999997">
        <ele>650.2477759344636</ele>
        <time>2024-09-02T19:58:51.156Z</time>
      </trkpt>
      <trkpt lat="40.41652166666667" lon="-3.705073333333333">
        <ele>652.2478097818591</ele>
        <time>2024-09-02T19:59:02.156Z</time>
      </trkpt>
      <trkpt lat="40.416495000000005" lon="-3.70495">
        <ele>650.4478243762006</ele>
        <time>2024-09-02T19:59:11.162Z</time>
      </trkpt>
      <trkpt lat="40.41663666666667" lon="-3.703923333333334">
        <ele>651.7480593835742</ele>
        <time>2024-09-02T20:00:44.109Z</time>
      </trkpt>
      <trkpt lat="40.41668833333333" lon="-3.7038450000000003">
        <ele>650.9480933822682</ele>
        <time>2024-09-02T20:00:53.152Z</time>
      </trkpt>
      <trkpt lat="40.416805" lon="-3.70374">
        <ele>649.1481503576288</ele>
        <time>2024-09-02T20:01:07.122Z</time>
      </trkpt>
      <trkpt lat="40.416961666666666" lon="-3.7035899999999997">
        <ele>650.6482308705313</ele>
        <time>2024-09-02T20:01:24.140Z</time>
      </trkpt>
      <trkpt lat="40.41702166666666" lon="-3.7032933333333338">
        <ele>651.9483050980607</ele>
        <time>2024-09-02T20:01:49.171Z</time>
      </trkpt>
      <trkpt lat="40.417" lon="-3.703228333333333">
        <ele>651.9483109290951</ele>
        <time>2024-09-02T20:01:54.159Z</time>
      </trkpt>
      <trkpt lat="40.41706666666666" lon="-3.7031133333333335">
        <ele>651.3483491227502</ele>
        <time>2024-09-02T20:02:03.156Z</time>
      </trkpt>
      <trkpt lat="40.41878166666667" lon="-3.7021683333333337">
        <ele>698.8491082251974</ele>
        <time>2024-09-02T20:05:12.155Z</time>
      </trkpt>
      <trkpt lat="40.418995" lon="-3.70199">
        <ele>691.5492085706959</ele>
        <time>2024-09-02T20:15:00.159Z</time>
      </trkpt>
      <trkpt lat="40.41900166666667" lon="-3.701926666666666">
        <ele>690.4492260695198</ele>
        <time>2024-09-02T20:15:08.159Z</time>
      </trkpt>
      <trkpt lat="40.41958833333333" lon="-3.7016150000000003">
        <ele>678.5494733355508</ele>
        <time>2024-09-02T20:16:14.153Z</time>
      </trkpt>
      <trkpt lat="40.419675" lon="-3.7016400000000003">
        <ele>680.5494957749236</ele>
        <time>2024-09-02T20:16:19.116Z</time>
      </trkpt>
      <trkpt lat="40.419740000000004" lon="-3.7016033333333334">
        <ele>681.6495261925271</ele>
        <time>2024-09-02T20:16:22.115Z</time>
      </trkpt>
      <trkpt lat="40.41993" lon="-3.7017233333333337">
        <ele>682.4495766012013</ele>
        <time>2024-09-02T20:37:01.156Z</time>
      </trkpt>
      <trkpt lat="40.420025" lon="-3.7016116666666665">
        <ele>674.5496275478083</ele>
        <time>2024-09-02T20:37:27.159Z</time>
      </trkpt>
      <trkpt lat="40.420208333333335" lon="-3.7015899999999995">
        <ele>671.3496914071316</ele>
        <time>2024-09-02T20:37:45.145Z</time>
      </trkpt>
      <trkpt lat="40.421245" lon="-3.7011366666666667">
        <ele>689.7501209829743</ele>
        <time>2024-09-02T20:39:36.153Z</time>
      </trkpt>
      <trkpt lat="40.42194" lon="-3.7009216666666664">
        <ele>683.9503932172902</ele>
        <time>2024-09-02T20:40:36.125Z</time>
      </trkpt>
      <trkpt lat="40.422246666666666" lon="-3.700841666666667">
        <ele>689.6505104953909</ele>
        <time>2024-09-02T20:41:22.153Z</time>
      </trkpt>
      <trkpt lat="40.42378333333333" lon="-3.7006166666666664">
        <ele>689.751067656723</ele>
        <time>2024-09-02T20:43:48.163Z</time>
      </trkpt>
      <trkpt lat="40.424185" lon="-3.700646666666666">
        <ele>684.9511959882036</ele>
        <time>2024-09-02T20:44:36.123Z</time>
      </trkpt>
      <trkpt lat="40.424236666666665" lon="-3.7007083333333335">
        <ele>683.5512057425599</ele>
        <time>2024-09-02T20:44:45.133Z</time>
      </trkpt>
      <trkpt lat="40.424335" lon="-3.7006750000000004">
        <ele>683.4512429936095</ele>
        <time>2024-09-02T20:44:59.120Z</time>
      </trkpt>
      <trkpt lat="40.42439666666667" lon="-3.7007066666666666">
        <ele>681.1512603163575</ele>
        <time>2024-09-02T20:45:08.168Z</time>
      </trkpt>
      <trkpt lat="40.424503333333334" lon="-3.7006400000000004">
        <ele>681.4513068105655</ele>
        <time>2024-09-02T20:45:24.168Z</time>
      </trkpt>
      <trkpt lat="40.42462" lon="-3.7006783333333337">
        <ele>680.2513394991319</ele>
        <time>2024-09-02T20:45:41.155Z</time>
      </trkpt>
      <trkpt lat="40.424686666666666" lon="-3.7006316666666663">
        <ele>678.1513674930377</ele>
        <time>2024-09-02T20:45:47.155Z</time>
      </trkpt>
      <trkpt lat="40.424888333333335" lon="-3.7006566666666667">
        <ele>674.0514373176535</ele>
        <time>2024-09-02T20:46:01.113Z</time>
      </trkpt>
      <trkpt lat="40.425045" lon="-3.700778333333333">
        <ele>678.8514667134835</ele>
        <time>2024-09-02T20:46:21.158Z</time>
      </trkpt>
      <trkpt lat="40.42521166666667" lon="-3.7007950000000003">
        <ele>676.3515171852174</ele>
        <time>2024-09-02T20:46:41.119Z</time>
      </trkpt>
      <trkpt lat="40.425376666666665" lon="-3.700746666666667">
        <ele>679.5515750166122</ele>
        <time>2024-09-02T20:46:53.158Z</time>
      </trkpt>
      <trkpt lat="40.42557" lon="-3.7008566666666667">
        <ele>682.3516060625815</ele>
        <time>2024-09-02T20:46:57.162Z</time>
      </trkpt>
      <trkpt lat="40.42563166666666" lon="-3.7009749999999997">
        <ele>680.1516284196836</ele>
        <time>2024-09-02T20:47:05.129Z</time>
      </trkpt>
      <trkpt lat="40.425665" lon="-3.7009449999999995">
        <ele>681.7516438007247</ele>
        <time>2024-09-02T20:47:09.128Z</time>
      </trkpt>
      <trkpt lat="40.42568333333334" lon="-3.7007849999999998">
        <ele>688.8516768845843</ele>
        <time>2024-09-02T20:47:31.116Z</time>
      </trkpt>
      <trkpt lat="40.42574833333333" lon="-3.7008333333333336">
        <ele>690.551692653585</ele>
        <time>2024-09-02T20:47:35.120Z</time>
      </trkpt>
      <trkpt lat="40.425756666666665" lon="-3.701081666666667">
        <ele>678.6516541951422</ele>
        <time>2024-09-02T20:47:44.113Z</time>
      </trkpt>
      <trkpt lat="40.42594666666666" lon="-3.701095">
        <ele>677.4517119463321</ele>
        <time>2024-09-02T20:47:57.116Z</time>
      </trkpt>
      <trkpt lat="40.42619166666667" lon="-3.7011966666666667">
        <ele>671.451777342355</ele>
        <time>2024-09-02T20:48:21.130Z</time>
      </trkpt>
      <trkpt lat="40.426253333333335" lon="-3.701311666666667">
        <ele>667.4517816857132</ele>
        <time>2024-09-02T20:48:35.122Z</time>
      </trkpt>
      <trkpt lat="40.426325" lon="-3.70135">
        <ele>664.2517961908422</ele>
        <time>2024-09-02T20:48:50.123Z</time>
      </trkpt>
      <trkpt lat="40.426386666666666" lon="-3.7012849999999995">
        <ele>664.0518248345501</ele>
        <time>2024-09-02T20:48:58.116Z</time>
      </trkpt>
      <trkpt lat="40.426495" lon="-3.701268333333333">
        <ele>666.4518580944816</ele>
        <time>2024-09-02T20:49:19.125Z</time>
      </trkpt>
      <trkpt lat="40.426495" lon="-3.7013599999999998">
        <ele>671.1518519513552</ele>
        <time>2024-09-02T20:49:31.122Z</time>
      </trkpt>
      <trkpt lat="40.42725166666666" lon="-3.701645">
        <ele>689.8520498543975</ele>
        <time>2024-09-02T20:50:45.122Z</time>
      </trkpt>
      <trkpt lat="40.427325" lon="-3.701735">
        <ele>692.3520601546223</ele>
        <time>2024-09-02T20:51:02.155Z</time>
      </trkpt>
      <trkpt lat="40.42769333333333" lon="-3.7019299999999995">
        <ele>687.8521316128966</ele>
        <time>2024-09-02T20:51:49.152Z</time>
      </trkpt>
      <trkpt lat="40.42863166666667" lon="-3.7023283333333334">
        <ele>687.2523868943099</ele>
        <time>2024-09-02T20:53:10.163Z</time>
      </trkpt>
      <trkpt lat="40.42871" lon="-3.702111666666667">
        <ele>684.352446814391</ele>
        <time>2024-09-02T20:53:20.159Z</time>
      </trkpt>
      <trkpt lat="40.42887666666666" lon="-3.701961666666667">
        <ele>676.652534973131</ele>
        <time>2024-09-02T20:53:36.113Z</time>
      </trkpt>
      <trkpt lat="40.428461666666664" lon="-3.70006">
        <ele>660.9527274060798</ele>
        <time>2024-09-02T20:56:11.148Z</time>
      </trkpt>
      <trkpt lat="40.428578333333334" lon="-3.700038333333333">
        <ele>662.4527677192383</ele>
        <time>2024-09-02T20:56:36.126Z</time>
      </trkpt>
      <trkpt lat="40.42852166666667" lon="-3.700051666666667">
        <ele>665.0527483989722</ele>
        <time>2024-09-02T20:56:47.146Z</time>
      </trkpt>
      <trkpt lat="40.42845666666666" lon="-3.700006666666667">
        <ele>666.3527343951894</ele>
        <time>2024-09-02T20:57:03.162Z</time>
      </trkpt>
      <trkpt lat="40.42844" lon="-3.699866666666667">
        <ele>665.6527422858403</ele>
        <time>2024-09-02T20:57:13.169Z</time>
      </trkpt>
      <trkpt lat="40.42838666666667" lon="-3.699821666666667">
        <ele>664.6527429035202</ele>
        <time>2024-09-02T20:57:20.156Z</time>
      </trkpt>
      <trkpt lat="40.42832333333333" lon="-3.6996466666666663">
        <ele>663.8527484779572</ele>
        <time>2024-09-02T20:57:29.162Z</time>
      </trkpt>
      <trkpt lat="40.42830333333333" lon="-3.6995583333333335">
        <ele>663.7527561785572</ele>
        <time>2024-09-02T20:57:36.155Z</time>
      </trkpt>
      <trkpt lat="40.428345" lon="-3.6994">
        <ele>664.5527922285958</ele>
        <time>2024-09-02T20:57:45.156Z</time>
      </trkpt>
      <trkpt lat="40.428345" lon="-3.6992100000000003">
        <ele>668.5528269410426</ele>
        <time>2024-09-02T20:58:02.152Z</time>
      </trkpt>
      <trkpt lat="40.428335" lon="-3.6992416666666665">
        <ele>672.1528220122691</ele>
        <time>2024-09-02T20:58:06.163Z</time>
      </trkpt>
      <trkpt lat="40.42814833333333" lon="-3.6982649999999997">
        <ele>682.9529150734676</ele>
        <time>2024-09-02T20:59:23.158Z</time>
      </trkpt>
      <trkpt lat="40.42809666666667" lon="-3.6982833333333334">
        <ele>683.0529109558602</ele>
        <time>2024-09-02T21:00:40.118Z</time>
      </trkpt>
      <trkpt lat="40.42805333333333" lon="-3.698095">
        <ele>679.1529096513268</ele>
        <time>2024-09-02T21:00:47.136Z</time>
      </trkpt>
      <trkpt lat="40.42798833333333" lon="-3.698081666666667">
        <ele>678.45289428176</ele>
        <time>2024-09-02T21:00:51.119Z</time>
      </trkpt>
      <trkpt lat="40.427879999999995" lon="-3.6983733333333335">
        <ele>698.6528077902227</ele>
        <time>2024-09-02T21:12:19.155Z</time>
      </trkpt>
      <trkpt lat="40.427915" lon="-3.698358333333333">
        <ele>662.2528601583642</ele>
        <time>2024-09-02T21:14:22.122Z</time>
      </trkpt>
      <trkpt lat="40.42795833333333" lon="-3.698171666666667">
        <ele>676.7528661359395</ele>
        <time>2024-09-02T21:18:43.139Z</time>
      </trkpt>
      <trkpt lat="40.42789333333334" lon="-3.6983699999999997">
        <ele>681.9528141294886</ele>
        <time>2024-09-02T21:29:51.125Z</time>
      </trkpt>
    </trkseg>
  </trk>
</gpx>
