<?xml version="1.0" encoding="UTF-8"?>
<gpx version="1.1" creator="Export" xmlns="http://www.topografix.com/GPX/1/1" xmlns:xsi="http://www.w3.org/2001/XMLSchema-instance" xsi:schemaLocation="http://www.topografix.com/GPX/1/1 http://www.topografix.com/GPX/1/1/gpx.xsd http://www.garmin.com/xmlschemas/GpxExtensions/v3 http://www.garmin.com/xmlschemas/GpxExtensionsv3.xsd http://www.garmin.com/xmlschemas/TrackPointExtension/v1 http://www.garmin.com/xmlschemas/TrackPointExtensionv1.xsd http://www.garmin.com/xmlschemas/PowerExtension/v1 http://www.garmin.com/xmlschemas/PowerExtensionv1.xsd http://www.topografix.com/GPX/gpx_style/0/2 http://www.topografix.com/GPX/gpx_style/0/2/gpx_style.xsd" xmlns:gpxtpx="http://www.garmin.com/xmlschemas/TrackPointExtension/v1" xmlns:gpxx="http://www.garmin.com/xmlschemas/GpxExtensions/v3" xmlns:gpxpx="http://www.garmin.com/xmlschemas/PowerExtension/v1" xmlns:gpx_style="http://www.topografix.com/GPX/gpx_style/0/2">
  <metadata>
    <name>activity_249_2024-10-07</name>
    <author>
      <name>gpx.studio</name>
      <link href="https://gpx.studio"/>
    </author>
  </metadata>
  <trk>
    <name>activity_249_2024-10-07</name>
    <trkseg>
      <trkpt lat="50.95662166666666" lon="14.075804999999999">
        <ele>130.47820349916324</ele>
        <time>2024-10-07T14:37:08.588Z</time>
      </trkpt>
      <trkpt lat="50.956376666666664" lon="14.076371666666667">
        <ele>127.77878163592301</ele>
        <time>2024-10-07T14:37:38.595Z</time>
      </trkpt>
      <trkpt lat="50.95627666666666" lon="14.076484999999998">
        <ele>125.37886483797155</ele>
        <time>2024-10-07T14:37:50.608Z</time>
      </trkpt>
      <trkpt lat="50.95666833333333" lon="14.07713">
        <ele>128.18007556645395</ele>
        <time>2024-10-07T14:40:52.608Z</time>
      </trkpt>
      <trkpt lat="50.956691666666664" lon="14.077553333333332">
        <ele>122.7806546997355</ele>
        <time>2024-10-07T14:41:26.609Z</time>
      </trkpt>
      <trkpt lat="50.95658166666667" lon="14.077940000000002">
        <ele>119.28109095777319</ele>
        <time>2024-10-07T14:41:50.601Z</time>
      </trkpt>
      <trkpt lat="50.95688" lon="14.078629999999999">
        <ele>118.98230676052106</ele>
        <time>2024-10-07T14:42:51.589Z</time>
      </trkpt>
      <trkpt lat="50.95669833333333" lon="14.078908333333334">
        <ele>118.28254976587198</ele>
        <time>2024-10-07T14:43:14.617Z</time>
      </trkpt>
      <trkpt lat="50.95668333333333" lon="14.079045">
        <ele>119.68270119305637</ele>
        <time>2024-10-07T14:43:21.615Z</time>
      </trkpt>
      <trkpt lat="50.95692999999999" lon="14.079466666666667">
        <ele>113.38350993586918</ele>
        <time>2024-10-07T14:48:48.615Z</time>
      </trkpt>
      <trkpt lat="50.95673" lon="14.079106666666666">
        <ele>117.68288150518387</ele>
        <time>2024-10-07T14:50:05.572Z</time>
      </trkpt>
      <trkpt lat="50.956725000000006" lon="14.078951666666667">
        <ele>126.28264650229329</ele>
        <time>2024-10-07T14:50:33.592Z</time>
      </trkpt>
      <trkpt lat="50.956738333333334" lon="14.07909833333333">
        <ele>125.18278157677031</ele>
        <time>2024-10-07T14:50:40.605Z</time>
      </trkpt>
      <trkpt lat="50.95694166666667" lon="14.079450000000001">
        <ele>116.5834985410946</ele>
        <time>2024-10-07T14:51:07.617Z</time>
      </trkpt>
      <trkpt lat="50.95731166666666" lon="14.079676666666668">
        <ele>119.28410691506772</ele>
        <time>2024-10-07T14:52:50.561Z</time>
      </trkpt>
      <trkpt lat="50.957435000000004" lon="14.079921666666667">
        <ele>119.08455221392626</ele>
        <time>2024-10-07T14:53:12.589Z</time>
      </trkpt>
      <trkpt lat="50.957546666666666" lon="14.079986666666665">
        <ele>118.68473279013048</ele>
        <time>2024-10-07T14:53:33.618Z</time>
      </trkpt>
      <trkpt lat="50.95771500000001" lon="14.080306666666669">
        <ele>117.28530967075325</ele>
        <time>2024-10-07T14:54:16.595Z</time>
      </trkpt>
      <trkpt lat="50.95776666666667" lon="14.080591666666665">
        <ele>117.38565093178138</ele>
        <time>2024-10-07T14:55:32.602Z</time>
      </trkpt>
      <trkpt lat="50.957996666666666" lon="14.081161666666667">
        <ele>129.78668077069887</ele>
        <time>2024-10-07T14:56:10.602Z</time>
      </trkpt>
      <trkpt lat="50.95809166666666" lon="14.081231666666667">
        <ele>132.88688732626832</ele>
        <time>2024-10-07T14:56:19.585Z</time>
      </trkpt>
      <trkpt lat="50.958275" lon="14.081195">
        <ele>127.48699093866989</ele>
        <time>2024-10-07T14:56:51.582Z</time>
      </trkpt>
      <trkpt lat="50.95872666666667" lon="14.082338333333333">
        <ele>124.48892566505306</ele>
        <time>2024-10-07T14:58:17.601Z</time>
      </trkpt>
      <trkpt lat="50.95882666666667" lon="14.082731666666666">
        <ele>124.18955902852488</ele>
        <time>2024-10-07T14:58:43.609Z</time>
      </trkpt>
      <trkpt lat="50.95907333333333" lon="14.082736666666666">
        <ele>127.98977138358813</ele>
        <time>2024-10-07T14:59:02.552Z</time>
      </trkpt>
      <trkpt lat="50.959185" lon="14.082663333333334">
        <ele>127.28977571577923</ele>
        <time>2024-10-07T14:59:10.601Z</time>
      </trkpt>
      <trkpt lat="50.95931666666667" lon="14.082468333333335">
        <ele>126.88961645405514</ele>
        <time>2024-10-07T14:59:23.605Z</time>
      </trkpt>
      <trkpt lat="50.95928166666666" lon="14.082415">
        <ele>129.38952570619665</ele>
        <time>2024-10-07T14:59:35.594Z</time>
      </trkpt>
      <trkpt lat="50.959484999999994" lon="14.082011666666665">
        <ele>138.78914302084408</ele>
        <time>2024-10-07T15:00:39.584Z</time>
      </trkpt>
      <trkpt lat="50.95968333333334" lon="14.081743333333334">
        <ele>137.68893140716875</ele>
        <time>2024-10-07T15:01:03.612Z</time>
      </trkpt>
      <trkpt lat="50.96000333333333" lon="14.081530000000003">
        <ele>132.08889853825224</ele>
        <time>2024-10-07T15:01:30.614Z</time>
      </trkpt>
      <trkpt lat="50.960185" lon="14.081479999999999">
        <ele>135.8889686797895</ele>
        <time>2024-10-07T15:01:44.598Z</time>
      </trkpt>
      <trkpt lat="50.96030166666666" lon="14.081533333333335">
        <ele>141.18914419258726</ele>
        <time>2024-10-07T15:02:02.607Z</time>
      </trkpt>
      <trkpt lat="50.96042166666666" lon="14.081438333333331">
        <ele>141.28912380670027</ele>
        <time>2024-10-07T15:02:10.598Z</time>
      </trkpt>
      <trkpt lat="50.960666666666675" lon="14.081071666666666">
        <ele>150.38882830615688</ele>
        <time>2024-10-07T15:02:37.609Z</time>
      </trkpt>
      <trkpt lat="50.96095666666667" lon="14.08013">
        <ele>164.1877925302737</ele>
        <time>2024-10-07T15:03:58.562Z</time>
      </trkpt>
      <trkpt lat="50.96106499999999" lon="14.080046666666666">
        <ele>179.78772858998053</ele>
        <time>2024-10-07T15:04:21.582Z</time>
      </trkpt>
      <trkpt lat="50.96101999999999" lon="14.079641666666666">
        <ele>186.68717044634184</ele>
        <time>2024-10-07T15:04:59.608Z</time>
      </trkpt>
      <trkpt lat="50.96095999999999" lon="14.079433333333334">
        <ele>188.08682454034496</ele>
        <time>2024-10-07T15:05:13.546Z</time>
      </trkpt>
      <trkpt lat="50.96091166666667" lon="14.079424999999999">
        <ele>188.9867514999746</ele>
        <time>2024-10-07T15:05:17.565Z</time>
      </trkpt>
      <trkpt lat="50.961041666666674" lon="14.079323333333331">
        <ele>193.78671829639032</ele>
        <time>2024-10-07T15:05:35.559Z</time>
      </trkpt>
      <trkpt lat="50.961025" lon="14.079388333333334">
        <ele>194.4867293099907</ele>
        <time>2024-10-07T15:05:41.555Z</time>
      </trkpt>
      <trkpt lat="50.961026666666676" lon="14.079283333333334">
        <ele>197.58667571705027</ele>
        <time>2024-10-07T15:05:53.568Z</time>
      </trkpt>
      <trkpt lat="50.960881666666666" lon="14.079303333333334">
        <ele>197.0865641162082</ele>
        <time>2024-10-07T15:06:09.588Z</time>
      </trkpt>
      <trkpt lat="50.96090666666667" lon="14.078996666666667">
        <ele>199.18619022875617</ele>
        <time>2024-10-07T15:06:28.569Z</time>
      </trkpt>
      <trkpt lat="50.96106833333333" lon="14.078586666666668">
        <ele>197.08574704863935</ele>
        <time>2024-10-07T15:07:15.608Z</time>
      </trkpt>
      <trkpt lat="50.96140666666667" lon="14.07823">
        <ele>201.58553602867792</ele>
        <time>2024-10-07T15:07:58.565Z</time>
      </trkpt>
      <trkpt lat="50.96133" lon="14.078065">
        <ele>210.58526048920444</ele>
        <time>2024-10-07T15:08:19.563Z</time>
      </trkpt>
      <trkpt lat="50.96111333333333" lon="14.077910000000001">
        <ele>213.48485730795107</ele>
        <time>2024-10-07T15:08:46.563Z</time>
      </trkpt>
      <trkpt lat="50.960846666666676" lon="14.078026666666664">
        <ele>219.78478579098183</ele>
        <time>2024-10-07T15:09:23.578Z</time>
      </trkpt>
      <trkpt lat="50.96077166666667" lon="14.077968333333335">
        <ele>224.68465536437157</ele>
        <time>2024-10-07T15:09:51.562Z</time>
      </trkpt>
      <trkpt lat="50.960770000000004" lon="14.078028333333334">
        <ele>226.28470844951246</ele>
        <time>2024-10-07T15:10:10.559Z</time>
      </trkpt>
      <trkpt lat="50.960723333333334" lon="14.077940000000002">
        <ele>226.78459971523503</ele>
        <time>2024-10-07T15:10:25.562Z</time>
      </trkpt>
      <trkpt lat="50.96070666666666" lon="14.077805000000001">
        <ele>224.28437612448892</ele>
        <time>2024-10-07T15:10:34.562Z</time>
      </trkpt>
      <trkpt lat="50.960789999999996" lon="14.077598333333333">
        <ele>222.9841558843304</ele>
        <time>2024-10-07T15:10:54.569Z</time>
      </trkpt>
      <trkpt lat="50.96085166666667" lon="14.077586666666665">
        <ele>225.68418458281718</ele>
        <time>2024-10-07T15:11:17.565Z</time>
      </trkpt>
      <trkpt lat="50.960971666666666" lon="14.076505000000001">
        <ele>226.58281780442454</ele>
        <time>2024-10-07T15:12:44.609Z</time>
      </trkpt>
      <trkpt lat="50.96122833333334" lon="14.075774999999998">
        <ele>235.48202220579762</ele>
        <time>2024-10-07T15:14:29.611Z</time>
      </trkpt>
      <trkpt lat="50.96112" lon="14.075633333333334">
        <ele>238.18173353451</ele>
        <time>2024-10-07T15:14:44.559Z</time>
      </trkpt>
      <trkpt lat="50.960946666666665" lon="14.075778333333336">
        <ele>244.08178900993332</ele>
        <time>2024-10-07T15:14:56.565Z</time>
      </trkpt>
      <trkpt lat="50.96095333333333" lon="14.075616666666667">
        <ele>248.58158149574706</ele>
        <time>2024-10-07T15:15:11.585Z</time>
      </trkpt>
      <trkpt lat="50.960858333333334" lon="14.07557">
        <ele>240.8814170119415</ele>
        <time>2024-10-07T15:15:57.559Z</time>
      </trkpt>
      <trkpt lat="50.96094166666667" lon="14.075483333333333">
        <ele>237.78136334314374</ele>
        <time>2024-10-07T15:16:54.596Z</time>
      </trkpt>
      <trkpt lat="50.960989999999995" lon="14.075643333333336">
        <ele>237.78159951838018</ele>
        <time>2024-10-07T15:17:04.552Z</time>
      </trkpt>
      <trkpt lat="50.961135" lon="14.075774999999998">
        <ele>242.7819291630421</ele>
        <time>2024-10-07T15:17:20.609Z</time>
      </trkpt>
      <trkpt lat="50.96115499999999" lon="14.075591666666666">
        <ele>241.88171080530216</ele>
        <time>2024-10-07T15:17:36.555Z</time>
      </trkpt>
      <trkpt lat="50.96109833333333" lon="14.07552">
        <ele>245.38157078670875</ele>
        <time>2024-10-07T15:18:15.598Z</time>
      </trkpt>
      <trkpt lat="50.96122666666667" lon="14.075441666666666">
        <ele>244.0815549306251</ele>
        <time>2024-10-07T15:18:34.578Z</time>
      </trkpt>
      <trkpt lat="50.96119999999999" lon="14.075310000000002">
        <ele>251.68134688740088</ele>
        <time>2024-10-07T15:18:47.594Z</time>
      </trkpt>
      <trkpt lat="50.961315" lon="14.075214999999998">
        <ele>251.38130985023037</ele>
        <time>2024-10-07T15:19:09.559Z</time>
      </trkpt>
      <trkpt lat="50.961375" lon="14.075246666666665">
        <ele>255.58140501349826</ele>
        <time>2024-10-07T15:19:19.559Z</time>
      </trkpt>
      <trkpt lat="50.96131999999999" lon="14.075343333333334">
        <ele>272.7814904101058</ele>
        <time>2024-10-07T15:20:11.562Z</time>
      </trkpt>
      <trkpt lat="50.96127333333334" lon="14.075310000000002">
        <ele>271.5814137009034</ele>
        <time>2024-10-07T15:20:22.608Z</time>
      </trkpt>
      <trkpt lat="50.96145" lon="14.075453333333334">
        <ele>270.68175813019695</ele>
        <time>2024-10-07T15:21:00.575Z</time>
      </trkpt>
      <trkpt lat="50.96138333333333" lon="14.075085000000001">
        <ele>272.68121131184705</ele>
        <time>2024-10-07T15:21:56.559Z</time>
      </trkpt>
      <trkpt lat="50.961118333333324" lon="14.074974999999998">
        <ele>276.8808646144277</ele>
        <time>2024-10-07T15:23:57.563Z</time>
      </trkpt>
      <trkpt lat="50.96137999999999" lon="14.075075">
        <ele>270.1811686556803</ele>
        <time>2024-10-07T15:24:42.615Z</time>
      </trkpt>
      <trkpt lat="50.961349999999996" lon="14.074888333333336">
        <ele>268.4808968507583</ele>
        <time>2024-10-07T15:25:02.615Z</time>
      </trkpt>
      <trkpt lat="50.961445000000005" lon="14.074686666666667">
        <ele>274.5807154900927</ele>
        <time>2024-10-07T15:25:24.578Z</time>
      </trkpt>
      <trkpt lat="50.96164" lon="14.074600000000002">
        <ele>279.7807025521754</ele>
        <time>2024-10-07T15:26:01.561Z</time>
      </trkpt>
      <trkpt lat="50.961703333333325" lon="14.074426666666666">
        <ele>286.8805637108869</ele>
        <time>2024-10-07T15:26:36.596Z</time>
      </trkpt>
      <trkpt lat="50.961670000000005" lon="14.074071666666669">
        <ele>289.3800430735814</ele>
        <time>2024-10-07T15:27:29.561Z</time>
      </trkpt>
      <trkpt lat="50.961531666666666" lon="14.073785000000003">
        <ele>288.0795310207089</ele>
        <time>2024-10-07T15:28:26.568Z</time>
      </trkpt>
      <trkpt lat="50.96161666666667" lon="14.073561666666668">
        <ele>289.5792963536093</ele>
        <time>2024-10-07T15:28:42.558Z</time>
      </trkpt>
      <trkpt lat="50.961693333333336" lon="14.073611666666666">
        <ele>288.57943052632857</ele>
        <time>2024-10-07T15:29:11.556Z</time>
      </trkpt>
      <trkpt lat="50.96163833333333" lon="14.073553333333333">
        <ele>284.6792914625007</ele>
        <time>2024-10-07T15:29:29.562Z</time>
      </trkpt>
      <trkpt lat="50.961681666666664" lon="14.073641666666667">
        <ele>285.2794125053697</ele>
        <time>2024-10-07T15:29:58.552Z</time>
      </trkpt>
      <trkpt lat="50.96172333333334" lon="14.073235">
        <ele>289.5789417404974</ele>
        <time>2024-10-07T15:30:24.599Z</time>
      </trkpt>
      <trkpt lat="50.96177666666667" lon="14.073116666666666">
        <ele>289.0788127611794</ele>
        <time>2024-10-07T15:30:56.563Z</time>
      </trkpt>
      <trkpt lat="50.96182666666667" lon="14.07316">
        <ele>287.17890972121234</ele>
        <time>2024-10-07T15:31:12.582Z</time>
      </trkpt>
      <trkpt lat="50.961745" lon="14.073084999999999">
        <ele>285.67874571188327</ele>
        <time>2024-10-07T15:32:02.559Z</time>
      </trkpt>
      <trkpt lat="50.961865" lon="14.072701666666667">
        <ele>287.8783168626186</ele>
        <time>2024-10-07T15:34:17.556Z</time>
      </trkpt>
      <trkpt lat="50.96192333333333" lon="14.07272">
        <ele>291.2783849862376</ele>
        <time>2024-10-07T15:34:29.572Z</time>
      </trkpt>
      <trkpt lat="50.96204833333333" lon="14.072463333333333">
        <ele>293.87814449750823</ele>
        <time>2024-10-07T15:35:11.585Z</time>
      </trkpt>
      <trkpt lat="50.96228166666666" lon="14.072548333333335">
        <ele>292.67844029634534</ele>
        <time>2024-10-07T15:36:36.615Z</time>
      </trkpt>
      <trkpt lat="50.962401666666665" lon="14.072453333333332">
        <ele>288.4784221287539</ele>
        <time>2024-10-07T15:36:52.561Z</time>
      </trkpt>
      <trkpt lat="50.96263333333333" lon="14.072703333333333">
        <ele>292.77893007549557</ele>
        <time>2024-10-07T15:37:18.561Z</time>
      </trkpt>
      <trkpt lat="50.9627" lon="14.072608333333335">
        <ele>292.67887681943165</ele>
        <time>2024-10-07T15:37:33.572Z</time>
      </trkpt>
      <trkpt lat="50.96272666666667" lon="14.072840000000001">
        <ele>296.5792165511249</ele>
        <time>2024-10-07T15:38:29.552Z</time>
      </trkpt>
      <trkpt lat="50.96274666666667" lon="14.072750000000001">
        <ele>297.3791126071694</ele>
        <time>2024-10-07T15:38:52.552Z</time>
      </trkpt>
      <trkpt lat="50.96284000000001" lon="14.072733333333334">
        <ele>301.3791685122018</ele>
        <time>2024-10-07T15:39:14.565Z</time>
      </trkpt>
      <trkpt lat="50.962804999999996" lon="14.072911666666668">
        <ele>300.2793204566961</ele>
        <time>2024-10-07T15:40:32.562Z</time>
      </trkpt>
      <trkpt lat="50.962849999999996" lon="14.07276">
        <ele>296.97922951211626</ele>
        <time>2024-10-07T15:40:49.588Z</time>
      </trkpt>
      <trkpt lat="50.96277" lon="14.072801666666665">
        <ele>294.37919660112686</ele>
        <time>2024-10-07T15:41:04.592Z</time>
      </trkpt>
      <trkpt lat="50.96244166666667" lon="14.072468333333331">
        <ele>286.8784970829506</ele>
        <time>2024-10-07T15:41:45.601Z</time>
      </trkpt>
      <trkpt lat="50.96216833333333" lon="14.072531666666665">
        <ele>288.8783284336918</ele>
        <time>2024-10-07T15:42:16.566Z</time>
      </trkpt>
      <trkpt lat="50.962195" lon="14.07245666666667">
        <ele>292.478266679694</ele>
        <time>2024-10-07T15:42:34.588Z</time>
      </trkpt>
      <trkpt lat="50.96211166666667" lon="14.072345">
        <ele>290.27803849235613</ele>
        <time>2024-10-07T15:42:47.601Z</time>
      </trkpt>
      <trkpt lat="50.962356666666665" lon="14.071873333333334">
        <ele>298.67758582806533</ele>
        <time>2024-10-07T15:43:45.604Z</time>
      </trkpt>
      <trkpt lat="50.96223" lon="14.072061666666665">
        <ele>305.47770867943996</ele>
        <time>2024-10-07T15:44:28.572Z</time>
      </trkpt>
      <trkpt lat="50.962043333333334" lon="14.072176666666667">
        <ele>307.87773656677007</ele>
        <time>2024-10-07T15:45:29.568Z</time>
      </trkpt>
      <trkpt lat="50.96185833333334" lon="14.071866666666665">
        <ele>309.0771672951158</ele>
        <time>2024-10-07T15:46:16.558Z</time>
      </trkpt>
      <trkpt lat="50.96173666666667" lon="14.072076666666666">
        <ele>307.3773514299601</ele>
        <time>2024-10-07T15:47:19.598Z</time>
      </trkpt>
      <trkpt lat="50.961848333333336" lon="14.071905">
        <ele>307.07720981342345</ele>
        <time>2024-10-07T15:48:16.601Z</time>
      </trkpt>
      <trkpt lat="50.96198666666666" lon="14.071968333333333">
        <ele>308.0774030573425</ele>
        <time>2024-10-07T15:48:35.578Z</time>
      </trkpt>
      <trkpt lat="50.96218999999999" lon="14.071816666666667">
        <ele>313.577369594518</ele>
        <time>2024-10-07T15:49:14.563Z</time>
      </trkpt>
      <trkpt lat="50.962375" lon="14.071428333333332">
        <ele>307.7769909328153</ele>
        <time>2024-10-07T15:49:46.598Z</time>
      </trkpt>
      <trkpt lat="50.96250333333334" lon="14.071543333333333">
        <ele>309.87724641441855</ele>
        <time>2024-10-07T15:50:04.562Z</time>
      </trkpt>
      <trkpt lat="50.962565" lon="14.071385000000001">
        <ele>314.1770967938064</ele>
        <time>2024-10-07T15:50:17.563Z</time>
      </trkpt>
      <trkpt lat="50.96252" lon="14.071226666666666">
        <ele>318.8768238730528</ele>
        <time>2024-10-07T15:50:52.559Z</time>
      </trkpt>
      <trkpt lat="50.962665" lon="14.071220000000002">
        <ele>317.87690428431756</ele>
        <time>2024-10-07T15:51:33.576Z</time>
      </trkpt>
      <trkpt lat="50.962581666666665" lon="14.071158333333335">
        <ele>324.8768108653431</ele>
        <time>2024-10-07T15:51:42.592Z</time>
      </trkpt>
      <trkpt lat="50.96261833333333" lon="14.070955">
        <ele>322.57654832064304</ele>
        <time>2024-10-07T15:52:06.555Z</time>
      </trkpt>
      <trkpt lat="50.96277499999999" lon="14.070668333333334">
        <ele>323.87629546994896</ele>
        <time>2024-10-07T15:52:41.555Z</time>
      </trkpt>
      <trkpt lat="50.96280333333334" lon="14.070433333333336">
        <ele>321.2759838484872</ele>
        <time>2024-10-07T15:53:02.595Z</time>
      </trkpt>
      <trkpt lat="50.962900000000005" lon="14.070358333333335">
        <ele>324.27595126039114</ele>
        <time>2024-10-07T15:53:14.596Z</time>
      </trkpt>
      <trkpt lat="50.962915" lon="14.070138333333334">
        <ele>320.8757565053326</ele>
        <time>2024-10-07T15:54:23.592Z</time>
      </trkpt>
      <trkpt lat="50.963080000000005" lon="14.069868333333334">
        <ele>327.0754321312816</ele>
        <time>2024-10-07T15:54:57.561Z</time>
      </trkpt>
      <trkpt lat="50.96318833333333" lon="14.069821666666666">
        <ele>322.87544818987584</ele>
        <time>2024-10-07T15:55:20.551Z</time>
      </trkpt>
      <trkpt lat="50.963269999999994" lon="14.069961666666666">
        <ele>322.17568743859306</ele>
        <time>2024-10-07T15:55:35.565Z</time>
      </trkpt>
      <trkpt lat="50.96327833333333" lon="14.069885">
        <ele>319.97566323987616</ele>
        <time>2024-10-07T15:55:45.553Z</time>
      </trkpt>
      <trkpt lat="50.96315666666666" lon="14.069795">
        <ele>318.0753990212316</ele>
        <time>2024-10-07T15:55:58.585Z</time>
      </trkpt>
      <trkpt lat="50.96287166666666" lon="14.070136666666667">
        <ele>318.47562749442045</ele>
        <time>2024-10-07T15:56:33.598Z</time>
      </trkpt>
      <trkpt lat="50.96271333333334" lon="14.070826666666669">
        <ele>315.8764181194422</ele>
        <time>2024-10-07T15:57:21.592Z</time>
      </trkpt>
      <trkpt lat="50.962605" lon="14.070989999999998">
        <ele>314.8765629450317</ele>
        <time>2024-10-07T15:57:37.588Z</time>
      </trkpt>
      <trkpt lat="50.96256833333334" lon="14.07133">
        <ele>311.3770069661621</ele>
        <time>2024-10-07T15:58:01.562Z</time>
      </trkpt>
      <trkpt lat="50.96252500000001" lon="14.07130833333333">
        <ele>308.7769449228394</ele>
        <time>2024-10-07T15:58:17.588Z</time>
      </trkpt>
      <trkpt lat="50.96244166666667" lon="14.071741666666666">
        <ele>300.8774643543247</ele>
        <time>2024-10-07T15:59:43.601Z</time>
      </trkpt>
      <trkpt lat="50.96216166666667" lon="14.072243333333331">
        <ele>296.2779076686733</ele>
        <time>2024-10-07T16:00:54.598Z</time>
      </trkpt>
      <trkpt lat="50.961949999999995" lon="14.07247">
        <ele>287.5780670450155</ele>
        <time>2024-10-07T16:01:40.569Z</time>
      </trkpt>
      <trkpt lat="50.96194666666667" lon="14.072685000000002">
        <ele>288.478339276194</ele>
        <time>2024-10-07T16:02:08.562Z</time>
      </trkpt>
      <trkpt lat="50.96182999999999" lon="14.072911666666668">
        <ele>284.07856971931625</ele>
        <time>2024-10-07T16:02:43.568Z</time>
      </trkpt>
      <trkpt lat="50.96184333333334" lon="14.072806666666668">
        <ele>283.1784373260656</ele>
        <time>2024-10-07T16:03:04.571Z</time>
      </trkpt>
      <trkpt lat="50.961825" lon="14.073015000000002">
        <ele>284.5786966184828</ele>
        <time>2024-10-07T16:03:24.571Z</time>
      </trkpt>
      <trkpt lat="50.96167666666667" lon="14.073341666666666">
        <ele>280.37903958717135</ele>
        <time>2024-10-07T16:04:04.563Z</time>
      </trkpt>
      <trkpt lat="50.961666666666666" lon="14.073595000000001">
        <ele>283.67935297544386</ele>
        <time>2024-10-07T16:04:24.581Z</time>
      </trkpt>
      <trkpt lat="50.961636666666664" lon="14.073535">
        <ele>281.3793140660775</ele>
        <time>2024-10-07T16:04:52.569Z</time>
      </trkpt>
      <trkpt lat="50.96170833333334" lon="14.07328">
        <ele>280.2789824689306</ele>
        <time>2024-10-07T16:05:17.572Z</time>
      </trkpt>
      <trkpt lat="50.96188666666667" lon="14.072888333333333">
        <ele>279.278596038426</ele>
        <time>2024-10-07T16:05:50.598Z</time>
      </trkpt>
      <trkpt lat="50.96187" lon="14.072750000000001">
        <ele>276.57840350876035</ele>
        <time>2024-10-07T16:05:57.609Z</time>
      </trkpt>
      <trkpt lat="50.96197833333334" lon="14.072491666666668">
        <ele>270.0781308587937</ele>
        <time>2024-10-07T16:06:19.599Z</time>
      </trkpt>
      <trkpt lat="50.96209999999999" lon="14.072439999999999">
        <ele>292.5781419729342</ele>
        <time>2024-10-07T16:07:26.591Z</time>
      </trkpt>
      <trkpt lat="50.96218833333334" lon="14.072511666666665">
        <ele>291.27831385558954</ele>
        <time>2024-10-07T16:07:43.608Z</time>
      </trkpt>
      <trkpt lat="50.962135" lon="14.072385">
        <ele>292.37811103890044</ele>
        <time>2024-10-07T16:08:31.605Z</time>
      </trkpt>
      <trkpt lat="50.961955" lon="14.072499999999998">
        <ele>286.97810422687235</ele>
        <time>2024-10-07T16:09:06.596Z</time>
      </trkpt>
      <trkpt lat="50.961838333333326" lon="14.072968333333332">
        <ele>281.77864304712443</ele>
        <time>2024-10-07T16:10:23.555Z</time>
      </trkpt>
      <trkpt lat="50.96179666666667" lon="14.072948333333333">
        <ele>279.27860159583474</ele>
        <time>2024-10-07T16:10:38.562Z</time>
      </trkpt>
      <trkpt lat="50.96164333333333" lon="14.073530000000002">
        <ele>275.77924658728443</ele>
        <time>2024-10-07T16:11:29.592Z</time>
      </trkpt>
      <trkpt lat="50.96158833333334" lon="14.073565">
        <ele>273.17927884872586</ele>
        <time>2024-10-07T16:11:37.589Z</time>
      </trkpt>
      <trkpt lat="50.96155" lon="14.07372">
        <ele>277.5794536799185</ele>
        <time>2024-10-07T16:11:49.615Z</time>
      </trkpt>
      <trkpt lat="50.96160666666666" lon="14.073919999999998">
        <ele>283.6797453787574</ele>
        <time>2024-10-07T16:12:10.598Z</time>
      </trkpt>
      <trkpt lat="50.96167333333333" lon="14.073973333333333">
        <ele>280.37989005027697</ele>
        <time>2024-10-07T16:12:33.562Z</time>
      </trkpt>
      <trkpt lat="50.96173" lon="14.073904999999998">
        <ele>278.2798711060375</ele>
        <time>2024-10-07T16:12:46.561Z</time>
      </trkpt>
      <trkpt lat="50.96166166666667" lon="14.073938333333334">
        <ele>275.7798469534424</ele>
        <time>2024-10-07T16:13:11.585Z</time>
      </trkpt>
      <trkpt lat="50.961726666666664" lon="14.07432">
        <ele>277.18040122842706</ele>
        <time>2024-10-07T16:13:43.556Z</time>
      </trkpt>
      <trkpt lat="50.96160499999999" lon="14.07461">
        <ele>274.5807190202711</ele>
        <time>2024-10-07T16:14:20.612Z</time>
      </trkpt>
      <trkpt lat="50.961491666666674" lon="14.074631666666669">
        <ele>275.6806566183531</ele>
        <time>2024-10-07T16:14:33.607Z</time>
      </trkpt>
      <trkpt lat="50.961353333333335" lon="14.074873333333334">
        <ele>275.98086893028835</ele>
        <time>2024-10-07T16:14:54.601Z</time>
      </trkpt>
      <trkpt lat="50.96133499999999" lon="14.074974999999998">
        <ele>274.0809714488149</ele>
        <time>2024-10-07T16:15:01.572Z</time>
      </trkpt>
      <trkpt lat="50.961484999999996" lon="14.075334999999999">
        <ele>266.28161996976814</ele>
        <time>2024-10-07T16:15:59.545Z</time>
      </trkpt>
      <trkpt lat="50.961315" lon="14.075250000000002">
        <ele>261.4813630505207</ele>
        <time>2024-10-07T16:16:31.596Z</time>
      </trkpt>
      <trkpt lat="50.96136666666666" lon="14.075358333333334">
        <ele>259.3815433065152</ele>
        <time>2024-10-07T16:17:04.562Z</time>
      </trkpt>
      <trkpt lat="50.96132666666667" lon="14.075233333333331">
        <ele>274.6813507335174</ele>
        <time>2024-10-07T16:17:35.559Z</time>
      </trkpt>
      <trkpt lat="50.96125" lon="14.075255">
        <ele>272.6813183211422</ele>
        <time>2024-10-07T16:17:50.563Z</time>
      </trkpt>
      <trkpt lat="50.96106666666666" lon="14.075568333333335">
        <ele>260.4815857812471</ele>
        <time>2024-10-07T16:18:22.559Z</time>
      </trkpt>
      <trkpt lat="50.96115499999999" lon="14.075703333333335">
        <ele>252.0818367743541</ele>
        <time>2024-10-07T16:18:43.565Z</time>
      </trkpt>
      <trkpt lat="50.961061666666666" lon="14.075966666666666">
        <ele>256.0821258181901</ele>
        <time>2024-10-07T16:19:14.555Z</time>
      </trkpt>
      <trkpt lat="50.961081666666665" lon="14.07604">
        <ele>252.98223994045782</ele>
        <time>2024-10-07T16:19:25.562Z</time>
      </trkpt>
      <trkpt lat="50.961016666666666" lon="14.076123333333332">
        <ele>250.4823096761341</ele>
        <time>2024-10-07T16:19:42.559Z</time>
      </trkpt>
      <trkpt lat="50.96100333333334" lon="14.076491666666668">
        <ele>240.9827905022611</ele>
        <time>2024-10-07T16:20:18.591Z</time>
      </trkpt>
      <trkpt lat="50.96094" lon="14.076608333333334">
        <ele>236.98290559650226</ele>
        <time>2024-10-07T16:20:30.592Z</time>
      </trkpt>
      <trkpt lat="50.96084333333333" lon="14.077456666666668">
        <ele>226.38398124435642</ele>
        <time>2024-10-07T16:21:26.599Z</time>
      </trkpt>
      <trkpt lat="50.96067500000001" lon="14.077715000000001">
        <ele>222.88420108256125</ele>
        <time>2024-10-07T16:21:58.592Z</time>
      </trkpt>
      <trkpt lat="50.96077833333334" lon="14.078078333333334">
        <ele>224.68478952779088</ele>
        <time>2024-10-07T16:22:46.592Z</time>
      </trkpt>
      <trkpt lat="50.961169999999996" lon="14.07799">
        <ele>210.0850054777905</ele>
        <time>2024-10-07T16:23:41.569Z</time>
      </trkpt>
      <trkpt lat="50.96141333333333" lon="14.078203333333333">
        <ele>206.98549439317617</ele>
        <time>2024-10-07T16:24:28.584Z</time>
      </trkpt>
      <trkpt lat="50.96112" lon="14.078328333333332">
        <ele>204.08542875525515</ele>
        <time>2024-10-07T16:25:19.608Z</time>
      </trkpt>
      <trkpt lat="50.96102333333333" lon="14.078485">
        <ele>202.08555000652245</ele>
        <time>2024-10-07T16:25:39.611Z</time>
      </trkpt>
      <trkpt lat="50.96104999999999" lon="14.078613333333331">
        <ele>199.38573875315316</ele>
        <time>2024-10-07T16:25:51.563Z</time>
      </trkpt>
      <trkpt lat="50.96091833333333" lon="14.07888">
        <ele>192.68599576530337</ele>
        <time>2024-10-07T16:26:26.569Z</time>
      </trkpt>
      <trkpt lat="50.960983333333324" lon="14.078983333333333">
        <ele>194.78619841777953</ele>
        <time>2024-10-07T16:26:39.598Z</time>
      </trkpt>
      <trkpt lat="50.96100166666667" lon="14.079276666666665">
        <ele>190.08661693094808</ele>
        <time>2024-10-07T16:27:20.596Z</time>
      </trkpt>
      <trkpt lat="50.961073333333324" lon="14.07935">
        <ele>191.38678485404262</ele>
        <time>2024-10-07T16:27:37.595Z</time>
      </trkpt>
      <trkpt lat="50.96101333333333" lon="14.079346666666668">
        <ele>192.1867497691288</ele>
        <time>2024-10-07T16:27:49.556Z</time>
      </trkpt>
      <trkpt lat="50.96122333333333" lon="14.079406666666667">
        <ele>187.18699352571417</ele>
        <time>2024-10-07T16:29:03.591Z</time>
      </trkpt>
      <trkpt lat="50.96146166666667" lon="14.079315000000001">
        <ele>178.18706485678337</ele>
        <time>2024-10-07T16:29:49.604Z</time>
      </trkpt>
      <trkpt lat="50.96160499999999" lon="14.079388333333334">
        <ele>171.68728029091625</ele>
        <time>2024-10-07T16:30:11.598Z</time>
      </trkpt>
      <trkpt lat="50.96188666666667" lon="14.079858333333334">
        <ele>166.08815514132445</ele>
        <time>2024-10-07T16:31:14.601Z</time>
      </trkpt>
      <trkpt lat="50.96181" lon="14.079561666666667">
        <ele>167.18771125086153</ele>
        <time>2024-10-07T16:31:37.598Z</time>
      </trkpt>
      <trkpt lat="50.961846666666666" lon="14.079551666666669">
        <ele>167.48769398605458</ele>
        <time>2024-10-07T16:31:43.596Z</time>
      </trkpt>
      <trkpt lat="50.96191333333333" lon="14.079646666666667">
        <ele>167.98789716463742</ele>
        <time>2024-10-07T16:31:51.553Z</time>
      </trkpt>
      <trkpt lat="50.961883333333326" lon="14.079695">
        <ele>166.487924058766</ele>
        <time>2024-10-07T16:32:01.586Z</time>
      </trkpt>
      <trkpt lat="50.96196333333334" lon="14.079900000000002">
        <ele>163.5882745471056</ele>
        <time>2024-10-07T16:32:24.598Z</time>
      </trkpt>
      <trkpt lat="50.962005" lon="14.080288333333332">
        <ele>151.9888464068392</ele>
        <time>2024-10-07T16:33:11.598Z</time>
      </trkpt>
      <trkpt lat="50.962045" lon="14.080253333333333">
        <ele>152.0888511668403</ele>
        <time>2024-10-07T16:33:18.601Z</time>
      </trkpt>
      <trkpt lat="50.96200999999999" lon="14.080091666666666">
        <ele>152.28860481036793</ele>
        <time>2024-10-07T16:33:32.601Z</time>
      </trkpt>
      <trkpt lat="50.96205666666666" lon="14.080005000000002">
        <ele>152.18852128008882</ele>
        <time>2024-10-07T16:33:40.601Z</time>
      </trkpt>
      <trkpt lat="50.96221333333333" lon="14.080006666666668">
        <ele>151.58861911427036</ele>
        <time>2024-10-07T16:33:56.605Z</time>
      </trkpt>
      <trkpt lat="50.96225833333333" lon="14.080121666666665">
        <ele>150.98881302615942</ele>
        <time>2024-10-07T16:34:05.599Z</time>
      </trkpt>
      <trkpt lat="50.96216833333333" lon="14.080305">
        <ele>148.6889983412437</ele>
        <time>2024-10-07T16:34:18.599Z</time>
      </trkpt>
      <trkpt lat="50.96228333333333" lon="14.080176666666667">
        <ele>147.68893210275814</ele>
        <time>2024-10-07T16:34:37.562Z</time>
      </trkpt>
      <trkpt lat="50.96223833333333" lon="14.08020166666667">
        <ele>146.58892596204925</ele>
        <time>2024-10-07T16:34:45.562Z</time>
      </trkpt>
      <trkpt lat="50.96230333333333" lon="14.080343333333333">
        <ele>148.58917020486408</ele>
        <time>2024-10-07T16:35:00.555Z</time>
      </trkpt>
      <trkpt lat="50.962105" lon="14.080503333333334">
        <ele>148.58923097487002</ele>
        <time>2024-10-07T16:35:24.558Z</time>
      </trkpt>
      <trkpt lat="50.962084999999995" lon="14.080705">
        <ele>141.58947837090446</ele>
        <time>2024-10-07T16:35:54.562Z</time>
      </trkpt>
      <trkpt lat="50.96132333333333" lon="14.081525">
        <ele>121.0899788092625</ele>
        <time>2024-10-07T16:37:50.608Z</time>
      </trkpt>
      <trkpt lat="50.96060333333333" lon="14.082133333333335">
        <ele>118.29022119764119</ele>
        <time>2024-10-07T16:39:24.558Z</time>
      </trkpt>
      <trkpt lat="50.96037833333333" lon="14.082116666666666">
        <ele>128.39003468436476</ele>
        <time>2024-10-07T16:39:48.562Z</time>
      </trkpt>
      <trkpt lat="50.96021166666666" lon="14.082211666666668">
        <ele>133.59001215807467</ele>
        <time>2024-10-07T16:40:09.571Z</time>
      </trkpt>
      <trkpt lat="50.95982666666667" lon="14.082113333333332">
        <ele>131.88955460524596</ele>
        <time>2024-10-07T16:41:07.562Z</time>
      </trkpt>
      <trkpt lat="50.95935333333333" lon="14.082494999999998">
        <ele>116.38967479932488</ele>
        <time>2024-10-07T16:42:03.605Z</time>
      </trkpt>
      <trkpt lat="50.95928166666666" lon="14.082436666666668">
        <ele>116.88954996420091</ele>
        <time>2024-10-07T16:42:16.601Z</time>
      </trkpt>
      <trkpt lat="50.959295000000004" lon="14.082223333333332">
        <ele>113.98927550524547</ele>
        <time>2024-10-07T16:43:37.592Z</time>
      </trkpt>
      <trkpt lat="50.959285" lon="14.082546666666667">
        <ele>113.18968306701868</ele>
        <time>2024-10-07T16:44:46.605Z</time>
      </trkpt>
      <trkpt lat="50.95923333333334" lon="14.082455000000001">
        <ele>114.88954189319719</ele>
        <time>2024-10-07T16:45:05.592Z</time>
      </trkpt>
      <trkpt lat="50.95927833333334" lon="14.082523333333333">
        <ele>115.98961481853655</ele>
        <time>2024-10-07T16:45:09.555Z</time>
      </trkpt>
      <trkpt lat="50.95925666666667" lon="14.082613333333333">
        <ele>119.48974744217107</ele>
        <time>2024-10-07T16:45:16.556Z</time>
      </trkpt>
      <trkpt lat="50.95904833333334" lon="14.082755">
        <ele>125.28979197042092</ele>
        <time>2024-10-07T16:45:36.589Z</time>
      </trkpt>
      <trkpt lat="50.958863333333326" lon="14.082745">
        <ele>121.98963162989162</ele>
        <time>2024-10-07T16:45:53.611Z</time>
      </trkpt>
      <trkpt lat="50.95878833333333" lon="14.082651666666667">
        <ele>108.88943348994542</ele>
        <time>2024-10-07T16:46:19.594Z</time>
      </trkpt>
      <trkpt lat="50.95885833333333" lon="14.082753333333335">
        <ele>109.48962466506663</ele>
        <time>2024-10-07T16:46:31.596Z</time>
      </trkpt>
      <trkpt lat="50.958863333333326" lon="14.082688333333332">
        <ele>120.9896256210433</ele>
        <time>2024-10-07T16:48:37.605Z</time>
      </trkpt>
      <trkpt lat="50.95875833333333" lon="14.082635000000002">
        <ele>126.58940173782841</ele>
        <time>2024-10-07T16:49:01.596Z</time>
      </trkpt>
      <trkpt lat="50.958740000000006" lon="14.082301666666668">
        <ele>117.18890289062277</ele>
        <time>2024-10-07T16:49:27.562Z</time>
      </trkpt>
      <trkpt lat="50.958434999999994" lon="14.081471666666667">
        <ele>123.58754573607743</ele>
        <time>2024-10-07T16:50:22.594Z</time>
      </trkpt>
      <trkpt lat="50.95822166666667" lon="14.081201666666667">
        <ele>127.98698887421818</ele>
        <time>2024-10-07T16:50:55.561Z</time>
      </trkpt>
      <trkpt lat="50.95809333333333" lon="14.081145">
        <ele>130.38680138017668</ele>
        <time>2024-10-07T16:51:08.559Z</time>
      </trkpt>
      <trkpt lat="50.958020000000005" lon="14.080879999999999">
        <ele>129.88638535286063</ele>
        <time>2024-10-07T16:51:26.562Z</time>
      </trkpt>
      <trkpt lat="50.95816" lon="14.080589999999999">
        <ele>125.1860868057206</ele>
        <time>2024-10-07T16:51:47.601Z</time>
      </trkpt>
      <trkpt lat="50.958246666666675" lon="14.080641666666668">
        <ele>118.78617374481261</ele>
        <time>2024-10-07T16:52:15.604Z</time>
      </trkpt>
      <trkpt lat="50.95832833333334" lon="14.080363333333333">
        <ele>112.68592628230611</ele>
        <time>2024-10-07T16:52:33.601Z</time>
      </trkpt>
      <trkpt lat="50.958268333333336" lon="14.080263333333335">
        <ele>113.58572548959019</ele>
        <time>2024-10-07T16:52:41.563Z</time>
      </trkpt>
      <trkpt lat="50.958535" lon="14.079848333333333">
        <ele>109.58537137964379</ele>
        <time>2024-10-07T16:53:44.549Z</time>
      </trkpt>
      <trkpt lat="50.958104999999996" lon="14.080633333333333">
        <ele>115.28608064332285</ele>
        <time>2024-10-07T16:54:48.566Z</time>
      </trkpt>
      <trkpt lat="50.958054999999995" lon="14.080853333333334">
        <ele>120.0863434599832</ele>
        <time>2024-10-07T16:55:03.572Z</time>
      </trkpt>
      <trkpt lat="50.95805166666667" lon="14.080963333333333">
        <ele>121.9864770402485</ele>
        <time>2024-10-07T16:55:08.565Z</time>
      </trkpt>
      <trkpt lat="50.95811666666667" lon="14.080808333333334">
        <ele>127.38634014367383</ele>
        <time>2024-10-07T16:55:31.556Z</time>
      </trkpt>
      <trkpt lat="50.958189999999995" lon="14.080975">
        <ele>126.5866073836971</ele>
        <time>2024-10-07T16:55:46.555Z</time>
      </trkpt>
      <trkpt lat="50.958288333333336" lon="14.081021666666667">
        <ele>126.48672741196279</ele>
        <time>2024-10-07T16:55:54.559Z</time>
      </trkpt>
      <trkpt lat="50.958295" lon="14.08122">
        <ele>126.3869787955554</ele>
        <time>2024-10-07T16:55:58.591Z</time>
      </trkpt>
      <trkpt lat="50.95822166666667" lon="14.081446666666666">
        <ele>126.38724972578757</ele>
        <time>2024-10-07T16:56:03.591Z</time>
      </trkpt>
      <trkpt lat="50.95833" lon="14.081306666666668">
        <ele>126.387240553776</ele>
        <time>2024-10-07T16:56:05.585Z</time>
      </trkpt>
      <trkpt lat="50.95816333333334" lon="14.081151666666665">
        <ele>126.08693800448287</ele>
        <time>2024-10-07T16:56:10.584Z</time>
      </trkpt>
      <trkpt lat="50.958061666666666" lon="14.080871666666667">
        <ele>123.38635203393119</ele>
        <time>2024-10-07T16:56:14.586Z</time>
      </trkpt>
      <trkpt lat="50.958088333333336" lon="14.080941666666668">
        <ele>120.8864822984078</ele>
        <time>2024-10-07T16:56:20.601Z</time>
      </trkpt>
      <trkpt lat="50.95804" lon="14.081048333333335">
        <ele>123.28658821268718</ele>
        <time>2024-10-07T16:56:29.591Z</time>
      </trkpt>
      <trkpt lat="50.95808166666667" lon="14.081191666666665">
        <ele>124.98682506581511</ele>
        <time>2024-10-07T16:56:40.594Z</time>
      </trkpt>
      <trkpt lat="50.95799333333333" lon="14.081320000000002">
        <ele>123.88693577263244</ele>
        <time>2024-10-07T16:56:54.595Z</time>
      </trkpt>
      <trkpt lat="50.95786666666666" lon="14.08142">
        <ele>124.88695783363143</ele>
        <time>2024-10-07T16:57:05.595Z</time>
      </trkpt>
      <trkpt lat="50.957783333333325" lon="14.081179999999998">
        <ele>121.38660131307276</ele>
        <time>2024-10-07T16:57:22.575Z</time>
      </trkpt>
      <trkpt lat="50.95766833333334" lon="14.081226666666664">
        <ele>116.08649937898585</ele>
        <time>2024-10-07T16:57:54.592Z</time>
      </trkpt>
      <trkpt lat="50.957939999999994" lon="14.081421666666666">
        <ele>126.1870273164702</ele>
        <time>2024-10-07T16:58:19.605Z</time>
      </trkpt>
      <trkpt lat="50.95812833333333" lon="14.081203333333333">
        <ele>129.28693191167304</ele>
        <time>2024-10-07T16:58:31.599Z</time>
      </trkpt>
      <trkpt lat="50.95791333333333" lon="14.080961666666667">
        <ele>125.88643971308562</ele>
        <time>2024-10-07T16:58:40.589Z</time>
      </trkpt>
      <trkpt lat="50.95787166666667" lon="14.08066">
        <ele>118.28597928165136</ele>
        <time>2024-10-07T16:59:37.588Z</time>
      </trkpt>
      <trkpt lat="50.957773333333336" lon="14.080585000000001">
        <ele>118.0857595524435</ele>
        <time>2024-10-07T17:00:01.582Z</time>
      </trkpt>
      <trkpt lat="50.957746666666665" lon="14.080476666666668">
        <ele>117.68559919943701</ele>
        <time>2024-10-07T17:00:08.598Z</time>
      </trkpt>
      <trkpt lat="50.957793333333335" lon="14.080438333333332">
        <ele>116.28557795097097</ele>
        <time>2024-10-07T17:00:24.555Z</time>
      </trkpt>
      <trkpt lat="50.95769" lon="14.080325">
        <ele>119.68539573508376</ele>
        <time>2024-10-07T17:02:28.584Z</time>
      </trkpt>
      <trkpt lat="50.957649999999994" lon="14.080145">
        <ele>116.48505755544483</ele>
        <time>2024-10-07T17:02:50.569Z</time>
      </trkpt>
      <trkpt lat="50.95722666666667" lon="14.079733333333335">
        <ele>117.2841486157028</ele>
        <time>2024-10-07T17:04:09.555Z</time>
      </trkpt>
      <trkpt lat="50.95715833333334" lon="14.079546666666666">
        <ele>116.58382172893403</ele>
        <time>2024-10-07T17:04:28.561Z</time>
      </trkpt>
      <trkpt lat="50.95704166666666" lon="14.079469999999999">
        <ele>116.68361637861688</ele>
        <time>2024-10-07T17:04:56.568Z</time>
      </trkpt>
      <trkpt lat="50.95698833333333" lon="14.079511666666667">
        <ele>118.78363161832873</ele>
        <time>2024-10-07T17:05:50.595Z</time>
      </trkpt>
      <trkpt lat="50.956736666666664" lon="14.079078333333333">
        <ele>118.68284306448533</ele>
        <time>2024-10-07T17:06:41.605Z</time>
      </trkpt>
      <trkpt lat="50.95671000000001" lon="14.078926666666666">
        <ele>121.28260566897671</ele>
        <time>2024-10-07T17:06:52.596Z</time>
      </trkpt>
      <trkpt lat="50.95624833333333" lon="14.079785">
        <ele>122.0833866194711</ele>
        <time>2024-10-07T17:08:22.562Z</time>
      </trkpt>
      <trkpt lat="50.95630166666667" lon="14.07962">
        <ele>121.48321029285053</ele>
        <time>2024-10-07T17:08:39.598Z</time>
      </trkpt>
      <trkpt lat="50.95607833333334" lon="14.079951666666666">
        <ele>117.18346483999744</ele>
        <time>2024-10-07T17:09:04.592Z</time>
      </trkpt>
      <trkpt lat="50.95585500000001" lon="14.080453333333333">
        <ele>119.88395320346854</ele>
        <time>2024-10-07T17:09:35.559Z</time>
      </trkpt>
    </trkseg>
  </trk>
</gpx>
