<?xml version="1.0" encoding="UTF-8"?>
<gpx version="1.1" creator="Export" xmlns="http://www.topografix.com/GPX/1/1" xmlns:xsi="http://www.w3.org/2001/XMLSchema-instance" xsi:schemaLocation="http://www.topografix.com/GPX/1/1 http://www.topografix.com/GPX/1/1/gpx.xsd http://www.garmin.com/xmlschemas/GpxExtensions/v3 http://www.garmin.com/xmlschemas/GpxExtensionsv3.xsd http://www.garmin.com/xmlschemas/TrackPointExtension/v1 http://www.garmin.com/xmlschemas/TrackPointExtensionv1.xsd http://www.garmin.com/xmlschemas/PowerExtension/v1 http://www.garmin.com/xmlschemas/PowerExtensionv1.xsd http://www.topografix.com/GPX/gpx_style/0/2 http://www.topografix.com/GPX/gpx_style/0/2/gpx_style.xsd" xmlns:gpxtpx="http://www.garmin.com/xmlschemas/TrackPointExtension/v1" xmlns:gpxx="http://www.garmin.com/xmlschemas/GpxExtensions/v3" xmlns:gpxpx="http://www.garmin.com/xmlschemas/PowerExtension/v1" xmlns:gpx_style="http://www.topografix.com/GPX/gpx_style/0/2">
  <metadata>
    <name>activity_250_2024-10-07</name>
    <author>
      <name>gpx.studio</name>
      <link href="https://gpx.studio"/>
    </author>
  </metadata>
  <wpt lat="51.052986" lon="13.74156">
    <ele>119.20734610771811</ele>
    <name>Kutscherschanke</name>
    <sym>Restaurant</sym>
  </wpt>
  <trk>
    <name>activity_250_2024-10-07</name>
    <trkseg>
      <trkpt lat="51.04051833333333" lon="13.731760000000001">
        <ele>136.8493625405427</ele>
        <time>2024-10-07T18:00:24.795Z</time>
      </trkpt>
      <trkpt lat="51.04037" lon="13.731826666666667">
        <ele>136.64934893743418</ele>
        <time>2024-10-07T18:00:28.789Z</time>
      </trkpt>
      <trkpt lat="51.04044833333334" lon="13.732103333333335">
        <ele>138.94980743063917</ele>
        <time>2024-10-07T18:00:56.555Z</time>
      </trkpt>
      <trkpt lat="51.04036666666666" lon="13.73199">
        <ele>149.44959912644637</ele>
        <time>2024-10-07T18:12:05.604Z</time>
      </trkpt>
      <trkpt lat="51.04056666666667" lon="13.732103333333335">
        <ele>147.34987879278162</ele>
        <time>2024-10-07T18:12:19.605Z</time>
      </trkpt>
      <trkpt lat="51.03965333333334" lon="13.731586666666665">
        <ele>125.24859280649181</ele>
        <time>2024-10-07T18:18:42.605Z</time>
      </trkpt>
      <trkpt lat="51.03937166666666" lon="13.731538333333333">
        <ele>126.0483688237604</ele>
        <time>2024-10-07T18:18:49.592Z</time>
      </trkpt>
      <trkpt lat="51.03939333333333" lon="13.731056666666666">
        <ele>127.14761129674591</ele>
        <time>2024-10-07T18:19:05.611Z</time>
      </trkpt>
      <trkpt lat="51.03930833333334" lon="13.731194999999998">
        <ele>127.147596100193</ele>
        <time>2024-10-07T18:19:15.608Z</time>
      </trkpt>
      <trkpt lat="51.03936999999999" lon="13.731143333333334">
        <ele>127.64775800374596</ele>
        <time>2024-10-07T18:19:16.611Z</time>
      </trkpt>
      <trkpt lat="51.039388333333335" lon="13.731485000000001">
        <ele>131.84819756157717</ele>
        <time>2024-10-07T18:19:24.594Z</time>
      </trkpt>
      <trkpt lat="51.038963333333335" lon="13.732696666666667">
        <ele>137.2498475481428</ele>
        <time>2024-10-07T18:20:48.608Z</time>
      </trkpt>
      <trkpt lat="51.03924666666667" lon="13.733015">
        <ele>133.3504998391804</ele>
        <time>2024-10-07T18:22:34.609Z</time>
      </trkpt>
      <trkpt lat="51.039526666666674" lon="13.733021666666666">
        <ele>126.25070729982421</ele>
        <time>2024-10-07T18:23:02.585Z</time>
      </trkpt>
      <trkpt lat="51.03990999999999" lon="13.733413333333333">
        <ele>116.2515187872248</ele>
        <time>2024-10-07T18:23:43.599Z</time>
      </trkpt>
      <trkpt lat="51.039656666666666" lon="13.731611666666668">
        <ele>117.24858916794531</ele>
        <time>2024-10-07T18:56:23.586Z</time>
      </trkpt>
      <trkpt lat="51.039305" lon="13.732696666666667">
        <ele>115.2500659092497</ele>
        <time>2024-10-07T18:57:38.591Z</time>
      </trkpt>
      <trkpt lat="51.039366666666666" lon="13.732661666666669">
        <ele>113.8500300588818</ele>
        <time>2024-10-07T18:57:47.582Z</time>
      </trkpt>
      <trkpt lat="51.03959" lon="13.733013333333334">
        <ele>110.6506764001744</ele>
        <time>2024-10-07T18:58:05.579Z</time>
      </trkpt>
      <trkpt lat="51.03975333333333" lon="13.732873333333336">
        <ele>109.85059626965784</ele>
        <time>2024-10-07T18:58:15.585Z</time>
      </trkpt>
      <trkpt lat="51.040865000000004" lon="13.733564999999999">
        <ele>116.85230025642497</ele>
        <time>2024-10-07T19:00:18.586Z</time>
      </trkpt>
      <trkpt lat="51.04112333333334" lon="13.73344666666667">
        <ele>111.5523006665752</ele>
        <time>2024-10-07T19:00:49.604Z</time>
      </trkpt>
      <trkpt lat="51.04122833333333" lon="13.733538333333335">
        <ele>105.95249196662512</ele>
        <time>2024-10-07T19:01:06.576Z</time>
      </trkpt>
      <trkpt lat="51.04220166666667" lon="13.731031666666668">
        <ele>106.54924665858056</ele>
        <time>2024-10-07T19:03:58.608Z</time>
      </trkpt>
      <trkpt lat="51.042338333333326" lon="13.730116666666667">
        <ele>98.24792008728056</ele>
        <time>2024-10-07T19:04:50.546Z</time>
      </trkpt>
      <trkpt lat="51.04218833333333" lon="13.730696666666665">
        <ele>118.24870453699023</ele>
        <time>2024-10-07T19:05:28.576Z</time>
      </trkpt>
      <trkpt lat="51.04186" lon="13.730488333333335">
        <ele>120.74819987269017</ele>
        <time>2024-10-07T19:05:57.568Z</time>
      </trkpt>
      <trkpt lat="51.04210500000001" lon="13.730101666666666">
        <ele>116.34775348896203</ele>
        <time>2024-10-07T19:06:54.608Z</time>
      </trkpt>
      <trkpt lat="51.04124" lon="13.730783333333333">
        <ele>116.24774680785922</ele>
        <time>2024-10-07T19:30:48.601Z</time>
      </trkpt>
      <trkpt lat="51.041545" lon="13.730033333333331">
        <ele>86.64749928315504</ele>
        <time>2024-10-07T19:31:17.558Z</time>
      </trkpt>
      <trkpt lat="51.041725" lon="13.730021666666667">
        <ele>127.74738213910203</ele>
        <time>2024-10-07T19:31:23.576Z</time>
      </trkpt>
      <trkpt lat="51.04186" lon="13.730065000000002">
        <ele>130.1475329069069</ele>
        <time>2024-10-07T19:31:37.569Z</time>
      </trkpt>
      <trkpt lat="51.04190833333334" lon="13.73054">
        <ele>118.84830044204986</ele>
        <time>2024-10-07T19:32:13.596Z</time>
      </trkpt>
      <trkpt lat="51.04194166666666" lon="13.730401666666667">
        <ele>118.44812118265378</ele>
        <time>2024-10-07T19:32:29.604Z</time>
      </trkpt>
      <trkpt lat="51.041835000000006" lon="13.730535000000001">
        <ele>115.2482560384629</ele>
        <time>2024-10-07T19:32:45.612Z</time>
      </trkpt>
      <trkpt lat="51.04150500000001" lon="13.730304999999998">
        <ele>121.44768612470097</ele>
        <time>2024-10-07T19:33:17.582Z</time>
      </trkpt>
      <trkpt lat="51.042269999999995" lon="13.730868333333335">
        <ele>115.2489994586566</ele>
        <time>2024-10-07T19:34:26.614Z</time>
      </trkpt>
      <trkpt lat="51.04228833333333" lon="13.730996666666666">
        <ele>115.64921271270055</ele>
        <time>2024-10-07T19:34:36.553Z</time>
      </trkpt>
      <trkpt lat="51.042325" lon="13.730896666666668">
        <ele>114.04909699967673</ele>
        <time>2024-10-07T19:34:48.565Z</time>
      </trkpt>
      <trkpt lat="51.042314999999995" lon="13.733405000000001">
        <ele>120.25289272128262</ele>
        <time>2024-10-07T19:37:06.605Z</time>
      </trkpt>
      <trkpt lat="51.04213333333334" lon="13.734581666666667">
        <ele>120.35461180935276</ele>
        <time>2024-10-07T19:38:04.604Z</time>
      </trkpt>
      <trkpt lat="51.04259666666667" lon="13.734723333333333">
        <ele>115.25512957094847</ele>
        <time>2024-10-07T19:38:45.611Z</time>
      </trkpt>
      <trkpt lat="51.042636666666674" lon="13.735025">
        <ele>117.55559983752754</ele>
        <time>2024-10-07T19:39:13.552Z</time>
      </trkpt>
      <trkpt lat="51.04342499999999" lon="13.735119999999998">
        <ele>112.656214572804</ele>
        <time>2024-10-07T19:40:22.609Z</time>
      </trkpt>
      <trkpt lat="51.04501833333334" lon="13.735985000000001">
        <ele>119.95851184764125</ele>
        <time>2024-10-07T19:43:22.608Z</time>
      </trkpt>
      <trkpt lat="51.04475833333333" lon="13.735971666666668">
        <ele>118.85833226883068</ele>
        <time>2024-10-07T19:44:06.571Z</time>
      </trkpt>
      <trkpt lat="51.04473500000001" lon="13.736283333333331">
        <ele>122.55877700148527</ele>
        <time>2024-10-07T19:44:36.558Z</time>
      </trkpt>
      <trkpt lat="51.04482666666666" lon="13.735648333333332">
        <ele>118.05787667460538</ele>
        <time>2024-10-07T19:45:28.582Z</time>
      </trkpt>
      <trkpt lat="51.04489166666667" lon="13.73599">
        <ele>121.85841418341904</ele>
        <time>2024-10-07T19:45:55.571Z</time>
      </trkpt>
      <trkpt lat="51.04548" lon="13.736286666666668">
        <ele>136.85922218781906</ele>
        <time>2024-10-07T19:47:06.602Z</time>
      </trkpt>
      <trkpt lat="51.045514999999995" lon="13.736461666666665">
        <ele>148.85950540518246</ele>
        <time>2024-10-07T19:47:27.602Z</time>
      </trkpt>
      <trkpt lat="51.04676500000001" lon="13.737001666666666">
        <ele>131.5610793730159</ele>
        <time>2024-10-07T19:49:17.572Z</time>
      </trkpt>
      <trkpt lat="51.04685666666666" lon="13.736776666666666">
        <ele>124.26094357625087</ele>
        <time>2024-10-07T19:49:40.585Z</time>
      </trkpt>
      <trkpt lat="51.047261666666664" lon="13.736603333333335">
        <ele>113.76077823552511</ele>
        <time>2024-10-07T19:50:09.592Z</time>
      </trkpt>
      <trkpt lat="51.049385" lon="13.736985">
        <ele>120.66261191408697</ele>
        <time>2024-10-07T19:54:01.596Z</time>
      </trkpt>
      <trkpt lat="51.05025166666666" lon="13.737315">
        <ele>111.96364494186943</ele>
        <time>2024-10-07T19:55:54.558Z</time>
      </trkpt>
      <trkpt lat="51.05060166666667" lon="13.737253333333335">
        <ele>110.76373132369014</ele>
        <time>2024-10-07T19:56:07.559Z</time>
      </trkpt>
      <trkpt lat="51.05142000000001" lon="13.737423333333334">
        <ele>129.56450909408792</ele>
        <time>2024-10-07T19:57:30.556Z</time>
      </trkpt>
      <trkpt lat="51.051408333333335" lon="13.737546666666667">
        <ele>136.9646807149904</ele>
        <time>2024-10-07T19:57:48.599Z</time>
      </trkpt>
      <trkpt lat="51.051500000000004" lon="13.737568333333336">
        <ele>134.16477307128676</ele>
        <time>2024-10-07T19:57:55.586Z</time>
      </trkpt>
      <trkpt lat="51.051415" lon="13.737663333333334">
        <ele>131.86485699977612</ele>
        <time>2024-10-07T19:58:06.592Z</time>
      </trkpt>
      <trkpt lat="51.05124000000001" lon="13.739226666666665">
        <ele>151.66717229068254</ele>
        <time>2024-10-07T19:59:37.596Z</time>
      </trkpt>
      <trkpt lat="51.051159999999996" lon="13.739016666666664">
        <ele>147.0668022234279</ele>
        <time>2024-10-07T20:00:05.586Z</time>
      </trkpt>
      <trkpt lat="51.0509" lon="13.739071666666666">
        <ele>133.06672685260196</ele>
        <time>2024-10-07T20:00:37.601Z</time>
      </trkpt>
      <trkpt lat="51.05097166666666" lon="13.739246666666668">
        <ele>130.56699265160094</ele>
        <time>2024-10-07T20:00:48.599Z</time>
      </trkpt>
      <trkpt lat="51.051140000000004" lon="13.739283333333333">
        <ele>129.0671734255395</ele>
        <time>2024-10-07T20:00:58.565Z</time>
      </trkpt>
      <trkpt lat="51.050934999999996" lon="13.739738333333332">
        <ele>122.2677435073644</ele>
        <time>2024-10-07T20:01:22.608Z</time>
      </trkpt>
      <trkpt lat="51.05096" lon="13.74031">
        <ele>119.96864860700333</ele>
        <time>2024-10-07T20:01:58.598Z</time>
      </trkpt>
      <trkpt lat="51.05119" lon="13.740794999999999">
        <ele>112.66951221708467</ele>
        <time>2024-10-07T20:02:38.584Z</time>
      </trkpt>
      <trkpt lat="51.05105833333334" lon="13.741108333333333">
        <ele>115.26992679533984</ele>
        <time>2024-10-07T20:06:11.598Z</time>
      </trkpt>
      <trkpt lat="51.05137" lon="13.741010000000001">
        <ele>107.3699748503181</ele>
        <time>2024-10-07T20:08:20.601Z</time>
      </trkpt>
      <trkpt lat="51.05155" lon="13.740806666666666">
        <ele>112.76976862827598</ele>
        <time>2024-10-07T20:09:14.588Z</time>
      </trkpt>
      <trkpt lat="51.051444999999994" lon="13.741396666666667">
        <ele>109.57058366896038</ele>
        <time>2024-10-07T20:09:59.571Z</time>
      </trkpt>
      <trkpt lat="51.051611666666666" lon="13.741620000000001">
        <ele>115.37103307057447</ele>
        <time>2024-10-07T20:10:28.546Z</time>
      </trkpt>
      <trkpt lat="51.05161" lon="13.742130000000001">
        <ele>116.17178013366448</ele>
        <time>2024-10-07T20:11:15.582Z</time>
      </trkpt>
      <trkpt lat="51.051723333333335" lon="13.742203333333334">
        <ele>118.87196272704533</ele>
        <time>2024-10-07T20:11:20.561Z</time>
      </trkpt>
      <trkpt lat="51.05234166666667" lon="13.742026666666668">
        <ele>120.87210396287321</ele>
        <time>2024-10-07T20:12:21.588Z</time>
      </trkpt>
      <trkpt lat="51.05243166666667" lon="13.741651666666666">
        <ele>113.67160915929695</ele>
        <time>2024-10-07T20:12:55.551Z</time>
      </trkpt>
      <trkpt lat="51.05239166666667" lon="13.741203333333333">
        <ele>119.17087602196949</ele>
        <time>2024-10-07T20:13:26.552Z</time>
      </trkpt>
      <trkpt lat="51.05255833333334" lon="13.741225000000002">
        <ele>127.57099704552296</ele>
        <time>2024-10-07T20:13:52.595Z</time>
      </trkpt>
      <trkpt lat="51.05249333333333" lon="13.741106666666667">
        <ele>120.5709134772888</ele>
        <time>2024-10-07T20:21:40.582Z</time>
      </trkpt>
      <trkpt lat="51.053535" lon="13.741756666666667">
        <ele>123.07232816289519</ele>
        <time>2024-10-07T20:38:00.559Z</time>
      </trkpt>
      <trkpt lat="51.05339166666666" lon="13.742041666666667">
        <ele>122.47275145860438</ele>
        <time>2024-10-07T20:38:12.561Z</time>
      </trkpt>
      <trkpt lat="51.05349666666666" lon="13.742311666666668">
        <ele>122.87322049174588</ele>
        <time>2024-10-07T20:38:49.563Z</time>
      </trkpt>
      <trkpt lat="51.05352" lon="13.742223333333333">
        <ele>123.07314059531589</ele>
        <time>2024-10-07T20:38:58.507Z</time>
      </trkpt>
      <trkpt lat="51.05299497087725" lon="13.74155627344669">
        <ele>119.14878125335144</ele>
        <time>2024-10-07T20:39:29.196Z</time>
      </trkpt>
      <trkpt lat="51.05367" lon="13.741456666666666">
        <ele>108.07412146926006</ele>
        <time>2024-10-07T20:41:01.697Z</time>
      </trkpt>
      <trkpt lat="51.053945000000006" lon="13.739661666666667">
        <ele>112.76946041080632</ele>
        <time>2024-10-07T21:09:22.586Z</time>
      </trkpt>
      <trkpt lat="51.053745" lon="13.739910000000002">
        <ele>113.76971099978364</ele>
        <time>2024-10-07T21:09:51.572Z</time>
      </trkpt>
      <trkpt lat="51.05388666666666" lon="13.738840000000001">
        <ele>116.6681532228889</ele>
        <time>2024-10-07T21:11:41.575Z</time>
      </trkpt>
      <trkpt lat="51.05419333333332" lon="13.73892">
        <ele>119.76846362133297</ele>
        <time>2024-10-07T21:12:47.558Z</time>
      </trkpt>
      <trkpt lat="51.05393833333333" lon="13.738723333333333">
        <ele>118.56800028023517</ele>
        <time>2024-10-07T21:13:43.601Z</time>
      </trkpt>
      <trkpt lat="51.05352500000001" lon="13.739095">
        <ele>119.96832449986876</ele>
        <time>2024-10-07T21:15:05.555Z</time>
      </trkpt>
      <trkpt lat="51.05343833333333" lon="13.739553333333333">
        <ele>119.56893635549852</ele>
        <time>2024-10-07T21:15:47.594Z</time>
      </trkpt>
      <trkpt lat="51.053651666666674" lon="13.739691666666666">
        <ele>124.46928762230309</ele>
        <time>2024-10-07T21:16:14.585Z</time>
      </trkpt>
      <trkpt lat="51.05358833333333" lon="13.739758333333334">
        <ele>122.66938239142137</ele>
        <time>2024-10-07T21:16:28.565Z</time>
      </trkpt>
      <trkpt lat="51.0536" lon="13.740039999999999">
        <ele>118.36980794823515</ele>
        <time>2024-10-07T21:17:32.584Z</time>
      </trkpt>
      <trkpt lat="51.05334166666667" lon="13.739981666666665">
        <ele>118.86957330362122</ele>
        <time>2024-10-07T21:18:01.591Z</time>
      </trkpt>
      <trkpt lat="51.05363666666667" lon="13.740206666666666">
        <ele>120.87009129887781</ele>
        <time>2024-10-07T21:19:12.579Z</time>
      </trkpt>
      <trkpt lat="51.05356666666667" lon="13.740691666666665">
        <ele>121.77077053244263</ele>
        <time>2024-10-07T21:20:25.568Z</time>
      </trkpt>
      <trkpt lat="51.05344" lon="13.740808333333332">
        <ele>122.47088139190235</ele>
        <time>2024-10-07T21:20:54.585Z</time>
      </trkpt>
      <trkpt lat="51.05345333333333" lon="13.740683333333333">
        <ele>120.07073339287525</ele>
        <time>2024-10-07T21:21:29.556Z</time>
      </trkpt>
      <trkpt lat="51.053581666666666" lon="13.740646666666665">
        <ele>119.57072237222687</ele>
        <time>2024-10-07T21:21:44.559Z</time>
      </trkpt>
      <trkpt lat="51.053504999999994" lon="13.740708333333336">
        <ele>121.57078375115364</ele>
        <time>2024-10-07T21:22:03.556Z</time>
      </trkpt>
      <trkpt lat="51.05347666666667" lon="13.740595">
        <ele>120.17059118425155</ele>
        <time>2024-10-07T21:22:19.575Z</time>
      </trkpt>
      <trkpt lat="51.05341" lon="13.740791666666667">
        <ele>121.57082887849587</ele>
        <time>2024-10-07T21:22:44.607Z</time>
      </trkpt>
      <trkpt lat="51.053311666666666" lon="13.742638333333332">
        <ele>120.57359548007436</ele>
        <time>2024-10-07T21:26:05.596Z</time>
      </trkpt>
      <trkpt lat="51.053268333333335" lon="13.742573333333333">
        <ele>121.6735162501331</ele>
        <time>2024-10-07T21:26:14.569Z</time>
      </trkpt>
      <trkpt lat="51.05332666666666" lon="13.742511666666667">
        <ele>121.6734214188215</ele>
        <time>2024-10-07T21:26:27.545Z</time>
      </trkpt>
      <trkpt lat="51.05325166666667" lon="13.743786666666665">
        <ele>122.67531615851837</ele>
        <time>2024-10-07T21:28:20.599Z</time>
      </trkpt>
      <trkpt lat="51.05337166666666" lon="13.743881666666669">
        <ele>121.8755611683479</ele>
        <time>2024-10-07T21:28:45.604Z</time>
      </trkpt>
      <trkpt lat="51.05339666666667" lon="13.743333333333332">
        <ele>123.77472762622946</ele>
        <time>2024-10-07T21:29:45.601Z</time>
      </trkpt>
      <trkpt lat="51.05343333333334" lon="13.743583333333333">
        <ele>124.87510677545303</ele>
        <time>2024-10-07T21:30:35.559Z</time>
      </trkpt>
      <trkpt lat="51.05328833333333" lon="13.745936666666667">
        <ele>120.87864015227734</ele>
        <time>2024-10-07T21:34:39.553Z</time>
      </trkpt>
      <trkpt lat="51.05245" lon="13.745563333333333">
        <ele>119.37758922279048</ele>
        <time>2024-10-07T21:36:24.599Z</time>
      </trkpt>
      <trkpt lat="51.052205" lon="13.744818333333335">
        <ele>129.27630365170648</ele>
        <time>2024-10-07T21:37:55.592Z</time>
      </trkpt>
      <trkpt lat="51.05189833333334" lon="13.745201666666667">
        <ele>121.47669383873028</ele>
        <time>2024-10-07T21:38:34.611Z</time>
      </trkpt>
      <trkpt lat="51.05182166666667" lon="13.745159999999998">
        <ele>119.87660043588102</ele>
        <time>2024-10-07T21:38:45.607Z</time>
      </trkpt>
      <trkpt lat="51.051431666666666" lon="13.744711666666667">
        <ele>119.97567647284419</ele>
        <time>2024-10-07T21:39:38.602Z</time>
      </trkpt>
      <trkpt lat="51.05146833333333" lon="13.744308333333333">
        <ele>116.27509200643769</ele>
        <time>2024-10-07T21:40:07.607Z</time>
      </trkpt>
      <trkpt lat="51.05129333333333" lon="13.744065">
        <ele>115.77462726614837</ele>
        <time>2024-10-07T21:40:30.605Z</time>
      </trkpt>
      <trkpt lat="51.051341666666666" lon="13.743711666666664">
        <ele>118.47408323945291</ele>
        <time>2024-10-07T21:41:42.558Z</time>
      </trkpt>
      <trkpt lat="51.051275000000004" lon="13.744003333333334">
        <ele>117.57446594789437</ele>
        <time>2024-10-07T21:42:01.585Z</time>
      </trkpt>
      <trkpt lat="51.05155666666666" lon="13.74399">
        <ele>121.57463717563586</ele>
        <time>2024-10-07T21:42:20.598Z</time>
      </trkpt>
      <trkpt lat="51.05232833333333" lon="13.742915000000002">
        <ele>114.97346482832691</ele>
        <time>2024-10-07T21:44:49.592Z</time>
      </trkpt>
      <trkpt lat="51.052344999999995" lon="13.741956666666665">
        <ele>112.27202533688427</ele>
        <time>2024-10-07T21:46:42.582Z</time>
      </trkpt>
      <trkpt lat="51.05256166666666" lon="13.741735000000002">
        <ele>112.97178473332058</ele>
        <time>2024-10-07T21:47:30.563Z</time>
      </trkpt>
      <trkpt lat="51.05242499999999" lon="13.741703333333332">
        <ele>113.57167784592188</ele>
        <time>2024-10-07T21:48:02.608Z</time>
      </trkpt>
      <trkpt lat="51.05237833333334" lon="13.741223333333334">
        <ele>121.1709226440382</ele>
        <time>2024-10-07T21:48:38.604Z</time>
      </trkpt>
      <trkpt lat="51.05226" lon="13.741186666666666">
        <ele>126.0707774866815</ele>
        <time>2024-10-07T21:48:51.598Z</time>
      </trkpt>
      <trkpt lat="51.05249333333333" lon="13.740068333333333">
        <ele>115.56919344731901</ele>
        <time>2024-10-07T21:50:33.595Z</time>
      </trkpt>
      <trkpt lat="51.05242833333333" lon="13.73999833333333">
        <ele>115.76920817631137</ele>
        <time>2024-10-07T21:51:02.601Z</time>
      </trkpt>
      <trkpt lat="51.052490000000006" lon="13.739709999999999">
        <ele>127.6686722848282</ele>
        <time>2024-10-07T21:51:15.605Z</time>
      </trkpt>
      <trkpt lat="51.052575" lon="13.739709999999999">
        <ele>125.16870904213448</ele>
        <time>2024-10-07T21:51:38.562Z</time>
      </trkpt>
      <trkpt lat="51.05270666666667" lon="13.739171666666667">
        <ele>127.96796213106799</ele>
        <time>2024-10-07T21:53:09.558Z</time>
      </trkpt>
      <trkpt lat="51.05288333333333" lon="13.738988333333335">
        <ele>122.36778057779966</ele>
        <time>2024-10-07T21:53:58.584Z</time>
      </trkpt>
      <trkpt lat="51.05323666666666" lon="13.738258333333333">
        <ele>117.46689958555524</ele>
        <time>2024-10-07T21:55:07.595Z</time>
      </trkpt>
      <trkpt lat="51.05358" lon="13.738313333333334">
        <ele>117.86712081017234</ele>
        <time>2024-10-07T21:55:56.602Z</time>
      </trkpt>
      <trkpt lat="51.053688333333334" lon="13.73814166666667">
        <ele>116.86696219817493</ele>
        <time>2024-10-07T21:56:07.605Z</time>
      </trkpt>
      <trkpt lat="51.05382833333333" lon="13.738196666666665">
        <ele>117.06712593550081</ele>
        <time>2024-10-07T21:56:29.595Z</time>
      </trkpt>
      <trkpt lat="51.05333166666666" lon="13.738231666666666">
        <ele>111.56686969370614</ele>
        <time>2024-10-07T21:58:24.568Z</time>
      </trkpt>
      <trkpt lat="51.05267666666667" lon="13.737583333333335">
        <ele>113.96560930218476</ele>
        <time>2024-10-07T21:59:38.598Z</time>
      </trkpt>
      <trkpt lat="51.05264999999999" lon="13.737813333333333">
        <ele>158.46581273371743</ele>
        <time>2024-10-07T21:59:55.605Z</time>
      </trkpt>
      <trkpt lat="51.052760000000006" lon="13.737863333333333">
        <ele>144.3659637380735</ele>
        <time>2024-10-07T22:00:11.594Z</time>
      </trkpt>
      <trkpt lat="51.05207166666667" lon="13.737643333333331">
        <ele>142.66524386836056</ele>
        <time>2024-10-07T22:02:29.604Z</time>
      </trkpt>
      <trkpt lat="51.052186666666664" lon="13.737486666666666">
        <ele>141.36506560462033</ele>
        <time>2024-10-07T22:02:50.578Z</time>
      </trkpt>
      <trkpt lat="51.05187833333333" lon="13.737468333333334">
        <ele>134.364863618534</ele>
        <time>2024-10-07T22:03:27.576Z</time>
      </trkpt>
      <trkpt lat="51.05188499999999" lon="13.737551666666665">
        <ele>127.56491647642756</ele>
        <time>2024-10-07T22:03:51.559Z</time>
      </trkpt>
      <trkpt lat="51.051856666666666" lon="13.737241666666668">
        <ele>114.7644979047793</ele>
        <time>2024-10-07T22:04:34.588Z</time>
      </trkpt>
      <trkpt lat="51.05160666666667" lon="13.737478333333335">
        <ele>113.16471123564118</ele>
        <time>2024-10-07T22:05:04.601Z</time>
      </trkpt>
      <trkpt lat="51.050596666666664" lon="13.737268333333335">
        <ele>118.1637926653442</ele>
        <time>2024-10-07T22:07:06.596Z</time>
      </trkpt>
      <trkpt lat="51.05056" lon="13.737078333333333">
        <ele>115.96347404790049</ele>
        <time>2024-10-07T22:07:25.605Z</time>
      </trkpt>
      <trkpt lat="51.05063" lon="13.737086666666668">
        <ele>114.26353467769266</ele>
        <time>2024-10-07T22:07:39.615Z</time>
      </trkpt>
      <trkpt lat="51.05073666666667" lon="13.73667">
        <ele>114.96296792778813</ele>
        <time>2024-10-07T22:08:13.598Z</time>
      </trkpt>
      <trkpt lat="51.05090499999999" lon="13.735196666666665">
        <ele>113.7608248595285</ele>
        <time>2024-10-07T22:10:09.602Z</time>
      </trkpt>
      <trkpt lat="51.05081833333334" lon="13.734295000000001">
        <ele>121.75936677233622</ele>
        <time>2024-10-07T22:11:16.592Z</time>
      </trkpt>
      <trkpt lat="51.0511" lon="13.734436666666666">
        <ele>121.65975107275099</ele>
        <time>2024-10-07T22:11:47.586Z</time>
      </trkpt>
      <trkpt lat="51.051206666666666" lon="13.734163333333333">
        <ele>118.05940430126319</ele>
        <time>2024-10-07T22:12:07.598Z</time>
      </trkpt>
      <trkpt lat="51.051321666666674" lon="13.734088333333334">
        <ele>113.95934442611048</ele>
        <time>2024-10-07T22:12:15.562Z</time>
      </trkpt>
      <trkpt lat="51.051354999999994" lon="13.734173333333334">
        <ele>113.45948463512624</ele>
        <time>2024-10-07T22:12:33.595Z</time>
      </trkpt>
      <trkpt lat="51.05131333333334" lon="13.733658333333334">
        <ele>111.25869695548437</ele>
        <time>2024-10-07T22:13:05.562Z</time>
      </trkpt>
      <trkpt lat="51.05145000000001" lon="13.733698333333333">
        <ele>110.25882649229743</ele>
        <time>2024-10-07T22:13:23.594Z</time>
      </trkpt>
      <trkpt lat="51.05159999999999" lon="13.733511666666667">
        <ele>110.45862765769857</ele>
        <time>2024-10-07T22:13:43.595Z</time>
      </trkpt>
      <trkpt lat="51.05175666666667" lon="13.734231666666668">
        <ele>115.65980670410465</ele>
        <time>2024-10-07T22:14:41.561Z</time>
      </trkpt>
      <trkpt lat="51.05158333333334" lon="13.734186666666668">
        <ele>115.55966043601723</ele>
        <time>2024-10-07T22:15:24.565Z</time>
      </trkpt>
      <trkpt lat="51.05174166666667" lon="13.734229999999998">
        <ele>116.55979832577682</ele>
        <time>2024-10-07T22:15:45.562Z</time>
      </trkpt>
      <trkpt lat="51.051785" lon="13.734466666666666">
        <ele>114.36018582941738</ele>
        <time>2024-10-07T22:16:18.571Z</time>
      </trkpt>
      <trkpt lat="51.052018333333336" lon="13.734774999999997">
        <ele>115.3607948185734</ele>
        <time>2024-10-07T22:16:54.618Z</time>
      </trkpt>
      <trkpt lat="51.05207666666667" lon="13.734636666666665">
        <ele>118.16064480536969</ele>
        <time>2024-10-07T22:17:16.575Z</time>
      </trkpt>
      <trkpt lat="51.051983333333325" lon="13.73439">
        <ele>122.36020910792178</ele>
        <time>2024-10-07T22:17:45.562Z</time>
      </trkpt>
      <trkpt lat="51.052119999999995" lon="13.733955">
        <ele>118.35963914901421</ele>
        <time>2024-10-07T22:18:26.562Z</time>
      </trkpt>
      <trkpt lat="51.051965" lon="13.733025000000001">
        <ele>115.25811522499939</ele>
        <time>2024-10-07T22:19:42.588Z</time>
      </trkpt>
      <trkpt lat="51.052524999999996" lon="13.732494999999998">
        <ele>117.85763531209791</ele>
        <time>2024-10-07T22:21:26.607Z</time>
      </trkpt>
      <trkpt lat="51.052703333333326" lon="13.732966666666668">
        <ele>116.35845069438821</ele>
        <time>2024-10-07T22:22:12.573Z</time>
      </trkpt>
      <trkpt lat="51.05250666666667" lon="13.732451666666668">
        <ele>113.05756669675803</ele>
        <time>2024-10-07T22:24:30.592Z</time>
      </trkpt>
      <trkpt lat="51.052575" lon="13.732521666666665">
        <ele>117.55769508321667</ele>
        <time>2024-10-07T22:24:42.546Z</time>
      </trkpt>
      <trkpt lat="51.05275833333334" lon="13.732356666666666">
        <ele>114.85755826112691</ele>
        <time>2024-10-07T22:25:08.562Z</time>
      </trkpt>
      <trkpt lat="51.053976666666664" lon="13.731089999999998">
        <ele>110.85635585619224</ele>
        <time>2024-10-07T22:27:38.601Z</time>
      </trkpt>
      <trkpt lat="51.05415" lon="13.731149999999998">
        <ele>110.45653331576459</ele>
        <time>2024-10-07T22:27:55.602Z</time>
      </trkpt>
      <trkpt lat="51.054133333333326" lon="13.731265">
        <ele>108.1566916309061</ele>
        <time>2024-10-07T22:28:55.594Z</time>
      </trkpt>
      <trkpt lat="51.05446833333334" lon="13.731353333333335">
        <ele>112.35704389284494</ele>
        <time>2024-10-07T22:30:11.595Z</time>
      </trkpt>
      <trkpt lat="51.054745000000004" lon="13.731940000000002">
        <ele>114.45809632960277</ele>
        <time>2024-10-07T22:31:06.595Z</time>
      </trkpt>
      <trkpt lat="51.054641666666676" lon="13.731844999999998">
        <ele>114.75789734680637</ele>
        <time>2024-10-07T22:31:23.545Z</time>
      </trkpt>
      <trkpt lat="51.05476166666667" lon="13.732073333333336">
        <ele>112.35829449155943</ele>
        <time>2024-10-07T22:32:00.561Z</time>
      </trkpt>
      <trkpt lat="51.054823333333324" lon="13.732036666666666">
        <ele>116.65829510242327</ele>
        <time>2024-10-07T22:32:19.553Z</time>
      </trkpt>
      <trkpt lat="51.054694999999995" lon="13.732196666666669">
        <ele>115.8584727663956</ele>
        <time>2024-10-07T22:32:39.558Z</time>
      </trkpt>
      <trkpt lat="51.05477166666666" lon="13.732323333333333">
        <ele>111.95869403404812</ele>
        <time>2024-10-07T22:33:06.602Z</time>
      </trkpt>
      <trkpt lat="51.054776666666676" lon="13.733013333333334">
        <ele>113.55974159497902</ele>
        <time>2024-10-07T22:35:13.563Z</time>
      </trkpt>
      <trkpt lat="51.05470166666667" lon="13.733436666666668">
        <ele>115.66035745045991</ele>
        <time>2024-10-07T22:35:41.588Z</time>
      </trkpt>
      <trkpt lat="51.05436833333333" lon="13.733561666666667">
        <ele>115.26034962967921</ele>
        <time>2024-10-07T22:36:50.598Z</time>
      </trkpt>
      <trkpt lat="51.05435333333333" lon="13.734415000000002">
        <ele>119.4616505503617</ele>
        <time>2024-10-07T22:38:02.605Z</time>
      </trkpt>
      <trkpt lat="51.05434333333333" lon="13.73433">
        <ele>118.96152066748537</ele>
        <time>2024-10-07T22:38:12.592Z</time>
      </trkpt>
      <trkpt lat="51.05426333333333" lon="13.73448">
        <ele>117.66171554958967</ele>
        <time>2024-10-07T22:38:34.601Z</time>
      </trkpt>
      <trkpt lat="51.05415166666667" lon="13.734164999999999">
        <ele>114.46117320295363</ele>
        <time>2024-10-07T22:39:00.605Z</time>
      </trkpt>
      <trkpt lat="51.05412833333333" lon="13.733633333333334">
        <ele>120.46035012709712</ele>
        <time>2024-10-07T22:39:39.598Z</time>
      </trkpt>
      <trkpt lat="51.05419333333332" lon="13.734259999999999">
        <ele>120.26132055828485</ele>
        <time>2024-10-07T22:41:06.589Z</time>
      </trkpt>
      <trkpt lat="51.054035000000006" lon="13.734293333333335">
        <ele>120.86127708126855</ele>
        <time>2024-10-07T22:41:35.548Z</time>
      </trkpt>
      <trkpt lat="51.05414333333333" lon="13.73422">
        <ele>118.56123165741379</ele>
        <time>2024-10-07T22:41:55.604Z</time>
      </trkpt>
      <trkpt lat="51.05423333333333" lon="13.73444">
        <ele>118.46157908540613</ele>
        <time>2024-10-07T22:42:09.598Z</time>
      </trkpt>
      <trkpt lat="51.05434666666667" lon="13.734430000000001">
        <ele>117.26168593201558</ele>
        <time>2024-10-07T22:42:20.592Z</time>
      </trkpt>
      <trkpt lat="51.05438000000001" lon="13.733513333333333">
        <ele>115.3603245725053</ele>
        <time>2024-10-07T22:43:26.573Z</time>
      </trkpt>
      <trkpt lat="51.054095000000004" lon="13.73293">
        <ele>111.85925689714779</ele>
        <time>2024-10-07T22:44:26.595Z</time>
      </trkpt>
      <trkpt lat="51.05401666666667" lon="13.732283333333331">
        <ele>115.95820569354456</ele>
        <time>2024-10-07T22:45:36.601Z</time>
      </trkpt>
      <trkpt lat="51.053823333333334" lon="13.731985000000002">
        <ele>114.0576214732254</ele>
        <time>2024-10-07T22:46:26.592Z</time>
      </trkpt>
      <trkpt lat="51.053988333333336" lon="13.732201666666667">
        <ele>112.55803534889736</ele>
        <time>2024-10-07T22:48:25.598Z</time>
      </trkpt>
      <trkpt lat="51.054050000000004" lon="13.732711666666667">
        <ele>108.4588528112268</ele>
        <time>2024-10-07T22:48:49.565Z</time>
      </trkpt>
      <trkpt lat="51.05430500000001" lon="13.733583333333335">
        <ele>108.86031915892468</ele>
        <time>2024-10-07T22:49:54.595Z</time>
      </trkpt>
      <trkpt lat="51.055305" lon="13.733208333333334">
        <ele>111.46037899732161</ele>
        <time>2024-10-07T22:51:28.601Z</time>
      </trkpt>
      <trkpt lat="51.05541333333334" lon="13.733411666666665">
        <ele>115.36075041334014</ele>
        <time>2024-10-07T22:52:01.614Z</time>
      </trkpt>
      <trkpt lat="51.05484" lon="13.734131666666666">
        <ele>118.76151980148595</ele>
        <time>2024-10-07T22:53:58.598Z</time>
      </trkpt>
      <trkpt lat="51.05472499999999" lon="13.734308333333335">
        <ele>122.96172347207006</ele>
        <time>2024-10-07T22:54:49.561Z</time>
      </trkpt>
      <trkpt lat="51.05475166666667" lon="13.734408333333333">
        <ele>124.96187901632607</ele>
        <time>2024-10-07T22:56:05.555Z</time>
      </trkpt>
      <trkpt lat="51.05446666666667" lon="13.734383333333335">
        <ele>120.36167315184306</ele>
        <time>2024-10-07T22:56:58.596Z</time>
      </trkpt>
      <trkpt lat="51.053818333333325" lon="13.735085">
        <ele>114.76234782950446</ele>
        <time>2024-10-07T22:59:26.604Z</time>
      </trkpt>
      <trkpt lat="51.05394" lon="13.735719999999999">
        <ele>114.86338230782704</ele>
        <time>2024-10-07T23:00:14.555Z</time>
      </trkpt>
      <trkpt lat="51.053715" lon="13.735863333333334">
        <ele>115.46346690511314</ele>
        <time>2024-10-07T23:00:52.596Z</time>
      </trkpt>
      <trkpt lat="51.05390166666666" lon="13.736144999999999">
        <ele>114.3640142117807</ele>
        <time>2024-10-07T23:01:28.585Z</time>
      </trkpt>
      <trkpt lat="51.05394833333333" lon="13.736568333333333">
        <ele>116.06469151582378</ele>
        <time>2024-10-07T23:02:10.595Z</time>
      </trkpt>
      <trkpt lat="51.05379500000001" lon="13.736801666666668">
        <ele>113.56493669611189</ele>
        <time>2024-10-07T23:02:31.604Z</time>
      </trkpt>
      <trkpt lat="51.053954999999995" lon="13.737354999999999">
        <ele>112.46586924597938</ele>
        <time>2024-10-07T23:03:12.592Z</time>
      </trkpt>
      <trkpt lat="51.05407666666667" lon="13.737324999999998">
        <ele>116.46592780685737</ele>
        <time>2024-10-07T23:03:30.556Z</time>
      </trkpt>
      <trkpt lat="51.05387333333333" lon="13.737553333333334">
        <ele>114.16615330413148</ele>
        <time>2024-10-07T23:03:56.582Z</time>
      </trkpt>
      <trkpt lat="51.05380166666667" lon="13.738418333333334">
        <ele>113.86742205793678</ele>
        <time>2024-10-07T23:04:54.604Z</time>
      </trkpt>
      <trkpt lat="51.053995" lon="13.738864999999999">
        <ele>116.46826749835992</ele>
        <time>2024-10-07T23:05:33.601Z</time>
      </trkpt>
      <trkpt lat="51.054788333333335" lon="13.739333333333331">
        <ele>121.86944132765147</ele>
        <time>2024-10-07T23:09:00.566Z</time>
      </trkpt>
      <trkpt lat="51.054784999999995" lon="13.739421666666665">
        <ele>121.7695642157735</ele>
        <time>2024-10-07T23:09:09.558Z</time>
      </trkpt>
      <trkpt lat="51.054876666666665" lon="13.73936">
        <ele>122.96952557306538</ele>
        <time>2024-10-07T23:09:33.586Z</time>
      </trkpt>
      <trkpt lat="51.055058333333335" lon="13.739481666666666">
        <ele>121.86982713966484</ele>
        <time>2024-10-07T23:09:56.611Z</time>
      </trkpt>
      <trkpt lat="51.05517666666666" lon="13.739561666666669">
        <ele>119.6699794753286</ele>
        <time>2024-10-07T23:10:08.598Z</time>
      </trkpt>
      <trkpt lat="51.05516666666667" lon="13.739671666666668">
        <ele>119.57017341584962</ele>
        <time>2024-10-07T23:10:19.598Z</time>
      </trkpt>
      <trkpt lat="51.057516666666665" lon="13.74123666666667">
        <ele>112.57395505200492</ele>
        <time>2024-10-07T23:14:59.598Z</time>
      </trkpt>
      <trkpt lat="51.057575" lon="13.74141">
        <ele>115.27426615200166</ele>
        <time>2024-10-07T23:15:13.598Z</time>
      </trkpt>
      <trkpt lat="51.05750166666667" lon="13.741426666666666">
        <ele>115.77424745675403</ele>
        <time>2024-10-07T23:15:55.598Z</time>
      </trkpt>
      <trkpt lat="51.05786833333333" lon="13.741661666666667">
        <ele>115.67480986116361</ele>
        <time>2024-10-07T23:17:29.595Z</time>
      </trkpt>
      <trkpt lat="51.05817833333334" lon="13.741788333333334">
        <ele>114.57520799879985</ele>
        <time>2024-10-07T23:18:00.555Z</time>
      </trkpt>
      <trkpt lat="51.05827166666666" lon="13.74167">
        <ele>117.97509022858247</ele>
        <time>2024-10-07T23:18:16.559Z</time>
      </trkpt>
      <trkpt lat="51.058185" lon="13.741489999999999">
        <ele>118.37476375041315</ele>
        <time>2024-10-07T23:18:44.556Z</time>
      </trkpt>
      <trkpt lat="51.05831666666666" lon="13.741361666666668">
        <ele>118.57463936323778</ele>
        <time>2024-10-07T23:19:18.605Z</time>
      </trkpt>
      <trkpt lat="51.05916166666666" lon="13.742333333333333">
        <ele>119.0766216663668</ele>
        <time>2024-10-07T23:21:18.602Z</time>
      </trkpt>
      <trkpt lat="51.05925166666666" lon="13.742093333333333">
        <ele>120.7763168707084</ele>
        <time>2024-10-07T23:21:39.578Z</time>
      </trkpt>
      <trkpt lat="51.05922833333334" lon="13.742463333333335">
        <ele>122.07682884577342</ele>
        <time>2024-10-07T23:22:07.599Z</time>
      </trkpt>
      <trkpt lat="51.059574999999995" lon="13.742811666666666">
        <ele>120.97756240444426</ele>
        <time>2024-10-07T23:22:49.601Z</time>
      </trkpt>
      <trkpt lat="51.05943666666667" lon="13.742943333333335">
        <ele>126.67773327825569</ele>
        <time>2024-10-07T23:23:40.562Z</time>
      </trkpt>
      <trkpt lat="51.05957" lon="13.742801666666667">
        <ele>124.97757060268256</ele>
        <time>2024-10-07T23:23:56.562Z</time>
      </trkpt>
      <trkpt lat="51.05981333333334" lon="13.743026666666667">
        <ele>128.47804702836348</ele>
        <time>2024-10-07T23:24:38.601Z</time>
      </trkpt>
      <trkpt lat="51.05984333333334" lon="13.742684999999998">
        <ele>119.87757416687393</ele>
        <time>2024-10-07T23:25:06.555Z</time>
      </trkpt>
      <trkpt lat="51.059948333333324" lon="13.743155000000002">
        <ele>118.47831654916504</ele>
        <time>2024-10-07T23:25:38.601Z</time>
      </trkpt>
      <trkpt lat="51.060860000000005" lon="13.744136666666668">
        <ele>114.98035932750199</ele>
        <time>2024-10-07T23:27:29.595Z</time>
      </trkpt>
      <trkpt lat="51.06191833333334" lon="13.745041666666669">
        <ele>117.88238124952805</ele>
        <time>2024-10-07T23:30:03.607Z</time>
      </trkpt>
      <trkpt lat="51.06227333333333" lon="13.745545">
        <ele>115.88335594754318</ele>
        <time>2024-10-07T23:30:55.595Z</time>
      </trkpt>
      <trkpt lat="51.06285" lon="13.745993333333335">
        <ele>112.5843768142949</ele>
        <time>2024-10-07T23:32:03.601Z</time>
      </trkpt>
      <trkpt lat="51.062960000000004" lon="13.745938333333333">
        <ele>113.98437843756246</ele>
        <time>2024-10-07T23:32:19.561Z</time>
      </trkpt>
      <trkpt lat="51.06307166666667" lon="13.746310000000001">
        <ele>115.78499696898133</ele>
        <time>2024-10-07T23:33:26.576Z</time>
      </trkpt>
      <trkpt lat="51.063363333333335" lon="13.746521666666668">
        <ele>118.4855061082952</ele>
        <time>2024-10-07T23:34:06.588Z</time>
      </trkpt>
      <trkpt lat="51.063721666666666" lon="13.746355000000001">
        <ele>115.48546933843745</ele>
        <time>2024-10-07T23:35:22.549Z</time>
      </trkpt>
      <trkpt lat="51.063406666666666" lon="13.746756666666666">
        <ele>116.68585946912268</ele>
        <time>2024-10-07T23:36:25.592Z</time>
      </trkpt>
      <trkpt lat="51.06342166666666" lon="13.747170000000002">
        <ele>117.68652346586413</ele>
        <time>2024-10-07T23:36:44.595Z</time>
      </trkpt>
      <trkpt lat="51.063554999999994" lon="13.747516666666668">
        <ele>117.28712718526631</ele>
        <time>2024-10-07T23:37:09.578Z</time>
      </trkpt>
      <trkpt lat="51.06375166666667" lon="13.747576666666665">
        <ele>118.68733805585032</ele>
        <time>2024-10-07T23:37:52.602Z</time>
      </trkpt>
      <trkpt lat="51.06391166666667" lon="13.747461666666668">
        <ele>121.18728403285269</ele>
        <time>2024-10-07T23:38:08.558Z</time>
      </trkpt>
      <trkpt lat="51.063881666666674" lon="13.747291666666667">
        <ele>119.38699471031472</ele>
        <time>2024-10-07T23:38:25.598Z</time>
      </trkpt>
      <trkpt lat="51.06393833333333" lon="13.747386666666667">
        <ele>118.28716473158445</ele>
        <time>2024-10-07T23:38:36.553Z</time>
      </trkpt>
      <trkpt lat="51.064048333333325" lon="13.747261666666668">
        <ele>121.38706312964501</ele>
        <time>2024-10-07T23:38:47.559Z</time>
      </trkpt>
      <trkpt lat="51.063921666666666" lon="13.747486666666669">
        <ele>119.98731976384045</ele>
        <time>2024-10-07T23:39:12.602Z</time>
      </trkpt>
      <trkpt lat="51.06395666666667" lon="13.74781">
        <ele>114.68781352457015</ele>
        <time>2024-10-07T23:39:33.611Z</time>
      </trkpt>
      <trkpt lat="51.06385166666667" lon="13.747676666666667">
        <ele>119.88764775563052</ele>
        <time>2024-10-07T23:39:56.595Z</time>
      </trkpt>
      <trkpt lat="51.06371833333333" lon="13.747848333333332">
        <ele>121.18773892037933</ele>
        <time>2024-10-07T23:40:15.599Z</time>
      </trkpt>
      <trkpt lat="51.063625" lon="13.748301666666668">
        <ele>118.78835426591093</ele>
        <time>2024-10-07T23:41:53.594Z</time>
      </trkpt>
      <trkpt lat="51.06535166666666" lon="13.750063333333333">
        <ele>115.05227600984182</ele>
        <time>2024-10-07T23:45:23.548Z</time>
      </trkpt>
      <trkpt lat="51.06531" lon="13.749993333333334">
        <ele>118.3919662698091</ele>
        <time>2024-10-07T23:45:34.559Z</time>
      </trkpt>
      <trkpt lat="51.06529666666667" lon="13.750146666666668">
        <ele>121.95235154580111</ele>
        <time>2024-10-07T23:45:50.582Z</time>
      </trkpt>
      <trkpt lat="51.065389999999994" lon="13.750100000000002">
        <ele>122.5523419882256</ele>
        <time>2024-10-07T23:46:04.563Z</time>
      </trkpt>
      <trkpt lat="51.0663" lon="13.75092833333333">
        <ele>112.75420713269799</ele>
        <time>2024-10-07T23:48:05.594Z</time>
      </trkpt>
      <trkpt lat="51.067013333333335" lon="13.751619999999999">
        <ele>121.65570841787795</ele>
        <time>2024-10-07T23:49:19.591Z</time>
      </trkpt>
      <trkpt lat="51.06697166666666" lon="13.751713333333331">
        <ele>129.95581954288446</ele>
        <time>2024-10-07T23:49:47.546Z</time>
      </trkpt>
      <trkpt lat="51.06833833333334" lon="13.752923333333335">
        <ele>120.05857904703674</ele>
        <time>2024-10-07T23:54:09.559Z</time>
      </trkpt>
      <trkpt lat="51.06816333333333" lon="13.753633333333335">
        <ele>130.55940238256235</ele>
        <time>2024-10-07T23:56:14.559Z</time>
      </trkpt>
      <trkpt lat="51.068013333333326" lon="13.753618333333334">
        <ele>138.35927565996695</ele>
        <time>2024-10-07T23:56:56.562Z</time>
      </trkpt>
      <trkpt lat="51.06809666666666" lon="13.753661666666668">
        <ele>133.25936876895145</ele>
        <time>2024-10-07T23:57:44.555Z</time>
      </trkpt>
      <trkpt lat="51.067924999999995" lon="13.754079999999998">
        <ele>130.8598169824772</ele>
        <time>2024-10-07T23:58:10.548Z</time>
      </trkpt>
      <trkpt lat="51.06798666666667" lon="13.754245">
        <ele>130.86007938375687</ele>
        <time>2024-10-07T23:59:08.578Z</time>
      </trkpt>
      <trkpt lat="51.06782333333334" lon="13.754526666666667">
        <ele>118.36039198144073</ele>
        <time>2024-10-07T23:59:23.592Z</time>
      </trkpt>
      <trkpt lat="51.06777166666667" lon="13.75438">
        <ele>127.36016324842072</ele>
        <time>2024-10-08T00:00:10.555Z</time>
      </trkpt>
      <trkpt lat="51.067846666666675" lon="13.754233333333332">
        <ele>134.26001200300698</ele>
        <time>2024-10-08T00:00:29.555Z</time>
      </trkpt>
      <trkpt lat="51.06768999999999" lon="13.754266666666668">
        <ele>137.5599428653744</ele>
        <time>2024-10-08T00:01:19.555Z</time>
      </trkpt>
      <trkpt lat="51.06783166666667" lon="13.754173333333332">
        <ele>134.15991090535476</ele>
        <time>2024-10-08T00:01:56.553Z</time>
      </trkpt>
      <trkpt lat="51.067785" lon="13.754341666666669">
        <ele>139.36010318972967</ele>
        <time>2024-10-08T00:02:23.589Z</time>
      </trkpt>
      <trkpt lat="51.067875" lon="13.754436666666667">
        <ele>131.36029608902922</ele>
        <time>2024-10-08T00:02:42.604Z</time>
      </trkpt>
      <trkpt lat="51.06787333333333" lon="13.754748333333335">
        <ele>124.36071424634119</ele>
        <time>2024-10-08T00:02:51.604Z</time>
      </trkpt>
      <trkpt lat="51.06756666666667" lon="13.754765">
        <ele>122.66052921919592</ele>
        <time>2024-10-08T00:03:28.575Z</time>
      </trkpt>
      <trkpt lat="51.06769166666666" lon="13.754761666666665">
        <ele>123.46062389495506</ele>
        <time>2024-10-08T00:03:48.563Z</time>
      </trkpt>
      <trkpt lat="51.067706666666666" lon="13.754873333333334">
        <ele>119.36076118163032</ele>
        <time>2024-10-08T00:04:07.562Z</time>
      </trkpt>
      <trkpt lat="51.06816333333333" lon="13.755236666666667">
        <ele>115.86161139992257</ele>
        <time>2024-10-08T00:05:23.562Z</time>
      </trkpt>
      <trkpt lat="51.06840999999999" lon="13.755301666666666">
        <ele>122.16189916411163</ele>
        <time>2024-10-08T00:05:48.592Z</time>
      </trkpt>
      <trkpt lat="51.06851166666667" lon="13.75519">
        <ele>115.26184881080158</ele>
        <time>2024-10-08T00:06:12.582Z</time>
      </trkpt>
      <trkpt lat="51.06891333333333" lon="13.755536666666668">
        <ele>125.16263173633146</ele>
        <time>2024-10-08T00:07:07.553Z</time>
      </trkpt>
      <trkpt lat="51.06897833333334" lon="13.755473333333335">
        <ele>130.0625953157536</ele>
        <time>2024-10-08T00:07:19.569Z</time>
      </trkpt>
      <trkpt lat="51.068885" lon="13.755730000000002">
        <ele>140.36288548278498</ele>
        <time>2024-10-08T00:08:04.559Z</time>
      </trkpt>
      <trkpt lat="51.06893166666667" lon="13.755601666666667">
        <ele>132.86276314812272</ele>
        <time>2024-10-08T00:08:34.604Z</time>
      </trkpt>
      <trkpt lat="51.06877333333333" lon="13.755741666666665">
        <ele>133.46281735429287</ele>
        <time>2024-10-08T00:09:09.585Z</time>
      </trkpt>
      <trkpt lat="51.06872166666667" lon="13.755973333333335">
        <ele>130.36309973978916</ele>
        <time>2024-10-08T00:09:24.548Z</time>
      </trkpt>
      <trkpt lat="51.06887" lon="13.755851666666668">
        <ele>132.56304360275433</ele>
        <time>2024-10-08T00:09:54.592Z</time>
      </trkpt>
      <trkpt lat="51.06895666666666" lon="13.755550000000001">
        <ele>130.26269412498465</ele>
        <time>2024-10-08T00:10:20.605Z</time>
      </trkpt>
      <trkpt lat="51.069718333333334" lon="13.756175">
        <ele>122.66414777283887</ele>
        <time>2024-10-08T00:12:14.578Z</time>
      </trkpt>
      <trkpt lat="51.07023000000001" lon="13.75622">
        <ele>121.06460659747862</ele>
        <time>2024-10-08T00:14:13.582Z</time>
      </trkpt>
      <trkpt lat="51.07033" lon="13.756005">
        <ele>121.86439114003696</ele>
        <time>2024-10-08T00:14:58.569Z</time>
      </trkpt>
      <trkpt lat="51.07004833333334" lon="13.756263333333333">
        <ele>123.36452890122922</ele>
        <time>2024-10-08T00:16:12.599Z</time>
      </trkpt>
      <trkpt lat="51.069765000000004" lon="13.756251666666666">
        <ele>127.96429189653166</ele>
        <time>2024-10-08T00:17:09.601Z</time>
      </trkpt>
      <trkpt lat="51.06918333333333" lon="13.75563">
        <ele>123.96300390431804</ele>
        <time>2024-10-08T00:18:32.601Z</time>
      </trkpt>
      <trkpt lat="51.06890666666666" lon="13.755503333333335">
        <ele>120.46259575686929</ele>
        <time>2024-10-08T00:19:15.601Z</time>
      </trkpt>
      <trkpt lat="51.068805000000005" lon="13.755726666666666">
        <ele>122.46281518977959</ele>
        <time>2024-10-08T00:19:35.584Z</time>
      </trkpt>
      <trkpt lat="51.06889666666666" lon="13.755511666666667">
        <ele>131.06261492618847</ele>
        <time>2024-10-08T00:19:50.609Z</time>
      </trkpt>
      <trkpt lat="51.06900833333334" lon="13.7555">
        <ele>121.96267694935258</ele>
        <time>2024-10-08T00:20:59.581Z</time>
      </trkpt>
      <trkpt lat="51.06889666666666" lon="13.755561666666665">
        <ele>121.96266642273704</ele>
        <time>2024-10-08T00:21:09.578Z</time>
      </trkpt>
      <trkpt lat="51.068865" lon="13.755393333333332">
        <ele>126.76242366375337</ele>
        <time>2024-10-08T00:21:21.582Z</time>
      </trkpt>
      <trkpt lat="51.068934999999996" lon="13.755435">
        <ele>132.7624683763776</ele>
        <time>2024-10-08T00:21:28.558Z</time>
      </trkpt>
      <trkpt lat="51.068803333333335" lon="13.755698333333331">
        <ele>128.96278050222054</ele>
        <time>2024-10-08T00:21:42.604Z</time>
      </trkpt>
      <trkpt lat="51.068875" lon="13.755705">
        <ele>128.76285867818962</ele>
        <time>2024-10-08T00:22:03.617Z</time>
      </trkpt>
      <trkpt lat="51.06884" lon="13.75545">
        <ele>127.26248085116333</ele>
        <time>2024-10-08T00:22:23.599Z</time>
      </trkpt>
      <trkpt lat="51.06858999999999" lon="13.755361666666666">
        <ele>122.76216690816719</ele>
        <time>2024-10-08T00:22:51.605Z</time>
      </trkpt>
      <trkpt lat="51.06848166666667" lon="13.755163333333334">
        <ele>121.46178308548328</ele>
        <time>2024-10-08T00:23:22.598Z</time>
      </trkpt>
      <trkpt lat="51.06841166666666" lon="13.755310000000001">
        <ele>120.66192420541024</ele>
        <time>2024-10-08T00:23:29.601Z</time>
      </trkpt>
      <trkpt lat="51.06837166666666" lon="13.755143333333335">
        <ele>124.16169196853627</ele>
        <time>2024-10-08T00:23:39.588Z</time>
      </trkpt>
      <trkpt lat="51.06676833333333" lon="13.754070000000002">
        <ele>110.45895234484158</ele>
        <time>2024-10-08T00:26:23.604Z</time>
      </trkpt>
      <trkpt lat="51.066645" lon="13.754026666666668">
        <ele>110.15880138840268</ele>
        <time>2024-10-08T00:26:39.599Z</time>
      </trkpt>
      <trkpt lat="51.06677666666666" lon="13.754169999999998">
        <ele>109.7590782891945</ele>
        <time>2024-10-08T00:27:11.598Z</time>
      </trkpt>
      <trkpt lat="51.06675" lon="13.754068333333331">
        <ele>109.65895662541382</ele>
        <time>2024-10-08T00:27:17.598Z</time>
      </trkpt>
      <trkpt lat="51.06653333333334" lon="13.754313333333334">
        <ele>109.55892729780503</ele>
        <time>2024-10-08T00:31:57.588Z</time>
      </trkpt>
      <trkpt lat="51.06671500000001" lon="13.754321666666666">
        <ele>100.95926307701941</ele>
        <time>2024-10-08T00:32:02.598Z</time>
      </trkpt>
      <trkpt lat="51.06634833333332" lon="13.753888333333334">
        <ele>121.35838009896119</ele>
        <time>2024-10-08T00:32:58.611Z</time>
      </trkpt>
      <trkpt lat="51.06645166666667" lon="13.753826666666665">
        <ele>127.15835256893055</ele>
        <time>2024-10-08T00:33:12.584Z</time>
      </trkpt>
      <trkpt lat="51.066738333333326" lon="13.754019999999999">
        <ele>125.35887122921159</ele>
        <time>2024-10-08T00:34:06.559Z</time>
      </trkpt>
      <trkpt lat="51.06650833333333" lon="13.753846666666668">
        <ele>128.15844806173018</ele>
        <time>2024-10-08T00:34:33.598Z</time>
      </trkpt>
      <trkpt lat="51.06630333333332" lon="13.753993333333336">
        <ele>128.1584706622286</ele>
        <time>2024-10-08T00:35:10.588Z</time>
      </trkpt>
      <trkpt lat="51.066205000000004" lon="13.753684999999999">
        <ele>125.15798177618146</ele>
        <time>2024-10-08T00:35:40.595Z</time>
      </trkpt>
      <trkpt lat="51.065808333333344" lon="13.753508333333333">
        <ele>116.75744107354186</ele>
        <time>2024-10-08T00:36:26.594Z</time>
      </trkpt>
      <trkpt lat="51.065706666666664" lon="13.753671666666666">
        <ele>123.9575647108901</ele>
        <time>2024-10-08T00:40:38.591Z</time>
      </trkpt>
      <trkpt lat="51.06553999999999" lon="13.753436666666667">
        <ele>112.45711067307981</ele>
        <time>2024-10-08T00:41:24.582Z</time>
      </trkpt>
      <trkpt lat="51.06621499999999" lon="13.753895">
        <ele>121.5582632976973</ele>
        <time>2024-10-08T00:42:44.576Z</time>
      </trkpt>
      <trkpt lat="51.06604666666667" lon="13.753865">
        <ele>119.35810314255954</ele>
        <time>2024-10-08T00:43:09.555Z</time>
      </trkpt>
      <trkpt lat="51.064904999999996" lon="13.753143333333332">
        <ele>98.75623946293845</ele>
        <time>2024-10-08T00:45:11.584Z</time>
      </trkpt>
      <trkpt lat="51.064945" lon="13.753026666666665">
        <ele>100.15610965897382</ele>
        <time>2024-10-08T00:45:16.555Z</time>
      </trkpt>
      <trkpt lat="51.064861666666665" lon="13.753058333333335">
        <ele>114.75607228352055</ele>
        <time>2024-10-08T00:45:36.604Z</time>
      </trkpt>
      <trkpt lat="51.06491333333334" lon="13.753191666666664">
        <ele>117.35627308788892</ele>
        <time>2024-10-08T00:45:49.588Z</time>
      </trkpt>
      <trkpt lat="51.06498333333334" lon="13.753090000000002">
        <ele>120.65621761772725</ele>
        <time>2024-10-08T00:46:16.585Z</time>
      </trkpt>
      <trkpt lat="51.06492166666667" lon="13.752925000000001">
        <ele>118.55592220228354</ele>
        <time>2024-10-08T00:46:39.595Z</time>
      </trkpt>
      <trkpt lat="51.06498833333333" lon="13.752895">
        <ele>119.35592472790492</ele>
        <time>2024-10-08T00:46:46.601Z</time>
      </trkpt>
      <trkpt lat="51.06486833333334" lon="13.753046666666668">
        <ele>119.85602708712986</ele>
        <time>2024-10-08T00:47:01.586Z</time>
      </trkpt>
      <trkpt lat="51.06498499999999" lon="13.753395000000001">
        <ele>119.75657966714108</ele>
        <time>2024-10-08T00:47:12.595Z</time>
      </trkpt>
      <trkpt lat="51.0649" lon="13.753453333333335">
        <ele>119.75667646084244</ele>
        <time>2024-10-08T00:47:16.592Z</time>
      </trkpt>
      <trkpt lat="51.06490166666667" lon="13.752973333333333">
        <ele>119.75604676135598</ele>
        <time>2024-10-08T00:47:22.605Z</time>
      </trkpt>
      <trkpt lat="51.064746666666665" lon="13.753056666666664">
        <ele>119.95596928992627</ele>
        <time>2024-10-08T00:47:30.599Z</time>
      </trkpt>
      <trkpt lat="51.06481" lon="13.753161666666665">
        <ele>120.35614736144709</ele>
        <time>2024-10-08T00:47:37.598Z</time>
      </trkpt>
      <trkpt lat="51.064675" lon="13.753135000000002">
        <ele>119.35607119122537</ele>
        <time>2024-10-08T00:47:50.605Z</time>
      </trkpt>
      <trkpt lat="51.06487666666667" lon="13.752913333333334">
        <ele>120.85587277631723</ele>
        <time>2024-10-08T00:48:00.605Z</time>
      </trkpt>
      <trkpt lat="51.06474333333334" lon="13.752970000000001">
        <ele>118.95583907096227</ele>
        <time>2024-10-08T00:48:29.595Z</time>
      </trkpt>
      <trkpt lat="51.06411333333334" lon="13.752440000000002">
        <ele>118.75464086091273</ele>
        <time>2024-10-08T00:49:47.598Z</time>
      </trkpt>
      <trkpt lat="51.064011666666666" lon="13.752528333333332">
        <ele>112.95466223582768</ele>
        <time>2024-10-08T00:50:00.601Z</time>
      </trkpt>
      <trkpt lat="51.063610000000004" lon="13.752036666666667">
        <ele>112.25369409722566</ele>
        <time>2024-10-08T00:50:49.586Z</time>
      </trkpt>
      <trkpt lat="51.063181666666665" lon="13.751851666666669">
        <ele>116.05310289088678</ele>
        <time>2024-10-08T00:51:30.608Z</time>
      </trkpt>
      <trkpt lat="51.063089999999995" lon="13.751648333333332">
        <ele>115.75273587846507</ele>
        <time>2024-10-08T00:51:48.596Z</time>
      </trkpt>
      <trkpt lat="51.063644999999994" lon="13.748121666666668">
        <ele>115.08813935689736</ele>
        <time>2024-10-08T00:56:26.625Z</time>
      </trkpt>
      <trkpt lat="51.06376166666667" lon="13.747903333333333">
        <ele>115.48786600559562</ele>
        <time>2024-10-08T00:56:43.601Z</time>
      </trkpt>
      <trkpt lat="51.063835000000005" lon="13.74798">
        <ele>116.98788323785402</ele>
        <time>2024-10-08T00:57:17.598Z</time>
      </trkpt>
      <trkpt lat="51.063745000000004" lon="13.74793">
        <ele>119.18789664437858</ele>
        <time>2024-10-08T00:58:03.601Z</time>
      </trkpt>
      <trkpt lat="51.06393500000001" lon="13.747496666666667">
        <ele>117.48734490310574</ele>
        <time>2024-10-08T00:58:45.596Z</time>
      </trkpt>
      <trkpt lat="51.06389666666667" lon="13.747873333333333">
        <ele>112.38786476319561</ele>
        <time>2024-10-08T00:59:15.598Z</time>
      </trkpt>
      <trkpt lat="51.06376166666667" lon="13.748089999999998">
        <ele>111.2881337191015</ele>
        <time>2024-10-08T00:59:40.599Z</time>
      </trkpt>
      <trkpt lat="51.064048333333325" lon="13.747134999999998">
        <ele>116.4868516260207</ele>
        <time>2024-10-08T01:02:14.573Z</time>
      </trkpt>
      <trkpt lat="51.064564999999995" lon="13.747141666666668">
        <ele>108.88715465059934</ele>
        <time>2024-10-08T01:03:08.571Z</time>
      </trkpt>
      <trkpt lat="51.06470666666667" lon="13.74695">
        <ele>111.8869687113544</ele>
        <time>2024-10-08T01:03:23.568Z</time>
      </trkpt>
      <trkpt lat="51.064969999999995" lon="13.746885">
        <ele>116.38701229511071</ele>
        <time>2024-10-08T01:03:51.588Z</time>
      </trkpt>
      <trkpt lat="51.06607666666667" lon="13.746984999999999">
        <ele>120.68782149926157</ele>
        <time>2024-10-08T01:05:54.584Z</time>
      </trkpt>
      <trkpt lat="51.066375" lon="13.744063333333335">
        <ele>117.18357026513911</ele>
        <time>2024-10-08T01:09:32.608Z</time>
      </trkpt>
      <trkpt lat="51.06541333333333" lon="13.742331666666667">
        <ele>108.48036990667933</ele>
        <time>2024-10-08T01:12:31.591Z</time>
      </trkpt>
      <trkpt lat="51.065356666666666" lon="13.741783333333334">
        <ele>113.1794814730554</ele>
        <time>2024-10-08T01:13:24.562Z</time>
      </trkpt>
      <trkpt lat="51.06561333333334" lon="13.741204999999999">
        <ele>111.77877207233522</ele>
        <time>2024-10-08T01:14:30.605Z</time>
      </trkpt>
      <trkpt lat="51.065466666666666" lon="13.741466666666668">
        <ele>119.67856213724828</ele>
        <time>2024-10-08T01:23:17.598Z</time>
      </trkpt>
      <trkpt lat="51.06545166666667" lon="13.741296666666665">
        <ele>153.27880670892716</ele>
        <time>2024-10-08T01:23:21.591Z</time>
      </trkpt>
      <trkpt lat="51.06596833333333" lon="13.740903333333332">
        <ele>117.97850145476116</ele>
        <time>2024-10-08T01:41:35.555Z</time>
      </trkpt>
      <trkpt lat="51.06619333333333" lon="13.741006666666665">
        <ele>139.7787622525006</ele>
        <time>2024-10-08T01:42:19.591Z</time>
      </trkpt>
      <trkpt lat="51.065920000000006" lon="13.740756666666668">
        <ele>133.47828317076966</ele>
        <time>2024-10-08T01:42:44.561Z</time>
      </trkpt>
      <trkpt lat="51.06582333333334" lon="13.740728333333333">
        <ele>132.37815160305104</ele>
        <time>2024-10-08T01:43:01.559Z</time>
      </trkpt>
      <trkpt lat="51.06582333333334" lon="13.740828333333331">
        <ele>132.67828538617152</ele>
        <time>2024-10-08T01:45:02.559Z</time>
      </trkpt>
      <trkpt lat="51.06595166666666" lon="13.740734999999999">
        <ele>129.1782348944601</ele>
        <time>2024-10-08T02:02:10.611Z</time>
      </trkpt>
      <trkpt lat="51.06589666666667" lon="13.740836666666667">
        <ele>128.77821788243125</ele>
        <time>2024-10-08T02:02:31.607Z</time>
      </trkpt>
      <trkpt lat="51.066025" lon="13.741165">
        <ele>123.87885715498496</ele>
        <time>2024-10-08T02:02:44.595Z</time>
      </trkpt>
      <trkpt lat="51.06732999999999" lon="13.743086666666667">
        <ele>121.2828910983575</ele>
        <time>2024-10-08T02:03:04.368Z</time>
      </trkpt>
    </trkseg>
  </trk>
</gpx>
