<?xml version="1.0" encoding="UTF-8"?>
<gpx version="1.1" creator="Export" xmlns="http://www.topografix.com/GPX/1/1" xmlns:xsi="http://www.w3.org/2001/XMLSchema-instance" xsi:schemaLocation="http://www.topografix.com/GPX/1/1 http://www.topografix.com/GPX/1/1/gpx.xsd http://www.garmin.com/xmlschemas/GpxExtensions/v3 http://www.garmin.com/xmlschemas/GpxExtensionsv3.xsd http://www.garmin.com/xmlschemas/TrackPointExtension/v1 http://www.garmin.com/xmlschemas/TrackPointExtensionv1.xsd http://www.garmin.com/xmlschemas/PowerExtension/v1 http://www.garmin.com/xmlschemas/PowerExtensionv1.xsd http://www.topografix.com/GPX/gpx_style/0/2 http://www.topografix.com/GPX/gpx_style/0/2/gpx_style.xsd" xmlns:gpxtpx="http://www.garmin.com/xmlschemas/TrackPointExtension/v1" xmlns:gpxx="http://www.garmin.com/xmlschemas/GpxExtensions/v3" xmlns:gpxpx="http://www.garmin.com/xmlschemas/PowerExtension/v1" xmlns:gpx_style="http://www.topografix.com/GPX/gpx_style/0/2">
  <metadata>
    <name>Poznan_252_2024-10-08</name>
    <author>
      <name>gpx.studio</name>
      <link href="https://gpx.studio"/>
    </author>
  </metadata>
  <wpt lat="52.407005" lon="16.933331">
    <ele>66.00421330286255</ele>
    <name>Naleśnikarnia Gramofon</name>
    <sym>Restaurant</sym>
  </wpt>
  <trk>
    <name>Poznan_252_2024-10-08</name>
    <trkseg>
      <trkpt lat="52.402753764078824" lon="16.914132130223095">
        <ele>75.06517892045292</ele>
        <time>2024-10-08T10:28:31.505Z</time>
      </trkpt>
      <trkpt lat="52.40292936187515" lon="16.914142462830256">
        <ele>75</ele>
        <time>2024-10-08T10:28:50.941Z</time>
      </trkpt>
      <trkpt lat="52.402874999999995" lon="16.914803333333335">
        <ele>73.80103943776184</ele>
        <time>2024-10-08T10:29:35.944Z</time>
      </trkpt>
      <trkpt lat="52.402874999999995" lon="16.914803333333335">
        <ele>92.68619469719704</ele>
        <time>2024-10-08T10:29:35.944Z</time>
      </trkpt>
      <trkpt lat="52.40324333333333" lon="16.915286666666667">
        <ele>82.28836451080929</ele>
        <time>2024-10-08T10:30:51.643Z</time>
      </trkpt>
      <trkpt lat="52.40353333333334" lon="16.917233333333336">
        <ele>76.09590605997565</ele>
        <time>2024-10-08T10:32:39.669Z</time>
      </trkpt>
      <trkpt lat="52.404175" lon="16.91961">
        <ele>70.10545390565792</ele>
        <time>2024-10-08T10:35:02.689Z</time>
      </trkpt>
      <trkpt lat="52.40436166666667" lon="16.91977166666667">
        <ele>78.30634629694141</ele>
        <time>2024-10-08T10:35:39.698Z</time>
      </trkpt>
      <trkpt lat="52.404453333333336" lon="16.921595">
        <ele>77.11315568738375</ele>
        <time>2024-10-08T10:37:45.692Z</time>
      </trkpt>
      <trkpt lat="52.40411833333333" lon="16.92388">
        <ele>64.42127307474536</ele>
        <time>2024-10-08T10:40:03.664Z</time>
      </trkpt>
      <trkpt lat="52.40632166666666" lon="16.924888333333335">
        <ele>69.52757653250615</ele>
        <time>2024-10-08T10:43:49.710Z</time>
      </trkpt>
      <trkpt lat="52.405894999999994" lon="16.927796666666666">
        <ele>70.23778393707951</ele>
        <time>2024-10-08T10:46:56.702Z</time>
      </trkpt>
      <trkpt lat="52.406061666666666" lon="16.927766666666667">
        <ele>69.63796524311235</ele>
        <time>2024-10-08T10:47:10.679Z</time>
      </trkpt>
      <trkpt lat="52.40603666666666" lon="16.928195000000002">
        <ele>71.83945961190307</ele>
        <time>2024-10-08T10:47:39.699Z</time>
      </trkpt>
      <trkpt lat="52.406785000000006" lon="16.92861">
        <ele>86.04161060245143</ele>
        <time>2024-10-08T10:49:15.696Z</time>
      </trkpt>
      <trkpt lat="52.406906666666664" lon="16.92845">
        <ele>81.64146455717153</ele>
        <time>2024-10-08T10:49:37.695Z</time>
      </trkpt>
      <trkpt lat="52.40708500000001" lon="16.928553333333333">
        <ele>73.64201384725354</ele>
        <time>2024-10-08T10:49:55.686Z</time>
      </trkpt>
      <trkpt lat="52.40702666666666" lon="16.928813333333334">
        <ele>75.2429198675334</ele>
        <time>2024-10-08T10:50:21.673Z</time>
      </trkpt>
      <trkpt lat="52.40681333333334" lon="16.928884999999998">
        <ele>75.04294047521742</ele>
        <time>2024-10-08T10:50:56.712Z</time>
      </trkpt>
      <trkpt lat="52.405728333333336" lon="16.931436666666666">
        <ele>52.35105116420483</ele>
        <time>2024-10-08T10:53:52.700Z</time>
      </trkpt>
      <trkpt lat="52.40571666666666" lon="16.931556666666665">
        <ele>58.751508585590166</ele>
        <time>2024-10-08T10:54:05.673Z</time>
      </trkpt>
      <trkpt lat="52.40668333333333" lon="16.932105">
        <ele>75.65464924981768</ele>
        <time>2024-10-08T10:56:00.692Z</time>
      </trkpt>
      <trkpt lat="52.40659000000001" lon="16.93307666666667">
        <ele>64.15811664810606</ele>
        <time>2024-10-08T10:57:00.687Z</time>
      </trkpt>
      <trkpt lat="52.40613499999999" lon="16.932988333333334">
        <ele>62.4572755688632</ele>
        <time>2024-10-08T10:57:52.679Z</time>
      </trkpt>
      <trkpt lat="52.40700116020143" lon="16.933252114832698">
        <ele>62.49172292747082</ele>
        <time>2024-10-08T10:59:28.847Z</time>
      </trkpt>
      <trkpt lat="52.40700116020143" lon="16.933252114832698">
        <ele>66.17866192236608</ele>
        <time>2024-10-08T10:59:28.847Z</time>
      </trkpt>
      <trkpt lat="52.40700046676005" lon="16.933441881548617">
        <ele>65.90678346595578</ele>
        <time>2024-10-08T10:59:41.484Z</time>
      </trkpt>
      <trkpt lat="52.407026991654135" lon="16.933259981737077">
        <ele>66.0214957533405</ele>
        <time>2024-10-08T10:59:53.938Z</time>
      </trkpt>
      <trkpt lat="52.407026991654135" lon="16.933259981737077">
        <ele>62.4927497079436</ele>
        <time>2024-10-08T10:59:53.938Z</time>
      </trkpt>
      <trkpt lat="52.40760166666667" lon="16.933435">
        <ele>62.51560518541375</ele>
        <time>2024-10-08T11:00:23.723Z</time>
      </trkpt>
      <trkpt lat="52.40777500000001" lon="16.933294999999998">
        <ele>59.760324367191345</ele>
        <time>2024-10-08T11:00:53.704Z</time>
      </trkpt>
      <trkpt lat="52.407915" lon="16.933463333333336">
        <ele>53.861072863637155</ele>
        <time>2024-10-08T11:01:16.707Z</time>
      </trkpt>
      <trkpt lat="52.40870333333334" lon="16.933653333333332">
        <ele>65.36270627371182</ele>
        <time>2024-10-08T11:02:57.756Z</time>
      </trkpt>
      <trkpt lat="52.40868833333334" lon="16.934583333333332">
        <ele>54.86612846787774</ele>
        <time>2024-10-08T11:04:49.694Z</time>
      </trkpt>
      <trkpt lat="52.40765666666666" lon="16.934338333333336">
        <ele>58.864041845163946</ele>
        <time>2024-10-08T11:07:17.704Z</time>
      </trkpt>
      <trkpt lat="52.407520000000005" lon="16.934406666666668">
        <ele>56.96408988456057</ele>
        <time>2024-10-08T11:07:54.734Z</time>
      </trkpt>
      <trkpt lat="52.407469999999996" lon="16.934725">
        <ele>55.765225075820155</ele>
        <time>2024-10-08T11:08:16.724Z</time>
      </trkpt>
      <trkpt lat="52.407496666666674" lon="16.934458333333335">
        <ele>54.764287988342</ele>
        <time>2024-10-08T11:08:41.703Z</time>
      </trkpt>
      <trkpt lat="52.406652031088015" lon="16.93412478344797">
        <ele>66.20506290213117</ele>
        <time>2024-10-08T11:10:27.702Z</time>
      </trkpt>
      <trkpt lat="52.40663659418564" lon="16.93316475213379">
        <ele>67.75464801034052</ele>
        <time>2024-10-08T11:11:33.109Z</time>
      </trkpt>
      <trkpt lat="52.40567833333333" lon="16.932869999999998">
        <ele>61.30689689233424</ele>
        <time>2024-10-08T11:13:21.956Z</time>
      </trkpt>
      <trkpt lat="52.405605" lon="16.932446666666667">
        <ele>44.054740867571056</ele>
        <time>2024-10-08T12:13:56.737Z</time>
      </trkpt>
      <trkpt lat="52.40574166666667" lon="16.931671666666666">
        <ele>43.452028378375694</ele>
        <time>2024-10-08T12:14:58.756Z</time>
      </trkpt>
      <trkpt lat="52.405045" lon="16.931183333333333">
        <ele>56.24937573754377</ele>
        <time>2024-10-08T12:16:21.757Z</time>
      </trkpt>
      <trkpt lat="52.403913333333335" lon="16.930583333333335">
        <ele>78.54583600159626</ele>
        <time>2024-10-08T12:18:31.698Z</time>
      </trkpt>
      <trkpt lat="52.40362333333334" lon="16.930206666666667">
        <ele>60.64411637461332</ele>
        <time>2024-10-08T12:19:36.701Z</time>
      </trkpt>
      <trkpt lat="52.40253666666668" lon="16.92943166666667">
        <ele>49.64000628628035</ele>
        <time>2024-10-08T12:21:55.737Z</time>
      </trkpt>
      <trkpt lat="52.40224833333333" lon="16.930566666666667">
        <ele>47.94381370116778</ele>
        <time>2024-10-08T12:23:39.740Z</time>
      </trkpt>
      <trkpt lat="52.400691666666674" lon="16.92968">
        <ele>49.338734088383866</ele>
        <time>2024-10-08T12:26:25.741Z</time>
      </trkpt>
      <trkpt lat="52.40071" lon="16.9289">
        <ele>55.23589620014528</ele>
        <time>2024-10-08T12:27:21.740Z</time>
      </trkpt>
      <trkpt lat="52.400865" lon="16.928365">
        <ele>55.83419075194219</ele>
        <time>2024-10-08T12:28:01.723Z</time>
      </trkpt>
      <trkpt lat="52.40073833333333" lon="16.928086666666665">
        <ele>65.93293095585298</ele>
        <time>2024-10-08T12:28:39.737Z</time>
      </trkpt>
      <trkpt lat="52.40015333333334" lon="16.927581666666665">
        <ele>71.53034820987102</ele>
        <time>2024-10-08T12:29:27.714Z</time>
      </trkpt>
      <trkpt lat="52.40023666666666" lon="16.926846666666666">
        <ele>70.82773489781974</ele>
        <time>2024-10-08T12:30:05.757Z</time>
      </trkpt>
      <trkpt lat="52.399890000000006" lon="16.926758333333332">
        <ele>63.12701241623335</ele>
        <time>2024-10-08T12:30:19.741Z</time>
      </trkpt>
      <trkpt lat="52.399708333333336" lon="16.92627666666667">
        <ele>61.42502373613051</ele>
        <time>2024-10-08T12:31:06.741Z</time>
      </trkpt>
      <trkpt lat="52.399441666666675" lon="16.924174999999998">
        <ele>68.9170025620264</ele>
        <time>2024-10-08T12:33:24.693Z</time>
      </trkpt>
      <trkpt lat="52.39955666666666" lon="16.924098333333333">
        <ele>71.3168131251212</ele>
        <time>2024-10-08T12:33:37.744Z</time>
      </trkpt>
      <trkpt lat="52.3995" lon="16.92367833333333">
        <ele>74.31518786519926</ele>
        <time>2024-10-08T12:34:05.737Z</time>
      </trkpt>
      <trkpt lat="52.39962333333333" lon="16.923405">
        <ele>76.21430292244835</ele>
        <time>2024-10-08T12:34:35.763Z</time>
      </trkpt>
      <trkpt lat="52.40013666666667" lon="16.923009999999998">
        <ele>66.7134714331622</ele>
        <time>2024-10-08T12:35:36.754Z</time>
      </trkpt>
      <trkpt lat="52.40047833333333" lon="16.92278333333333">
        <ele>61.41299862594438</ele>
        <time>2024-10-08T12:36:11.767Z</time>
      </trkpt>
      <trkpt lat="52.40057" lon="16.922526666666666">
        <ele>63.71215943302938</ele>
        <time>2024-10-08T12:36:29.700Z</time>
      </trkpt>
      <trkpt lat="52.40103666666667" lon="16.92235833333333">
        <ele>69.91207616241472</ele>
        <time>2024-10-08T12:37:23.701Z</time>
      </trkpt>
      <trkpt lat="52.401313333333334" lon="16.921945">
        <ele>65.4108795849622</ele>
        <time>2024-10-08T12:38:01.723Z</time>
      </trkpt>
      <trkpt lat="52.40133666666667" lon="16.921478333333333">
        <ele>63.10924536906792</ele>
        <time>2024-10-08T12:38:34.744Z</time>
      </trkpt>
      <trkpt lat="52.40148166666666" lon="16.921528333333335">
        <ele>63.609462270615694</ele>
        <time>2024-10-08T12:38:40.753Z</time>
      </trkpt>
      <trkpt lat="52.401309999999995" lon="16.921148333333335">
        <ele>73.70795470927598</ele>
        <time>2024-10-08T12:39:13.751Z</time>
      </trkpt>
      <trkpt lat="52.40134166666667" lon="16.920918333333336">
        <ele>78.0071545563053</ele>
        <time>2024-10-08T12:39:26.760Z</time>
      </trkpt>
      <trkpt lat="52.401624999999996" lon="16.92068833333333">
        <ele>75.4065902926079</ele>
        <time>2024-10-08T12:39:56.761Z</time>
      </trkpt>
      <trkpt lat="52.40174999999999" lon="16.918754999999997">
        <ele>41.39956775783465</ele>
        <time>2024-10-08T12:41:53.746Z</time>
      </trkpt>
      <trkpt lat="52.402166666666666" lon="16.917951666666667">
        <ele>54.197099838080575</ele>
        <time>2024-10-08T12:42:44.737Z</time>
      </trkpt>
      <trkpt lat="52.40248" lon="16.916155">
        <ele>56.99076233285456</ele>
        <time>2024-10-08T12:44:25.750Z</time>
      </trkpt>
      <trkpt lat="52.40303833333334" lon="16.914031666666666">
        <ele>60.28356816205247</ele>
        <time>2024-10-08T12:46:35.756Z</time>
      </trkpt>
      <trkpt lat="52.40305166666667" lon="16.913605">
        <ele>62.681996668643166</ele>
        <time>2024-10-08T12:46:56.704Z</time>
      </trkpt>
      <trkpt lat="52.40277666666666" lon="16.913495">
        <ele>66.9811960306092</ele>
        <time>2024-10-08T12:50:49.510Z</time>
      </trkpt>
      <trkpt lat="52.40277666666666" lon="16.913495">
        <ele>75.03349487846728</ele>
        <time>2024-10-08T12:50:49.510Z</time>
      </trkpt>
      <trkpt lat="52.40271833333333" lon="16.913308333333337">
        <ele>75.17959883209295</ele>
        <time>2024-10-08T12:52:34.747Z</time>
      </trkpt>
      <trkpt lat="52.40271833333333" lon="16.913308333333337">
        <ele>71.98034008396405</ele>
        <time>2024-10-08T12:52:34.747Z</time>
      </trkpt>
      <trkpt lat="52.40257833333333" lon="16.911696666666668">
        <ele>41.17454526527066</ele>
        <time>2024-10-08T13:06:11.597Z</time>
      </trkpt>
      <trkpt lat="52.40251" lon="16.912156666666665">
        <ele>65.57590014040782</ele>
        <time>2024-10-08T13:07:00.365Z</time>
      </trkpt>
      <trkpt lat="52.40251" lon="16.912156666666665">
        <ele>75.13532896162991</ele>
        <time>2024-10-08T13:07:00.365Z</time>
      </trkpt>
      <trkpt lat="52.40233626571228" lon="16.911476887540907">
        <ele>76.83291684848739</ele>
        <time>2024-10-08T13:08:16.283Z</time>
      </trkpt>
      <trkpt lat="52.40226166666666" lon="16.911185">
        <ele>77.88357898156153</ele>
        <time>2024-10-08T13:08:48.881Z</time>
      </trkpt>
      <trkpt lat="52.40226166666666" lon="16.911185">
        <ele>60.97201772532219</ele>
        <time>2024-10-08T13:08:48.881Z</time>
      </trkpt>
      <trkpt lat="52.401966666666674" lon="16.911080000000002">
        <ele>73.57116808958742</ele>
        <time>2024-10-08T13:35:38.341Z</time>
      </trkpt>
    </trkseg>
  </trk>
</gpx>
