<?xml version="1.0" encoding="UTF-8"?>
<gpx version="1.1" creator="Export" xmlns="http://www.topografix.com/GPX/1/1" xmlns:xsi="http://www.w3.org/2001/XMLSchema-instance" xsi:schemaLocation="http://www.topografix.com/GPX/1/1 http://www.topografix.com/GPX/1/1/gpx.xsd http://www.garmin.com/xmlschemas/GpxExtensions/v3 http://www.garmin.com/xmlschemas/GpxExtensionsv3.xsd http://www.garmin.com/xmlschemas/TrackPointExtension/v1 http://www.garmin.com/xmlschemas/TrackPointExtensionv1.xsd http://www.garmin.com/xmlschemas/PowerExtension/v1 http://www.garmin.com/xmlschemas/PowerExtensionv1.xsd http://www.topografix.com/GPX/gpx_style/0/2 http://www.topografix.com/GPX/gpx_style/0/2/gpx_style.xsd" xmlns:gpxtpx="http://www.garmin.com/xmlschemas/TrackPointExtension/v1" xmlns:gpxx="http://www.garmin.com/xmlschemas/GpxExtensions/v3" xmlns:gpxpx="http://www.garmin.com/xmlschemas/PowerExtension/v1" xmlns:gpx_style="http://www.topografix.com/GPX/gpx_style/0/2">
  <metadata>
    <name>activity_182_2024-09-03</name>
    <author>
      <name>gpx.studio</name>
      <link href="https://gpx.studio"/>
    </author>
  </metadata>
  <wpt lat="40.415674" lon="-3.70913">
    <ele>667.282080414776</ele>
    <name>Mercado de San Miguel</name>
    <sym>Shopping Center</sym>
  </wpt>
  <wpt lat="40.417196" lon="-3.711343">
    <ele>659.8088077019067</ele>
    <name>Cafe de los Austrias</name>
    <sym>Restaurant</sym>
  </wpt>
  <wpt lat="40.416371" lon="-3.710435">
    <ele>659.5717512885615</ele>
    <name>Taberneros</name>
    <sym>Restaurant</sym>
  </wpt>
  <wpt lat="40.430388" lon="-3.715776">
    <ele>670.7861026465489</ele>
    <name>El Corte Ingles</name>
    <sym>Scenic Area</sym>
  </wpt>
  <wpt lat="40.426517" lon="-3.72191">
    <ele>617.2046470749009</ele>
    <name>La Rosaleda</name>
    <sym>Scenic Area</sym>
  </wpt>
  <wpt lat="40.424036" lon="-3.717781">
    <ele>654.4586945901202</ele>
    <name>The Temple of Debod</name>
    <sym>Scenic Area</sym>
  </wpt>
  <wpt lat="40.411103" lon="-3.709838">
    <ele>654.7981807731569</ele>
    <name>Mercado de la Cebada</name>
    <sym>Shopping Center</sym>
  </wpt>
  <wpt lat="40.416001264063084" lon="-3.7059526997709327">
    <ele>667.1409876875101</ele>
    <name>Pura Delicia</name>
    <sym>Restaurant</sym>
  </wpt>
  <wpt lat="40.416744" lon="-3.707164">
    <ele>661.891154748048</ele>
    <name>Chocolateria San Gines</name>
    <sym>Restaurant</sym>
  </wpt>
  <wpt lat="40.428016" lon="-3.698303">
    <ele>685.6337654823441</ele>
    <name>SafeStay Madrid Hostel</name>
    <sym>Hotel</sym>
  </wpt>
  <trk>
    <trkseg>
      <trkpt lat="40.416785" lon="-3.7044266666666665">
        <ele>679.2480317691036</ele>
        <time>2024-09-03T19:02:50.575Z</time>
      </trkpt>
      <trkpt lat="40.416835" lon="-3.704673333333333">
        <ele>654.8479913464977</ele>
        <time>2024-09-03T19:03:08.065Z</time>
      </trkpt>
      <trkpt lat="40.417183333333334" lon="-3.7037650000000006">
        <ele>643.7482762663502</ele>
        <time>2024-09-03T19:04:36.065Z</time>
      </trkpt>
      <trkpt lat="40.41719166666667" lon="-3.7034916666666664">
        <ele>644.148330905984</ele>
        <time>2024-09-03T19:04:59.065Z</time>
      </trkpt>
      <trkpt lat="40.417345" lon="-3.703638333333333">
        <ele>647.2483575082686</ele>
        <time>2024-09-03T19:05:23.082Z</time>
      </trkpt>
      <trkpt lat="40.41752666666666" lon="-3.7036399999999996">
        <ele>645.8484131320222</ele>
        <time>2024-09-03T19:05:37.069Z</time>
      </trkpt>
      <trkpt lat="40.417885" lon="-3.7033133333333335">
        <ele>643.9485970023558</ele>
        <time>2024-09-03T19:06:14.089Z</time>
      </trkpt>
      <trkpt lat="40.418276666666664" lon="-3.703111666666666">
        <ele>633.9487683521634</ele>
        <time>2024-09-03T19:06:46.062Z</time>
      </trkpt>
      <trkpt lat="40.41837666666667" lon="-3.7031733333333334">
        <ele>645.0487950757222</ele>
        <time>2024-09-03T19:07:10.082Z</time>
      </trkpt>
      <trkpt lat="40.41847666666667" lon="-3.702998333333333">
        <ele>660.1488563112731</ele>
        <time>2024-09-03T19:07:31.101Z</time>
      </trkpt>
      <trkpt lat="40.41882333333333" lon="-3.7027516666666664">
        <ele>658.5490195501513</ele>
        <time>2024-09-03T19:08:05.101Z</time>
      </trkpt>
      <trkpt lat="40.41909666666666" lon="-3.703156666666666">
        <ele>659.5490398439978</ele>
        <time>2024-09-03T19:08:55.098Z</time>
      </trkpt>
      <trkpt lat="40.41926333333333" lon="-3.7030316666666665">
        <ele>660.349117395713</ele>
        <time>2024-09-03T19:09:26.066Z</time>
      </trkpt>
      <trkpt lat="40.41904666666667" lon="-3.7027200000000002">
        <ele>666.5491058973046</ele>
        <time>2024-09-03T19:10:04.045Z</time>
      </trkpt>
      <trkpt lat="40.419125" lon="-3.70289">
        <ele>666.7491031499255</ele>
        <time>2024-09-03T19:10:13.072Z</time>
      </trkpt>
      <trkpt lat="40.41923166666666" lon="-3.70291">
        <ele>665.8491280337547</ele>
        <time>2024-09-03T19:10:22.096Z</time>
      </trkpt>
      <trkpt lat="40.419671666666666" lon="-3.702606666666667">
        <ele>649.8493349048409</ele>
        <time>2024-09-03T19:11:10.071Z</time>
      </trkpt>
      <trkpt lat="40.41993333333333" lon="-3.7025366666666666">
        <ele>653.2494334884032</ele>
        <time>2024-09-03T19:11:22.111Z</time>
      </trkpt>
      <trkpt lat="40.42011" lon="-3.7022649999999997">
        <ele>669.1495388849221</ele>
        <time>2024-09-03T19:11:50.056Z</time>
      </trkpt>
      <trkpt lat="40.420195" lon="-3.7019416666666665">
        <ele>666.6496290947675</ele>
        <time>2024-09-03T19:12:09.108Z</time>
      </trkpt>
      <trkpt lat="40.419995" lon="-3.701645">
        <ele>659.3496155783345</ele>
        <time>2024-09-03T19:12:28.115Z</time>
      </trkpt>
      <trkpt lat="40.419954999999995" lon="-3.7012483333333335">
        <ele>669.7496671006525</ele>
        <time>2024-09-03T19:13:06.091Z</time>
      </trkpt>
      <trkpt lat="40.419821666666664" lon="-3.701013333333333">
        <ele>662.149663095795</ele>
        <time>2024-09-03T19:13:28.082Z</time>
      </trkpt>
      <trkpt lat="40.42004" lon="-3.70085">
        <ele>651.4497582058693</ele>
        <time>2024-09-03T19:13:43.096Z</time>
      </trkpt>
      <trkpt lat="40.420028333333335" lon="-3.700288333333333">
        <ele>639.5498514592076</ele>
        <time>2024-09-03T19:14:25.092Z</time>
      </trkpt>
      <trkpt lat="40.41994833333333" lon="-3.6998400000000005">
        <ele>650.5498990789348</ele>
        <time>2024-09-03T19:14:56.051Z</time>
      </trkpt>
      <trkpt lat="40.419779999999996" lon="-3.6995716666666674">
        <ele>658.649886198958</ele>
        <time>2024-09-03T19:15:12.075Z</time>
      </trkpt>
      <trkpt lat="40.419599999999996" lon="-3.69889">
        <ele>659.7499328283448</ele>
        <time>2024-09-03T19:15:57.071Z</time>
      </trkpt>
      <trkpt lat="40.41946166666666" lon="-3.6986383333333333">
        <ele>658.1499284204816</ele>
        <time>2024-09-03T19:16:26.092Z</time>
      </trkpt>
      <trkpt lat="40.41947666666667" lon="-3.6982333333333335">
        <ele>653.749992636328</ele>
        <time>2024-09-03T19:16:52.059Z</time>
      </trkpt>
      <trkpt lat="40.41941166666666" lon="-3.698066666666667">
        <ele>653.3499999331995</ele>
        <time>2024-09-03T19:17:13.091Z</time>
      </trkpt>
      <trkpt lat="40.41943333333334" lon="-3.6983083333333333">
        <ele>656.6499692490204</ele>
        <time>2024-09-03T19:17:54.069Z</time>
      </trkpt>
      <trkpt lat="40.4197" lon="-3.698873333333333">
        <ele>664.7499715741793</ele>
        <time>2024-09-03T19:19:00.078Z</time>
      </trkpt>
      <trkpt lat="40.41982666666667" lon="-3.699425">
        <ele>658.4499252521367</ele>
        <time>2024-09-03T19:19:42.078Z</time>
      </trkpt>
      <trkpt lat="40.41974833333334" lon="-3.69952">
        <ele>669.7498884453908</ele>
        <time>2024-09-03T19:20:31.052Z</time>
      </trkpt>
      <trkpt lat="40.41979833333333" lon="-3.6996316666666664">
        <ele>673.2498813740601</ele>
        <time>2024-09-03T19:20:43.043Z</time>
      </trkpt>
      <trkpt lat="40.42052833333333" lon="-3.69943">
        <ele>673.7501567738956</ele>
        <time>2024-09-03T19:21:47.065Z</time>
      </trkpt>
      <trkpt lat="40.420899999999996" lon="-3.6991433333333332">
        <ele>663.8503312509508</ele>
        <time>2024-09-03T19:22:18.053Z</time>
      </trkpt>
      <trkpt lat="40.421015000000004" lon="-3.6992333333333334">
        <ele>658.3503612817925</ele>
        <time>2024-09-03T19:22:48.055Z</time>
      </trkpt>
      <trkpt lat="40.42100666666667" lon="-3.6989966666666665">
        <ele>656.5503914801636</ele>
        <time>2024-09-03T19:23:08.096Z</time>
      </trkpt>
      <trkpt lat="40.421299999999995" lon="-3.6986966666666667">
        <ele>648.1505388074974</ele>
        <time>2024-09-03T19:23:49.078Z</time>
      </trkpt>
      <trkpt lat="40.42152166666666" lon="-3.698713333333333">
        <ele>650.4506134438907</ele>
        <time>2024-09-03T19:24:10.092Z</time>
      </trkpt>
      <trkpt lat="40.422375" lon="-3.698318333333333">
        <ele>651.0509665732782</ele>
        <time>2024-09-03T19:25:21.053Z</time>
      </trkpt>
      <trkpt lat="40.422525" lon="-3.6986916666666665">
        <ele>676.8509533562556</ele>
        <time>2024-09-03T19:26:06.072Z</time>
      </trkpt>
      <trkpt lat="40.42268" lon="-3.698496666666667">
        <ele>672.7510385826134</ele>
        <time>2024-09-03T19:26:27.085Z</time>
      </trkpt>
      <trkpt lat="40.423006666666666" lon="-3.698336666666666">
        <ele>667.6511757484394</ele>
        <time>2024-09-03T19:27:06.069Z</time>
      </trkpt>
      <trkpt lat="40.42314833333333" lon="-3.6983200000000003">
        <ele>661.7512259478938</ele>
        <time>2024-09-03T19:27:17.081Z</time>
      </trkpt>
      <trkpt lat="40.423181666666665" lon="-3.6982100000000004">
        <ele>659.651258377284</ele>
        <time>2024-09-03T19:27:28.056Z</time>
      </trkpt>
      <trkpt lat="40.42353" lon="-3.6986866666666667">
        <ele>656.4512996469342</ele>
        <time>2024-09-03T19:28:38.095Z</time>
      </trkpt>
      <trkpt lat="40.42368333333333" lon="-3.6987233333333336">
        <ele>656.3513464252026</ele>
        <time>2024-09-03T19:28:51.073Z</time>
      </trkpt>
      <trkpt lat="40.42386166666667" lon="-3.698535">
        <ele>660.2514356923933</ele>
        <time>2024-09-03T19:29:17.055Z</time>
      </trkpt>
      <trkpt lat="40.42384333333334" lon="-3.6984649999999997">
        <ele>659.551442603981</ele>
        <time>2024-09-03T19:29:38.071Z</time>
      </trkpt>
      <trkpt lat="40.423876666666665" lon="-3.6985449999999993">
        <ele>660.051443663662</ele>
        <time>2024-09-03T19:29:50.042Z</time>
      </trkpt>
      <trkpt lat="40.42404833333333" lon="-3.698533333333333">
        <ele>667.1514999822009</ele>
        <time>2024-09-03T19:30:17.066Z</time>
      </trkpt>
      <trkpt lat="40.42410333333333" lon="-3.698451666666667">
        <ele>667.9515304234263</ele>
        <time>2024-09-03T19:30:28.061Z</time>
      </trkpt>
      <trkpt lat="40.424295" lon="-3.698695">
        <ele>646.2515448998045</ele>
        <time>2024-09-03T19:30:30.071Z</time>
      </trkpt>
      <trkpt lat="40.424078333333334" lon="-3.698258333333334">
        <ele>630.7515582790566</ele>
        <time>2024-09-03T19:30:31.075Z</time>
      </trkpt>
      <trkpt lat="40.424234999999996" lon="-3.6986633333333336">
        <ele>665.8515562601061</ele>
        <time>2024-09-03T19:30:34.059Z</time>
      </trkpt>
      <trkpt lat="40.42416166666667" lon="-3.698316666666667">
        <ele>659.0515630149177</ele>
        <time>2024-09-03T19:30:36.076Z</time>
      </trkpt>
      <trkpt lat="40.42421" lon="-3.6984">
        <ele>666.0515732965652</ele>
        <time>2024-09-03T19:30:37.061Z</time>
      </trkpt>
      <trkpt lat="40.424285000000005" lon="-3.6982166666666663">
        <ele>672.9516259028134</ele>
        <time>2024-09-03T19:30:42.078Z</time>
      </trkpt>
      <trkpt lat="40.424798333333335" lon="-3.697985">
        <ele>671.0518346993387</ele>
        <time>2024-09-03T19:31:45.063Z</time>
      </trkpt>
      <trkpt lat="40.42490833333333" lon="-3.6977816666666663">
        <ele>672.2519061671527</ele>
        <time>2024-09-03T19:32:07.075Z</time>
      </trkpt>
      <trkpt lat="40.42507666666667" lon="-3.697808333333333">
        <ele>668.8519588395905</ele>
        <time>2024-09-03T19:32:24.072Z</time>
      </trkpt>
      <trkpt lat="40.42580833333333" lon="-3.697133333333333">
        <ele>662.5523074842886</ele>
        <time>2024-09-03T19:33:45.062Z</time>
      </trkpt>
      <trkpt lat="40.42593166666666" lon="-3.697146666666667">
        <ele>665.8523492133322</ele>
        <time>2024-09-03T19:33:57.150Z</time>
      </trkpt>
      <trkpt lat="40.42602333333333" lon="-3.69729">
        <ele>664.352354203164</ele>
        <time>2024-09-03T19:34:22.072Z</time>
      </trkpt>
      <trkpt lat="40.42610833333333" lon="-3.697191666666667">
        <ele>664.3523970894316</ele>
        <time>2024-09-03T19:34:27.084Z</time>
      </trkpt>
      <trkpt lat="40.426186666666666" lon="-3.6967983333333336">
        <ele>670.0524843751612</ele>
        <time>2024-09-03T19:34:58.079Z</time>
      </trkpt>
      <trkpt lat="40.42669" lon="-3.6967983333333336">
        <ele>668.6526514862262</ele>
        <time>2024-09-03T19:36:04.052Z</time>
      </trkpt>
      <trkpt lat="40.42706166666667" lon="-3.6966116666666666">
        <ele>663.1528048902826</ele>
        <time>2024-09-03T19:36:40.081Z</time>
      </trkpt>
      <trkpt lat="40.42691333333333" lon="-3.696365">
        <ele>743.8527971177065</ele>
        <time>2024-09-03T19:37:08.078Z</time>
      </trkpt>
      <trkpt lat="40.426961666666664" lon="-3.6963150000000002">
        <ele>737.2528146676726</ele>
        <time>2024-09-03T19:37:17.069Z</time>
      </trkpt>
      <trkpt lat="40.42756" lon="-3.696225">
        <ele>671.0530302727678</ele>
        <time>2024-09-03T19:38:10.075Z</time>
      </trkpt>
      <trkpt lat="40.42767833333333" lon="-3.6963266666666668">
        <ele>667.7530546000056</ele>
        <time>2024-09-03T19:38:25.068Z</time>
      </trkpt>
      <trkpt lat="40.42782" lon="-3.6968949999999996">
        <ele>669.0530203648533</ele>
        <time>2024-09-03T19:39:10.071Z</time>
      </trkpt>
      <trkpt lat="40.427785" lon="-3.6970199999999998">
        <ele>668.5529910559518</ele>
        <time>2024-09-03T19:39:19.065Z</time>
      </trkpt>
      <trkpt lat="40.42799333333333" lon="-3.697593333333333">
        <ele>664.7529744182779</ele>
        <time>2024-09-03T19:39:53.062Z</time>
      </trkpt>
      <trkpt lat="40.42818166666667" lon="-3.6978433333333336">
        <ele>671.0529934238702</ele>
        <time>2024-09-03T19:40:09.043Z</time>
      </trkpt>
      <trkpt lat="40.42805666666666" lon="-3.6980166666666663">
        <ele>668.1529295998813</ele>
        <time>2024-09-03T19:40:25.075Z</time>
      </trkpt>
      <trkpt lat="40.42814245378431" lon="-3.698229545773313">
        <ele>667.6763254416892</ele>
        <time>2024-09-03T19:40:42.821Z</time>
      </trkpt>
      <trkpt lat="40.42814245378431" lon="-3.698229545773313">
        <ele>686.0213749604461</ele>
        <time>2024-09-03T19:40:42.821Z</time>
      </trkpt>
      <trkpt lat="40.42798785369109" lon="-3.6982968502377105">
        <ele>685.4963927360623</ele>
        <time>2024-09-03T19:40:58.584Z</time>
      </trkpt>
    </trkseg>
  </trk>
  <trk>
    <trkseg>
      <trkpt lat="40.42795522312781" lon="-3.6983493611355414">
        <ele>685.5270010821574</ele>
        <time>2024-09-03T08:03:52.010Z</time>
      </trkpt>
      <trkpt lat="40.428107430562996" lon="-3.6982968178775364">
        <ele>686.022040475613</ele>
        <time>2024-09-03T08:04:12.015Z</time>
      </trkpt>
      <trkpt lat="40.428107430562996" lon="-3.6982968178775364">
        <ele>686.0235179201211</ele>
        <time>2024-09-03T08:04:12.015Z</time>
      </trkpt>
      <trkpt lat="40.42761662909052" lon="-3.6960946334204436">
        <ele>680.8015781248928</ele>
        <time>2024-09-03T08:06:55.970Z</time>
      </trkpt>
      <trkpt lat="40.42009335533811" lon="-3.7011926883003525">
        <ele>684.3327927800538</ele>
        <time>2024-09-03T08:20:10.530Z</time>
      </trkpt>
      <trkpt lat="40.41989470594413" lon="-3.701651453523067">
        <ele>688.1525668725619</ele>
        <time>2024-09-03T08:20:48.243Z</time>
      </trkpt>
      <trkpt lat="40.419345" lon="-3.7019749999999996">
        <ele>668.0493414885075</ele>
        <time>2024-09-03T08:21:47.773Z</time>
      </trkpt>
      <trkpt lat="40.418895" lon="-3.702048333333334">
        <ele>665.0491731707044</ele>
        <time>2024-09-03T08:22:31.769Z</time>
      </trkpt>
      <trkpt lat="40.41829499999999" lon="-3.7023083333333338">
        <ele>661.9489248903143</ele>
        <time>2024-09-03T08:23:44.733Z</time>
      </trkpt>
      <trkpt lat="40.41807166666667" lon="-3.7026600000000003">
        <ele>657.14878641819</ele>
        <time>2024-09-03T08:24:19.776Z</time>
      </trkpt>
      <trkpt lat="40.417188333333335" lon="-3.7030699999999994">
        <ele>657.0484075302105</ele>
        <time>2024-09-03T08:26:08.776Z</time>
      </trkpt>
      <trkpt lat="40.41715666666666" lon="-3.7031816666666666">
        <ele>654.2483783077422</ele>
        <time>2024-09-03T08:26:19.782Z</time>
      </trkpt>
      <trkpt lat="40.416826666666665" lon="-3.7033966666666664">
        <ele>649.0482272650086</ele>
        <time>2024-09-03T08:27:16.779Z</time>
      </trkpt>
      <trkpt lat="40.416775" lon="-3.703555">
        <ele>647.8481824064131</ele>
        <time>2024-09-03T08:27:27.740Z</time>
      </trkpt>
      <trkpt lat="40.416270000000004" lon="-3.706983333333333">
        <ele>653.5473646081311</ele>
        <time>2024-09-03T08:31:58.777Z</time>
      </trkpt>
      <trkpt lat="40.41638666666667" lon="-3.7070533333333335">
        <ele>659.3473934203015</ele>
        <time>2024-09-03T08:32:21.739Z</time>
      </trkpt>
      <trkpt lat="40.41642" lon="-3.706946666666667">
        <ele>669.1474175398039</ele>
        <time>2024-09-03T08:32:38.776Z</time>
      </trkpt>
      <trkpt lat="40.416705" lon="-3.7070600000000002">
        <ele>656.7475039488004</ele>
        <time>2024-09-03T08:36:41.773Z</time>
      </trkpt>
      <trkpt lat="40.416668333333334" lon="-3.707243333333333">
        <ele>658.5474589227013</ele>
        <time>2024-09-03T08:36:58.756Z</time>
      </trkpt>
      <trkpt lat="40.41673166666667" lon="-3.7071433333333337">
        <ele>658.6474599775015</ele>
        <time>2024-09-03T08:37:00.760Z</time>
      </trkpt>
      <trkpt lat="40.416835" lon="-3.7072916666666664">
        <ele>662.4474972513351</ele>
        <time>2024-09-03T09:09:05.779Z</time>
      </trkpt>
      <trkpt lat="40.416871666666665" lon="-3.7073816666666666">
        <ele>665.8474918738993</ele>
        <time>2024-09-03T09:09:21.779Z</time>
      </trkpt>
      <trkpt lat="40.417" lon="-3.7074399999999996">
        <ele>660.8475265652834</ele>
        <time>2024-09-03T09:09:58.723Z</time>
      </trkpt>
      <trkpt lat="40.416754999999995" lon="-3.707495">
        <ele>653.7474343722378</ele>
        <time>2024-09-03T09:10:31.766Z</time>
      </trkpt>
      <trkpt lat="40.416219999999996" lon="-3.7079">
        <ele>665.3471658843943</ele>
        <time>2024-09-03T09:11:29.782Z</time>
      </trkpt>
      <trkpt lat="40.416180000000004" lon="-3.708018333333334">
        <ele>660.2471286175231</ele>
        <time>2024-09-03T09:11:54.769Z</time>
      </trkpt>
      <trkpt lat="40.41593666666667" lon="-3.707936666666667">
        <ele>658.5470582244466</ele>
        <time>2024-09-03T09:12:53.730Z</time>
      </trkpt>
      <trkpt lat="40.41583666666667" lon="-3.7080666666666664">
        <ele>652.7470001780723</ele>
        <time>2024-09-03T09:13:20.739Z</time>
      </trkpt>
      <trkpt lat="40.415454999999994" lon="-3.7077666666666667">
        <ele>643.2469296882366</ele>
        <time>2024-09-03T09:14:05.753Z</time>
      </trkpt>
      <trkpt lat="40.41552" lon="-3.7076883333333335">
        <ele>644.1469654243484</ele>
        <time>2024-09-03T09:14:28.740Z</time>
      </trkpt>
      <trkpt lat="40.41547166666667" lon="-3.70768">
        <ele>647.6469542847072</ele>
        <time>2024-09-03T09:14:42.740Z</time>
      </trkpt>
      <trkpt lat="40.41551166666667" lon="-3.7074849999999997">
        <ele>653.9470030589835</ele>
        <time>2024-09-03T09:15:22.730Z</time>
      </trkpt>
      <trkpt lat="40.41545" lon="-3.7076683333333333">
        <ele>653.7469462609218</ele>
        <time>2024-09-03T09:15:48.770Z</time>
      </trkpt>
      <trkpt lat="40.415261666666666" lon="-3.707701666666667">
        <ele>655.6468778213338</ele>
        <time>2024-09-03T09:16:14.760Z</time>
      </trkpt>
      <trkpt lat="40.41434" lon="-3.7075416666666663">
        <ele>644.7465901329325</ele>
        <time>2024-09-03T09:18:15.767Z</time>
      </trkpt>
      <trkpt lat="40.41422333333333" lon="-3.7076150000000005">
        <ele>647.9465344467279</ele>
        <time>2024-09-03T09:18:36.788Z</time>
      </trkpt>
      <trkpt lat="40.414183333333334" lon="-3.7074316666666665">
        <ele>648.646534464817</ele>
        <time>2024-09-03T09:19:06.780Z</time>
      </trkpt>
      <trkpt lat="40.414006666666666" lon="-3.7076450000000003">
        <ele>655.3464604334964</ele>
        <time>2024-09-03T09:19:28.775Z</time>
      </trkpt>
      <trkpt lat="40.41405666666667" lon="-3.70776">
        <ele>652.146450496416</ele>
        <time>2024-09-03T09:19:47.737Z</time>
      </trkpt>
      <trkpt lat="40.413956666666664" lon="-3.7079483333333334">
        <ele>649.1463808345923</ele>
        <time>2024-09-03T09:20:06.777Z</time>
      </trkpt>
      <trkpt lat="40.41382833333333" lon="-3.708031666666667">
        <ele>645.4463163005746</ele>
        <time>2024-09-03T09:21:31.737Z</time>
      </trkpt>
      <trkpt lat="40.41391" lon="-3.70814">
        <ele>646.9463192537196</ele>
        <time>2024-09-03T09:21:42.729Z</time>
      </trkpt>
      <trkpt lat="40.41416" lon="-3.7080699999999998">
        <ele>653.0464232096228</ele>
        <time>2024-09-03T09:22:16.736Z</time>
      </trkpt>
      <trkpt lat="40.41412833333333" lon="-3.7081983333333333">
        <ele>657.846386811545</ele>
        <time>2024-09-03T09:23:20.775Z</time>
      </trkpt>
      <trkpt lat="40.41443833333334" lon="-3.708018333333334">
        <ele>661.3465222118133</ele>
        <time>2024-09-03T09:28:10.782Z</time>
      </trkpt>
      <trkpt lat="40.41476" lon="-3.7081716666666664">
        <ele>665.3466099125076</ele>
        <time>2024-09-03T09:30:39.736Z</time>
      </trkpt>
      <trkpt lat="40.41489" lon="-3.7081349999999995">
        <ele>670.3466563822012</ele>
        <time>2024-09-03T09:33:08.780Z</time>
      </trkpt>
      <trkpt lat="40.41537" lon="-3.708545">
        <ele>655.8467416475544</ele>
        <time>2024-09-03T09:34:15.782Z</time>
      </trkpt>
      <trkpt lat="40.41522" lon="-3.7086966666666665">
        <ele>653.4466600920027</ele>
        <time>2024-09-03T09:35:51.769Z</time>
      </trkpt>
      <trkpt lat="40.415255" lon="-3.708635">
        <ele>645.4466825668745</ele>
        <time>2024-09-03T09:38:21.783Z</time>
      </trkpt>
      <trkpt lat="40.41578166666667" lon="-3.708945">
        <ele>655.9468017027535</ele>
        <time>2024-09-03T09:39:30.769Z</time>
      </trkpt>
      <trkpt lat="40.41581166666666" lon="-3.7091183333333335">
        <ele>653.8467797594111</ele>
        <time>2024-09-03T09:39:48.757Z</time>
      </trkpt>
      <trkpt lat="40.415955000000004" lon="-3.709166666666667">
        <ele>658.146814087553</ele>
        <time>2024-09-03T09:40:16.770Z</time>
      </trkpt>
      <trkpt lat="40.415825000000005" lon="-3.70924">
        <ele>660.446759985678</ele>
        <time>2024-09-03T09:41:27.769Z</time>
      </trkpt>
      <trkpt lat="40.41573666666667" lon="-3.7095583333333337">
        <ele>659.246664662745</ele>
        <time>2024-09-03T09:42:05.766Z</time>
      </trkpt>
      <trkpt lat="40.415705" lon="-3.709803333333333">
        <ele>655.5465999708434</ele>
        <time>2024-09-03T09:42:35.773Z</time>
      </trkpt>
      <trkpt lat="40.41581166666666" lon="-3.709925">
        <ele>659.0466083186978</ele>
        <time>2024-09-03T09:43:47.767Z</time>
      </trkpt>
      <trkpt lat="40.41575" lon="-3.7097316666666673">
        <ele>663.2466291667895</ele>
        <time>2024-09-03T09:45:26.750Z</time>
      </trkpt>
      <trkpt lat="40.415685" lon="-3.7101483333333336">
        <ele>657.5465228885727</ele>
        <time>2024-09-03T09:46:07.773Z</time>
      </trkpt>
      <trkpt lat="40.41560166666667" lon="-3.710175">
        <ele>653.6464905314792</ele>
        <time>2024-09-03T09:46:15.766Z</time>
      </trkpt>
      <trkpt lat="40.41560333333334" lon="-3.710278333333333">
        <ele>653.3464680288023</ele>
        <time>2024-09-03T09:46:26.770Z</time>
      </trkpt>
      <trkpt lat="40.415495" lon="-3.710263333333333">
        <ele>651.9464305223418</ele>
        <time>2024-09-03T09:46:41.767Z</time>
      </trkpt>
      <trkpt lat="40.41556833333333" lon="-3.7103433333333338">
        <ele>652.9464386570352</ele>
        <time>2024-09-03T09:47:01.760Z</time>
      </trkpt>
      <trkpt lat="40.415396666666666" lon="-3.7102666666666666">
        <ele>654.1463950199659</ele>
        <time>2024-09-03T09:48:05.760Z</time>
      </trkpt>
      <trkpt lat="40.41527833333334" lon="-3.710428333333333">
        <ele>672.2463616959325</ele>
        <time>2024-09-03T09:51:15.776Z</time>
      </trkpt>
      <trkpt lat="40.415315" lon="-3.710528333333334">
        <ele>688.3463134577536</ele>
        <time>2024-09-03T09:54:00.767Z</time>
      </trkpt>
      <trkpt lat="40.41546" lon="-3.710551666666667">
        <ele>673.246357377837</ele>
        <time>2024-09-03T09:54:20.766Z</time>
      </trkpt>
      <trkpt lat="40.415546666666664" lon="-3.7107683333333332">
        <ele>659.4463428772801</ele>
        <time>2024-09-03T09:55:00.766Z</time>
      </trkpt>
      <trkpt lat="40.415436666666665" lon="-3.7113616666666664">
        <ele>651.346171573148</ele>
        <time>2024-09-03T09:55:57.730Z</time>
      </trkpt>
      <trkpt lat="40.41533833333334" lon="-3.7115100000000005">
        <ele>655.5461117270161</ele>
        <time>2024-09-03T09:56:17.773Z</time>
      </trkpt>
      <trkpt lat="40.41531666666666" lon="-3.712181666666667">
        <ele>648.7459591654551</ele>
        <time>2024-09-03T09:57:12.776Z</time>
      </trkpt>
      <trkpt lat="40.41509833333334" lon="-3.7127383333333333">
        <ele>647.5457675744042</ele>
        <time>2024-09-03T09:58:04.763Z</time>
      </trkpt>
      <trkpt lat="40.41514333333334" lon="-3.7129499999999998">
        <ele>651.5457249043234</ele>
        <time>2024-09-03T09:58:32.769Z</time>
      </trkpt>
      <trkpt lat="40.415060000000004" lon="-3.71302">
        <ele>662.9456840167587</ele>
        <time>2024-09-03T10:00:30.766Z</time>
      </trkpt>
      <trkpt lat="40.415198333333336" lon="-3.7129550000000004">
        <ele>663.0457408838304</ele>
        <time>2024-09-03T10:00:51.769Z</time>
      </trkpt>
      <trkpt lat="40.415155" lon="-3.713003333333333">
        <ele>664.0457226420453</ele>
        <time>2024-09-03T10:02:02.760Z</time>
      </trkpt>
      <trkpt lat="40.41514333333334" lon="-3.713016666666667">
        <ele>660.5457159131613</ele>
        <time>2024-09-03T10:02:33.729Z</time>
      </trkpt>
      <trkpt lat="40.415335" lon="-3.712998333333333">
        <ele>663.5457780285549</ele>
        <time>2024-09-03T10:02:55.753Z</time>
      </trkpt>
      <trkpt lat="40.41555666666667" lon="-3.713138333333333">
        <ele>642.9458239716316</ele>
        <time>2024-09-03T10:03:37.767Z</time>
      </trkpt>
      <trkpt lat="40.41571166666667" lon="-3.712996666666667">
        <ele>646.9459053768127</ele>
        <time>2024-09-03T10:03:54.773Z</time>
      </trkpt>
      <trkpt lat="40.41601" lon="-3.712975">
        <ele>652.1460137403404</ele>
        <time>2024-09-03T10:04:30.773Z</time>
      </trkpt>
      <trkpt lat="40.41607666666666" lon="-3.7128283333333334">
        <ele>657.4460716847302</ele>
        <time>2024-09-03T10:04:43.777Z</time>
      </trkpt>
      <trkpt lat="40.41619166666667" lon="-3.7128666666666668">
        <ele>655.346101118303</ele>
        <time>2024-09-03T10:04:55.772Z</time>
      </trkpt>
      <trkpt lat="40.416235" lon="-3.7129649999999996">
        <ele>653.3460968584383</ele>
        <time>2024-09-03T10:06:06.740Z</time>
      </trkpt>
      <trkpt lat="40.416180000000004" lon="-3.712981666666667">
        <ele>653.5460744281811</ele>
        <time>2024-09-03T10:06:23.772Z</time>
      </trkpt>
      <trkpt lat="40.416225000000004" lon="-3.712885">
        <ele>650.8460984343413</ele>
        <time>2024-09-03T10:09:13.754Z</time>
      </trkpt>
      <trkpt lat="40.416423333333334" lon="-3.712835">
        <ele>648.0461887032938</ele>
        <time>2024-09-03T10:09:37.734Z</time>
      </trkpt>
      <trkpt lat="40.41630333333333" lon="-3.71288">
        <ele>653.0461430994023</ele>
        <time>2024-09-03T10:10:03.765Z</time>
      </trkpt>
      <trkpt lat="40.416266666666665" lon="-3.7129999999999996">
        <ele>652.4461019111847</ele>
        <time>2024-09-03T10:29:36.582Z</time>
      </trkpt>
      <trkpt lat="40.416365000000006" lon="-3.712886666666666">
        <ele>648.0461580817811</ele>
        <time>2024-09-03T10:34:37.786Z</time>
      </trkpt>
      <trkpt lat="40.416558333333334" lon="-3.712945">
        <ele>646.3462086594999</ele>
        <time>2024-09-03T10:35:01.766Z</time>
      </trkpt>
      <trkpt lat="40.41656" lon="-3.713033333333333">
        <ele>646.1461919006737</ele>
        <time>2024-09-03T10:35:14.747Z</time>
      </trkpt>
      <trkpt lat="40.417096666666666" lon="-3.712798333333333">
        <ele>650.1464190257676</ele>
        <time>2024-09-03T10:36:11.777Z</time>
      </trkpt>
      <trkpt lat="40.41716333333333" lon="-3.7128466666666666">
        <ele>651.046437955054</ele>
        <time>2024-09-03T10:36:17.753Z</time>
      </trkpt>
      <trkpt lat="40.41717333333334" lon="-3.713158333333333">
        <ele>655.6463729200518</ele>
        <time>2024-09-03T10:36:40.775Z</time>
      </trkpt>
      <trkpt lat="40.41727166666667" lon="-3.713198333333333">
        <ele>658.4463951738121</ele>
        <time>2024-09-03T10:36:53.729Z</time>
      </trkpt>
      <trkpt lat="40.417260000000006" lon="-3.713276666666667">
        <ele>659.5463788170724</ele>
        <time>2024-09-03T10:37:01.757Z</time>
      </trkpt>
      <trkpt lat="40.41718166666667" lon="-3.7133466666666664">
        <ele>656.6463353275723</ele>
        <time>2024-09-03T10:37:11.752Z</time>
      </trkpt>
      <trkpt lat="40.417116666666665" lon="-3.7131866666666666">
        <ele>652.1463430181485</ele>
        <time>2024-09-03T10:37:25.742Z</time>
      </trkpt>
      <trkpt lat="40.41694833333334" lon="-3.7131483333333337">
        <ele>654.1463003747207</ele>
        <time>2024-09-03T10:37:39.765Z</time>
      </trkpt>
      <trkpt lat="40.416471666666666" lon="-3.7132449999999997">
        <ele>644.1461197694298</ele>
        <time>2024-09-03T10:38:23.772Z</time>
      </trkpt>
      <trkpt lat="40.416423333333334" lon="-3.713588333333333">
        <ele>642.4460268562666</ele>
        <time>2024-09-03T10:38:38.770Z</time>
      </trkpt>
      <trkpt lat="40.416255" lon="-3.713778333333334">
        <ele>638.9459232594336</ele>
        <time>2024-09-03T10:38:57.776Z</time>
      </trkpt>
      <trkpt lat="40.41637333333333" lon="-3.7142383333333338">
        <ele>643.7458557127877</ele>
        <time>2024-09-03T10:39:36.740Z</time>
      </trkpt>
      <trkpt lat="40.41640666666667" lon="-3.7143166666666665">
        <ele>641.2458496042739</ele>
        <time>2024-09-03T10:40:01.733Z</time>
      </trkpt>
      <trkpt lat="40.41650666666667" lon="-3.7144366666666664">
        <ele>642.3458529905562</ele>
        <time>2024-09-03T10:40:15.732Z</time>
      </trkpt>
      <trkpt lat="40.416579999999996" lon="-3.7143933333333337">
        <ele>642.6458878511447</ele>
        <time>2024-09-03T10:40:35.746Z</time>
      </trkpt>
      <trkpt lat="40.41659666666667" lon="-3.714521666666667">
        <ele>642.5458640467333</ele>
        <time>2024-09-03T10:41:04.729Z</time>
      </trkpt>
      <trkpt lat="40.416484999999994" lon="-3.7147566666666667">
        <ele>641.7457772309183</ele>
        <time>2024-09-03T10:42:19.766Z</time>
      </trkpt>
      <trkpt lat="40.416475" lon="-3.715395">
        <ele>638.4456196675669</ele>
        <time>2024-09-03T10:43:09.727Z</time>
      </trkpt>
      <trkpt lat="40.416380000000004" lon="-3.715505">
        <ele>638.7455630558908</ele>
        <time>2024-09-03T10:45:06.736Z</time>
      </trkpt>
      <trkpt lat="40.41636833333334" lon="-3.7145566666666667">
        <ele>643.9457750059667</ele>
        <time>2024-09-03T10:46:38.775Z</time>
      </trkpt>
      <trkpt lat="40.41628166666667" lon="-3.7144516666666667">
        <ele>642.2457717519786</ele>
        <time>2024-09-03T10:46:52.773Z</time>
      </trkpt>
      <trkpt lat="40.416261666666664" lon="-3.7136950000000004">
        <ele>638.5459374797526</ele>
        <time>2024-09-03T10:47:45.762Z</time>
      </trkpt>
      <trkpt lat="40.416354999999996" lon="-3.7134800000000006">
        <ele>638.8460183673216</ele>
        <time>2024-09-03T10:48:03.759Z</time>
      </trkpt>
      <trkpt lat="40.417201666666664" lon="-3.71338">
        <ele>649.6463178064353</ele>
        <time>2024-09-03T10:49:17.772Z</time>
      </trkpt>
      <trkpt lat="40.41708166666667" lon="-3.712036666666666">
        <ele>649.2465871508527</ele>
        <time>2024-09-03T10:50:48.754Z</time>
      </trkpt>
      <trkpt lat="40.41680833333333" lon="-3.711853333333334">
        <ele>650.9465434399788</ele>
        <time>2024-09-03T10:51:17.760Z</time>
      </trkpt>
      <trkpt lat="40.41667333333333" lon="-3.7119250000000004">
        <ele>655.0464771022104</ele>
        <time>2024-09-03T10:51:59.776Z</time>
      </trkpt>
      <trkpt lat="40.417235" lon="-3.7113616666666664">
        <ele>651.7467841183699</ele>
        <time>2024-09-03T11:09:00.776Z</time>
      </trkpt>
      <trkpt lat="40.417431666666666" lon="-3.711031666666667">
        <ele>642.746917776474</ele>
        <time>2024-09-03T11:09:23.777Z</time>
      </trkpt>
      <trkpt lat="40.41739833333334" lon="-3.7110899999999996">
        <ele>643.0469155679232</ele>
        <time>2024-09-03T11:09:28.753Z</time>
      </trkpt>
      <trkpt lat="40.41726333333334" lon="-3.7108449999999995">
        <ele>644.1469083367049</ele>
        <time>2024-09-03T11:09:36.721Z</time>
      </trkpt>
      <trkpt lat="40.417336666666664" lon="-3.710403333333333">
        <ele>645.6470274495364</ele>
        <time>2024-09-03T11:10:11.759Z</time>
      </trkpt>
      <trkpt lat="40.41750833333333" lon="-3.710536666666667">
        <ele>641.0470566897027</ele>
        <time>2024-09-03T11:10:30.766Z</time>
      </trkpt>
      <trkpt lat="40.41789666666667" lon="-3.710626666666667">
        <ele>637.147169505739</ele>
        <time>2024-09-03T11:11:09.736Z</time>
      </trkpt>
      <trkpt lat="40.41806666666666" lon="-3.7112800000000004">
        <ele>640.0470879302445</ele>
        <time>2024-09-03T11:12:58.767Z</time>
      </trkpt>
      <trkpt lat="40.418456666666664" lon="-3.711263333333333">
        <ele>638.2472208032507</ele>
        <time>2024-09-03T11:13:40.776Z</time>
      </trkpt>
      <trkpt lat="40.418800000000005" lon="-3.7114616666666667">
        <ele>639.6472962092361</ele>
        <time>2024-09-03T11:14:23.730Z</time>
      </trkpt>
      <trkpt lat="40.41872166666667" lon="-3.7115700000000005">
        <ele>640.4472482127184</ele>
        <time>2024-09-03T11:14:41.730Z</time>
      </trkpt>
      <trkpt lat="40.418816666666665" lon="-3.711631666666667">
        <ele>638.6472673308632</ele>
        <time>2024-09-03T11:15:01.732Z</time>
      </trkpt>
      <trkpt lat="40.418855" lon="-3.712045">
        <ele>638.3471888115063</ele>
        <time>2024-09-03T11:15:47.773Z</time>
      </trkpt>
      <trkpt lat="40.41903666666666" lon="-3.7121183333333336">
        <ele>639.6472333515648</ele>
        <time>2024-09-03T11:16:21.754Z</time>
      </trkpt>
      <trkpt lat="40.41886833333333" lon="-3.711918333333333">
        <ele>641.4472344503606</ele>
        <time>2024-09-03T11:17:40.769Z</time>
      </trkpt>
      <trkpt lat="40.418965" lon="-3.7121183333333336">
        <ele>642.4472093511838</ele>
        <time>2024-09-03T11:17:55.783Z</time>
      </trkpt>
      <trkpt lat="40.41911" lon="-3.712095">
        <ele>644.9472621338602</ele>
        <time>2024-09-03T11:18:12.729Z</time>
      </trkpt>
      <trkpt lat="40.419385000000005" lon="-3.7125633333333337">
        <ele>636.9472511214585</ele>
        <time>2024-09-03T11:19:00.769Z</time>
      </trkpt>
      <trkpt lat="40.419538333333335" lon="-3.7125683333333335">
        <ele>637.0473014333189</ele>
        <time>2024-09-03T11:19:13.736Z</time>
      </trkpt>
      <trkpt lat="40.41956833333334" lon="-3.7129016666666663">
        <ele>637.7472383012507</ele>
        <time>2024-09-03T11:19:38.752Z</time>
      </trkpt>
      <trkpt lat="40.41975166666667" lon="-3.712915">
        <ele>637.1472952635739</ele>
        <time>2024-09-03T11:19:56.737Z</time>
      </trkpt>
      <trkpt lat="40.419896666666666" lon="-3.713196666666667">
        <ele>633.5472822305575</ele>
        <time>2024-09-03T11:20:43.733Z</time>
      </trkpt>
      <trkpt lat="40.41995333333333" lon="-3.713048333333333">
        <ele>632.3473301290245</ele>
        <time>2024-09-03T11:21:13.782Z</time>
      </trkpt>
      <trkpt lat="40.42149333333334" lon="-3.71299">
        <ele>633.9478650418831</ele>
        <time>2024-09-03T11:23:51.737Z</time>
      </trkpt>
      <trkpt lat="40.422090000000004" lon="-3.713225">
        <ele>631.2480054180869</ele>
        <time>2024-09-03T11:24:58.743Z</time>
      </trkpt>
      <trkpt lat="40.422415" lon="-3.713536666666667">
        <ele>630.148045781271</ele>
        <time>2024-09-03T11:25:37.740Z</time>
      </trkpt>
      <trkpt lat="40.422646666666665" lon="-3.713516666666666">
        <ele>629.148125155538</ele>
        <time>2024-09-03T11:26:04.734Z</time>
      </trkpt>
      <trkpt lat="40.422625000000004" lon="-3.7137483333333337">
        <ele>628.8480665997927</ele>
        <time>2024-09-03T11:26:32.759Z</time>
      </trkpt>
      <trkpt lat="40.42256666666666" lon="-3.71362">
        <ele>627.2480776196211</ele>
        <time>2024-09-03T11:26:53.773Z</time>
      </trkpt>
      <trkpt lat="40.422555" lon="-3.7136899999999997">
        <ele>627.2480650553607</ele>
        <time>2024-09-03T11:27:49.777Z</time>
      </trkpt>
      <trkpt lat="40.42283166666667" lon="-3.714003333333333">
        <ele>631.6480767962129</ele>
        <time>2024-09-03T11:29:39.763Z</time>
      </trkpt>
      <trkpt lat="40.42283" lon="-3.714648333333333">
        <ele>636.3479286271358</ele>
        <time>2024-09-03T11:31:05.767Z</time>
      </trkpt>
      <trkpt lat="40.42276666666667" lon="-3.7147083333333333">
        <ele>627.1479024035925</ele>
        <time>2024-09-03T11:35:26.777Z</time>
      </trkpt>
      <trkpt lat="40.42295" lon="-3.7148516666666667">
        <ele>628.0479163738737</ele>
        <time>2024-09-03T11:35:47.740Z</time>
      </trkpt>
      <trkpt lat="40.42299833333333" lon="-3.7147033333333335">
        <ele>628.2479647232374</ele>
        <time>2024-09-03T11:35:59.782Z</time>
      </trkpt>
      <trkpt lat="40.423141666666666" lon="-3.7148383333333337">
        <ele>638.647985957257</ele>
        <time>2024-09-03T11:36:23.733Z</time>
      </trkpt>
      <trkpt lat="40.42308666666667" lon="-3.7147699999999997">
        <ele>639.4479828832415</ele>
        <time>2024-09-03T11:36:38.750Z</time>
      </trkpt>
      <trkpt lat="40.42310666666666" lon="-3.7146899999999996">
        <ele>636.147997708947</ele>
        <time>2024-09-03T11:53:18.783Z</time>
      </trkpt>
      <trkpt lat="40.42313" lon="-3.7147016666666666">
        <ele>630.9480103223532</ele>
        <time>2024-09-03T11:58:19.775Z</time>
      </trkpt>
      <trkpt lat="40.42309" lon="-3.715163333333334">
        <ele>631.6478927901214</ele>
        <time>2024-09-03T12:22:42.769Z</time>
      </trkpt>
      <trkpt lat="40.423316666666665" lon="-3.7154299999999996">
        <ele>633.3479022621162</ele>
        <time>2024-09-03T12:23:10.753Z</time>
      </trkpt>
      <trkpt lat="40.423615000000005" lon="-3.7155916666666666">
        <ele>634.9479609722521</ele>
        <time>2024-09-03T12:23:40.729Z</time>
      </trkpt>
      <trkpt lat="40.42363833333333" lon="-3.7158583333333333">
        <ele>634.547909207408</ele>
        <time>2024-09-03T12:23:58.744Z</time>
      </trkpt>
      <trkpt lat="40.423475" lon="-3.716165">
        <ele>636.547779651585</ele>
        <time>2024-09-03T12:24:24.773Z</time>
      </trkpt>
      <trkpt lat="40.42348833333333" lon="-3.71647">
        <ele>642.6477120052647</ele>
        <time>2024-09-03T12:25:00.780Z</time>
      </trkpt>
      <trkpt lat="40.42435" lon="-3.7168350000000006">
        <ele>644.8479018059265</ele>
        <time>2024-09-03T12:26:48.737Z</time>
      </trkpt>
      <trkpt lat="40.42426" lon="-3.716885">
        <ele>643.8478651122332</ele>
        <time>2024-09-03T12:26:56.760Z</time>
      </trkpt>
      <trkpt lat="40.42429166666667" lon="-3.716758333333333">
        <ele>641.6479002148665</ele>
        <time>2024-09-03T12:27:06.770Z</time>
      </trkpt>
      <trkpt lat="40.424420000000005" lon="-3.7168183333333333">
        <ele>641.0479292012935</ele>
        <time>2024-09-03T12:27:19.762Z</time>
      </trkpt>
      <trkpt lat="40.42422666666666" lon="-3.7177983333333335">
        <ele>647.1476256435343</ele>
        <time>2024-09-03T12:29:55.779Z</time>
      </trkpt>
      <trkpt lat="40.424319999999994" lon="-3.7178850000000003">
        <ele>646.4476234271397</ele>
        <time>2024-09-03T12:29:56.770Z</time>
      </trkpt>
      <trkpt lat="40.42422" lon="-3.717856666666666">
        <ele>646.9476178455739</ele>
        <time>2024-09-03T12:30:00.763Z</time>
      </trkpt>
      <trkpt lat="40.424051666666664" lon="-3.718728333333333">
        <ele>638.9473319669148</ele>
        <time>2024-09-03T12:31:25.750Z</time>
      </trkpt>
      <trkpt lat="40.42389166666667" lon="-3.7187900000000003">
        <ele>643.3472742329599</ele>
        <time>2024-09-03T12:33:03.729Z</time>
      </trkpt>
      <trkpt lat="40.42391333333333" lon="-3.718726666666667">
        <ele>642.6472758766963</ele>
        <time>2024-09-03T12:33:57.737Z</time>
      </trkpt>
      <trkpt lat="40.42370666666667" lon="-3.7186966666666668">
        <ele>642.947232946807</ele>
        <time>2024-09-03T12:38:40.776Z</time>
      </trkpt>
      <trkpt lat="40.42358" lon="-3.71855">
        <ele>642.2472235841623</ele>
        <time>2024-09-03T12:38:58.773Z</time>
      </trkpt>
      <trkpt lat="40.423385" lon="-3.71858">
        <ele>639.947150580987</ele>
        <time>2024-09-03T12:39:32.740Z</time>
      </trkpt>
      <trkpt lat="40.42460166666667" lon="-3.7188149999999998">
        <ele>642.0474845112083</ele>
        <time>2024-09-03T12:46:34.746Z</time>
      </trkpt>
      <trkpt lat="40.424596666666666" lon="-3.7189083333333333">
        <ele>641.8474633969673</ele>
        <time>2024-09-03T12:46:49.783Z</time>
      </trkpt>
      <trkpt lat="40.425275000000006" lon="-3.7186933333333334">
        <ele>645.047739610757</ele>
        <time>2024-09-03T12:48:19.767Z</time>
      </trkpt>
      <trkpt lat="40.42518" lon="-3.7183600000000006">
        <ele>644.8477919282601</ele>
        <time>2024-09-03T12:51:56.742Z</time>
      </trkpt>
      <trkpt lat="40.425245000000004" lon="-3.718386666666667">
        <ele>644.2478079974545</ele>
        <time>2024-09-03T12:52:04.759Z</time>
      </trkpt>
      <trkpt lat="40.42553" lon="-3.7187533333333334">
        <ele>645.0478101171367</ele>
        <time>2024-09-03T12:52:52.760Z</time>
      </trkpt>
      <trkpt lat="40.425575" lon="-3.7190266666666663">
        <ele>645.947755936596</ele>
        <time>2024-09-03T12:53:16.730Z</time>
      </trkpt>
      <trkpt lat="40.426156666666664" lon="-3.720225">
        <ele>636.9476328151187</ele>
        <time>2024-09-03T12:55:29.746Z</time>
      </trkpt>
      <trkpt lat="40.42639" lon="-3.720558333333333">
        <ele>633.6476210754566</ele>
        <time>2024-09-03T12:56:30.744Z</time>
      </trkpt>
      <trkpt lat="40.426991666666666" lon="-3.720941666666667">
        <ele>629.1477119055257</ele>
        <time>2024-09-03T12:57:46.773Z</time>
      </trkpt>
      <trkpt lat="40.426875" lon="-3.7210949999999996">
        <ele>628.8476372456674</ele>
        <time>2024-09-03T12:59:00.746Z</time>
      </trkpt>
      <trkpt lat="40.426005" lon="-3.720786666666667">
        <ele>613.047436033863</ele>
        <time>2024-09-03T13:02:15.770Z</time>
      </trkpt>
      <trkpt lat="40.42603" lon="-3.7208716666666666">
        <ele>613.4474218882694</ele>
        <time>2024-09-03T13:02:40.766Z</time>
      </trkpt>
      <trkpt lat="40.425925" lon="-3.7210266666666665">
        <ele>617.347345011573</ele>
        <time>2024-09-03T13:03:15.732Z</time>
      </trkpt>
      <trkpt lat="40.426048333333334" lon="-3.721061666666666">
        <ele>615.7473775837976</ele>
        <time>2024-09-03T13:04:18.736Z</time>
      </trkpt>
      <trkpt lat="40.42595166666667" lon="-3.720965">
        <ele>614.2473666586334</ele>
        <time>2024-09-03T13:04:54.763Z</time>
      </trkpt>
      <trkpt lat="40.42601333333334" lon="-3.720853333333333">
        <ele>615.6474210027196</ele>
        <time>2024-09-03T13:05:13.759Z</time>
      </trkpt>
      <trkpt lat="40.42590833333334" lon="-3.7209600000000003">
        <ele>612.9473629556398</ele>
        <time>2024-09-03T13:05:27.759Z</time>
      </trkpt>
      <trkpt lat="40.42597333333333" lon="-3.7211383333333337">
        <ele>610.7473327919848</ele>
        <time>2024-09-03T13:05:37.740Z</time>
      </trkpt>
      <trkpt lat="40.426065" lon="-3.721231666666667">
        <ele>611.5473361793513</ele>
        <time>2024-09-03T13:05:55.743Z</time>
      </trkpt>
      <trkpt lat="40.426206666666666" lon="-3.721233333333333">
        <ele>611.647384932853</ele>
        <time>2024-09-03T13:07:01.734Z</time>
      </trkpt>
      <trkpt lat="40.42606" lon="-3.7211999999999996">
        <ele>613.3473464273576</ele>
        <time>2024-09-03T13:07:18.736Z</time>
      </trkpt>
      <trkpt lat="40.42616833333333" lon="-3.7212633333333334">
        <ele>612.5473627009242</ele>
        <time>2024-09-03T13:08:43.740Z</time>
      </trkpt>
      <trkpt lat="40.426065" lon="-3.721178333333333">
        <ele>613.0473454399878</ele>
        <time>2024-09-03T13:08:55.759Z</time>
      </trkpt>
      <trkpt lat="40.426219999999994" lon="-3.7209616666666667">
        <ele>611.447458366629</ele>
        <time>2024-09-03T13:09:49.780Z</time>
      </trkpt>
      <trkpt lat="40.426048333333334" lon="-3.720881666666667">
        <ele>614.2474243637444</ele>
        <time>2024-09-03T13:10:06.776Z</time>
      </trkpt>
      <trkpt lat="40.426005" lon="-3.7211166666666666">
        <ele>617.7473477354589</ele>
        <time>2024-09-03T13:11:02.740Z</time>
      </trkpt>
      <trkpt lat="40.42606" lon="-3.721068333333333">
        <ele>617.7473739746121</ele>
        <time>2024-09-03T13:11:23.750Z</time>
      </trkpt>
      <trkpt lat="40.42603666666666" lon="-3.7208433333333337">
        <ele>619.0474302106262</ele>
        <time>2024-09-03T13:12:22.773Z</time>
      </trkpt>
      <trkpt lat="40.42653166666666" lon="-3.72115">
        <ele>612.4475066376494</ele>
        <time>2024-09-03T13:13:31.773Z</time>
      </trkpt>
      <trkpt lat="40.42666333333333" lon="-3.721678333333333">
        <ele>612.1474106551567</ele>
        <time>2024-09-03T13:15:17.732Z</time>
      </trkpt>
      <trkpt lat="40.426991666666666" lon="-3.721845">
        <ele>612.1474705656101</ele>
        <time>2024-09-03T13:16:07.733Z</time>
      </trkpt>
      <trkpt lat="40.427261666666666" lon="-3.7221800000000003">
        <ele>609.147467121634</ele>
        <time>2024-09-03T13:16:51.759Z</time>
      </trkpt>
      <trkpt lat="40.427215000000004" lon="-3.7219383333333336">
        <ele>610.8475140957527</ele>
        <time>2024-09-03T13:19:30.750Z</time>
      </trkpt>
      <trkpt lat="40.42712166666667" lon="-3.72192">
        <ele>610.1474942097415</ele>
        <time>2024-09-03T13:19:43.740Z</time>
      </trkpt>
      <trkpt lat="40.42726833333334" lon="-3.7218866666666663">
        <ele>605.0475487176211</ele>
        <time>2024-09-03T13:21:17.769Z</time>
      </trkpt>
      <trkpt lat="40.42747833333333" lon="-3.7220949999999995">
        <ele>610.7475600482709</ele>
        <time>2024-09-03T13:21:46.779Z</time>
      </trkpt>
      <trkpt lat="40.42741" lon="-3.722216666666667">
        <ele>612.5475059856938</ele>
        <time>2024-09-03T13:21:55.777Z</time>
      </trkpt>
      <trkpt lat="40.42753833333334" lon="-3.7221466666666667">
        <ele>611.3475640896676</ele>
        <time>2024-09-03T13:22:10.790Z</time>
      </trkpt>
      <trkpt lat="40.42763333333333" lon="-3.7222766666666662">
        <ele>609.6475615881648</ele>
        <time>2024-09-03T13:22:28.785Z</time>
      </trkpt>
      <trkpt lat="40.427688333333336" lon="-3.7225516666666665">
        <ele>610.7475079153263</ele>
        <time>2024-09-03T13:22:58.765Z</time>
      </trkpt>
      <trkpt lat="40.427611666666664" lon="-3.722503333333333">
        <ele>612.447491320616</ele>
        <time>2024-09-03T13:23:12.756Z</time>
      </trkpt>
      <trkpt lat="40.427575000000004" lon="-3.722131666666667">
        <ele>610.8475770947277</ele>
        <time>2024-09-03T13:23:45.777Z</time>
      </trkpt>
      <trkpt lat="40.42735833333334" lon="-3.7217433333333334">
        <ele>612.7476160001792</ele>
        <time>2024-09-03T13:24:22.769Z</time>
      </trkpt>
      <trkpt lat="40.427058333333335" lon="-3.7213316666666665">
        <ele>619.7476310832864</ele>
        <time>2024-09-03T13:25:13.775Z</time>
      </trkpt>
      <trkpt lat="40.42697166666667" lon="-3.721075">
        <ele>623.2476696355823</ele>
        <time>2024-09-03T13:25:54.773Z</time>
      </trkpt>
      <trkpt lat="40.427083333333336" lon="-3.7209600000000003">
        <ele>627.6477345127498</ele>
        <time>2024-09-03T13:26:14.779Z</time>
      </trkpt>
      <trkpt lat="40.42859" lon="-3.7216716666666665">
        <ele>638.5480325296896</ele>
        <time>2024-09-03T13:29:15.762Z</time>
      </trkpt>
      <trkpt lat="40.42899166666667" lon="-3.721251666666667">
        <ele>636.0482720238413</ele>
        <time>2024-09-03T13:30:03.780Z</time>
      </trkpt>
      <trkpt lat="40.42906" lon="-3.7210133333333335">
        <ele>633.3483577658997</ele>
        <time>2024-09-03T13:30:24.779Z</time>
      </trkpt>
      <trkpt lat="40.42901666666667" lon="-3.720556666666667">
        <ele>633.7484680767975</ele>
        <time>2024-09-03T13:30:54.779Z</time>
      </trkpt>
      <trkpt lat="40.42917" lon="-3.7203583333333334">
        <ele>636.6485664472605</ele>
        <time>2024-09-03T13:31:07.743Z</time>
      </trkpt>
      <trkpt lat="40.42944833333333" lon="-3.7197966666666664">
        <ele>646.548804624702</ele>
        <time>2024-09-03T13:32:32.740Z</time>
      </trkpt>
      <trkpt lat="40.42953166666667" lon="-3.71898">
        <ele>639.749042159432</ele>
        <time>2024-09-03T13:33:30.777Z</time>
      </trkpt>
      <trkpt lat="40.42965" lon="-3.71866">
        <ele>641.649167063029</ele>
        <time>2024-09-03T13:33:54.756Z</time>
      </trkpt>
      <trkpt lat="40.42960333333333" lon="-3.71852">
        <ele>641.9491909261014</ele>
        <time>2024-09-03T13:34:05.766Z</time>
      </trkpt>
      <trkpt lat="40.429899999999996" lon="-3.7181900000000003">
        <ele>647.7493646066359</ele>
        <time>2024-09-03T13:34:49.753Z</time>
      </trkpt>
      <trkpt lat="40.43017833333333" lon="-3.717138333333333">
        <ele>648.4497204664976</ele>
        <time>2024-09-03T13:36:01.742Z</time>
      </trkpt>
      <trkpt lat="40.430146666666666" lon="-3.716883333333333">
        <ele>648.8497780753559</ele>
        <time>2024-09-03T13:36:17.749Z</time>
      </trkpt>
      <trkpt lat="40.430283333333335" lon="-3.716635">
        <ele>646.9498766467433</ele>
        <time>2024-09-03T13:36:32.756Z</time>
      </trkpt>
      <trkpt lat="40.430281666666666" lon="-3.7164050000000004">
        <ele>645.3499325619066</ele>
        <time>2024-09-03T13:36:45.766Z</time>
      </trkpt>
      <trkpt lat="40.43044666666666" lon="-3.7159649999999997">
        <ele>656.7501019304796</ele>
        <time>2024-09-03T13:37:27.737Z</time>
      </trkpt>
      <trkpt lat="40.43042333333334" lon="-3.7157516666666672">
        <ele>683.5501467788422</ele>
        <time>2024-09-03T13:53:07.769Z</time>
      </trkpt>
      <trkpt lat="40.430126666666666" lon="-3.715603333333333">
        <ele>685.750086953991</ele>
        <time>2024-09-03T13:54:28.765Z</time>
      </trkpt>
      <trkpt lat="40.42904333333333" lon="-3.715766666666667">
        <ele>641.9497131231738</ele>
        <time>2024-09-03T13:59:28.775Z</time>
      </trkpt>
      <trkpt lat="40.42941166666667" lon="-3.715876666666667">
        <ele>690.1497890347018</ele>
        <time>2024-09-03T13:59:46.747Z</time>
      </trkpt>
      <trkpt lat="40.42931" lon="-3.715698333333333">
        <ele>699.4498003889399</ele>
        <time>2024-09-03T14:00:08.773Z</time>
      </trkpt>
      <trkpt lat="40.42903666666667" lon="-3.715708333333333">
        <ele>706.3497120110998</ele>
        <time>2024-09-03T14:00:32.772Z</time>
      </trkpt>
      <trkpt lat="40.42897" lon="-3.7156200000000004">
        <ele>705.2497083019662</ele>
        <time>2024-09-03T14:00:39.767Z</time>
      </trkpt>
      <trkpt lat="40.429089999999995" lon="-3.7151033333333334">
        <ele>697.7498707114834</ele>
        <time>2024-09-03T14:00:49.732Z</time>
      </trkpt>
      <trkpt lat="40.428885" lon="-3.7148449999999995">
        <ele>670.6498665159696</ele>
        <time>2024-09-03T14:01:11.736Z</time>
      </trkpt>
      <trkpt lat="40.42805" lon="-3.714343333333333">
        <ele>633.949716177124</ele>
        <time>2024-09-03T14:02:44.769Z</time>
      </trkpt>
      <trkpt lat="40.42531666666666" lon="-3.7122066666666664">
        <ele>643.149309476552</ele>
        <time>2024-09-03T14:07:27.769Z</time>
      </trkpt>
      <trkpt lat="40.42492166666667" lon="-3.7121033333333333">
        <ele>647.8492070678757</ele>
        <time>2024-09-03T14:08:00.779Z</time>
      </trkpt>
      <trkpt lat="40.42454333333333" lon="-3.7118249999999997">
        <ele>637.4491395232494</ele>
        <time>2024-09-03T14:08:45.766Z</time>
      </trkpt>
      <trkpt lat="40.424515" lon="-3.7119983333333333">
        <ele>640.849090701002</ele>
        <time>2024-09-03T14:09:13.759Z</time>
      </trkpt>
      <trkpt lat="40.424225" lon="-3.7119566666666666">
        <ele>638.5490067314054</ele>
        <time>2024-09-03T14:10:43.734Z</time>
      </trkpt>
      <trkpt lat="40.423955" lon="-3.7123933333333334">
        <ele>632.7488269914444</ele>
        <time>2024-09-03T14:11:37.739Z</time>
      </trkpt>
      <trkpt lat="40.42377166666667" lon="-3.712271666666667">
        <ele>630.8487875138777</ele>
        <time>2024-09-03T14:11:56.770Z</time>
      </trkpt>
      <trkpt lat="40.42339166666667" lon="-3.712795">
        <ele>628.2485396884891</ele>
        <time>2024-09-03T14:12:54.776Z</time>
      </trkpt>
      <trkpt lat="40.423145" lon="-3.712945">
        <ele>629.3484238454065</ele>
        <time>2024-09-03T14:13:28.737Z</time>
      </trkpt>
      <trkpt lat="40.42279333333333" lon="-3.713091666666667">
        <ele>630.9482772403838</ele>
        <time>2024-09-03T14:14:15.736Z</time>
      </trkpt>
      <trkpt lat="40.42261" lon="-3.7130066666666663">
        <ele>631.848228861764</ele>
        <time>2024-09-03T14:14:37.766Z</time>
      </trkpt>
      <trkpt lat="40.4226" lon="-3.7131016666666663">
        <ele>629.6482062143905</ele>
        <time>2024-09-03T14:15:13.736Z</time>
      </trkpt>
      <trkpt lat="40.422003333333336" lon="-3.7131183333333335">
        <ele>627.4480081771194</ele>
        <time>2024-09-03T14:21:26.786Z</time>
      </trkpt>
      <trkpt lat="40.42185" lon="-3.7132016666666665">
        <ele>628.6479422870614</ele>
        <time>2024-09-03T14:21:42.766Z</time>
      </trkpt>
      <trkpt lat="40.421553333333335" lon="-3.712981666666667">
        <ele>628.247886390663</ele>
        <time>2024-09-03T14:22:14.733Z</time>
      </trkpt>
      <trkpt lat="40.42124333333334" lon="-3.712953333333333">
        <ele>631.6477884968158</ele>
        <time>2024-09-03T14:22:49.763Z</time>
      </trkpt>
      <trkpt lat="40.419509999999995" lon="-3.7130650000000003">
        <ele>633.9471831814284</ele>
        <time>2024-09-03T14:25:28.756Z</time>
      </trkpt>
      <trkpt lat="40.419088333333335" lon="-3.713145">
        <ele>633.8470250664199</ele>
        <time>2024-09-03T14:26:07.785Z</time>
      </trkpt>
      <trkpt lat="40.41892666666667" lon="-3.712915">
        <ele>631.9470186939504</ele>
        <time>2024-09-03T14:26:27.779Z</time>
      </trkpt>
      <trkpt lat="40.41887833333333" lon="-3.7119783333333336">
        <ele>629.2472107184641</ele>
        <time>2024-09-03T14:27:27.779Z</time>
      </trkpt>
      <trkpt lat="40.418351666666666" lon="-3.7120066666666665">
        <ele>632.8470283732685</ele>
        <time>2024-09-03T14:28:19.734Z</time>
      </trkpt>
      <trkpt lat="40.41822833333333" lon="-3.7118616666666666">
        <ele>632.5470174090337</ele>
        <time>2024-09-03T14:29:02.734Z</time>
      </trkpt>
      <trkpt lat="40.41806666666666" lon="-3.711365">
        <ele>641.2470705169336</ele>
        <time>2024-09-03T14:29:49.749Z</time>
      </trkpt>
      <trkpt lat="40.41798166666667" lon="-3.711383333333333">
        <ele>642.3470412440303</ele>
        <time>2024-09-03T14:30:53.786Z</time>
      </trkpt>
      <trkpt lat="40.41789666666667" lon="-3.710891666666667">
        <ele>644.0471121228659</ele>
        <time>2024-09-03T14:32:22.763Z</time>
      </trkpt>
      <trkpt lat="40.418033333333334" lon="-3.7108133333333333">
        <ele>641.5471608502593</ele>
        <time>2024-09-03T14:33:10.773Z</time>
      </trkpt>
      <trkpt lat="40.41797333333333" lon="-3.7105250000000005">
        <ele>641.7472180782888</ele>
        <time>2024-09-03T14:33:34.736Z</time>
      </trkpt>
      <trkpt lat="40.41725666666667" lon="-3.710465">
        <ele>643.6469961522355</ele>
        <time>2024-09-03T14:34:29.743Z</time>
      </trkpt>
      <trkpt lat="40.41673166666667" lon="-3.7102666666666666">
        <ele>641.6468539306378</ele>
        <time>2024-09-03T14:35:22.779Z</time>
      </trkpt>
      <trkpt lat="40.41671833333333" lon="-3.7104749999999997">
        <ele>639.3468081633955</ele>
        <time>2024-09-03T14:35:49.753Z</time>
      </trkpt>
      <trkpt lat="40.416563333333336" lon="-3.710625">
        <ele>642.6467210611903</ele>
        <time>2024-09-03T14:36:03.746Z</time>
      </trkpt>
      <trkpt lat="40.416471666666666" lon="-3.710406666666666">
        <ele>646.0467329784416</ele>
        <time>2024-09-03T14:37:27.779Z</time>
      </trkpt>
      <trkpt lat="40.416608333333336" lon="-3.710283333333334">
        <ele>644.3468039638841</ele>
        <time>2024-09-03T14:38:35.756Z</time>
      </trkpt>
      <trkpt lat="40.416401666666665" lon="-3.7102599999999994">
        <ele>647.246743795847</ele>
        <time>2024-09-03T14:39:12.769Z</time>
      </trkpt>
      <trkpt lat="40.416235" lon="-3.7098216666666666">
        <ele>648.7467753341064</ele>
        <time>2024-09-03T14:39:43.786Z</time>
      </trkpt>
      <trkpt lat="40.416111666666666" lon="-3.7097483333333336">
        <ele>646.0467512930975</ele>
        <time>2024-09-03T14:39:52.734Z</time>
      </trkpt>
      <trkpt lat="40.416165" lon="-3.709588333333334">
        <ele>658.5467998530683</ele>
        <time>2024-09-03T14:40:04.736Z</time>
      </trkpt>
      <trkpt lat="40.41594833333333" lon="-3.7095783333333334">
        <ele>662.6467338053809</ele>
        <time>2024-09-03T14:40:29.754Z</time>
      </trkpt>
      <trkpt lat="40.415663333333335" lon="-3.7093833333333333">
        <ele>654.3466749584269</ele>
        <time>2024-09-03T14:41:17.730Z</time>
      </trkpt>
      <trkpt lat="40.41575" lon="-3.7088183333333338">
        <ele>659.4468121709008</ele>
        <time>2024-09-03T14:55:57.762Z</time>
      </trkpt>
      <trkpt lat="40.415868333333336" lon="-3.7088666666666663">
        <ele>662.3468457754453</ele>
        <time>2024-09-03T14:56:04.759Z</time>
      </trkpt>
      <trkpt lat="40.41589" lon="-3.70902">
        <ele>662.7468297020699</ele>
        <time>2024-09-03T14:56:10.769Z</time>
      </trkpt>
      <trkpt lat="40.41579166666667" lon="-3.7094366666666665">
        <ele>653.7467079941395</ele>
        <time>2024-09-03T14:56:52.780Z</time>
      </trkpt>
      <trkpt lat="40.41574" lon="-3.7095149999999997">
        <ele>648.6466717977981</ele>
        <time>2024-09-03T14:59:30.762Z</time>
      </trkpt>
      <trkpt lat="40.415735000000005" lon="-3.7093966666666667">
        <ele>648.9466708819687</ele>
        <time>2024-09-03T15:00:12.779Z</time>
      </trkpt>
      <trkpt lat="40.41569166666667" lon="-3.7094316666666667">
        <ele>652.5466920666786</ele>
        <time>2024-09-03T15:04:29.727Z</time>
      </trkpt>
      <trkpt lat="40.41575" lon="-3.7095266666666666">
        <ele>668.5466722319283</ele>
        <time>2024-09-03T15:06:21.760Z</time>
      </trkpt>
      <trkpt lat="40.41569166666667" lon="-3.709416666666667">
        <ele>663.0466758321393</ele>
        <time>2024-09-03T15:08:58.766Z</time>
      </trkpt>
      <trkpt lat="40.415933333333335" lon="-3.709463333333333">
        <ele>656.6467459058966</ele>
        <time>2024-09-03T15:13:00.773Z</time>
      </trkpt>
      <trkpt lat="40.41601333333333" lon="-3.7095716666666667">
        <ele>653.8467513915247</ele>
        <time>2024-09-03T15:13:21.769Z</time>
      </trkpt>
      <trkpt lat="40.416003333333336" lon="-3.70974">
        <ele>652.6467189346473</ele>
        <time>2024-09-03T15:13:29.770Z</time>
      </trkpt>
      <trkpt lat="40.41619" lon="-3.7097866666666666">
        <ele>646.546768477201</ele>
        <time>2024-09-03T15:13:50.773Z</time>
      </trkpt>
      <trkpt lat="40.41611" lon="-3.709861666666667">
        <ele>645.14672858059</ele>
        <time>2024-09-03T15:14:04.757Z</time>
      </trkpt>
      <trkpt lat="40.41617166666666" lon="-3.709835">
        <ele>645.1467484829421</ele>
        <time>2024-09-03T15:14:14.769Z</time>
      </trkpt>
      <trkpt lat="40.41632166666667" lon="-3.710041666666667">
        <ele>644.6467596570376</ele>
        <time>2024-09-03T15:14:39.773Z</time>
      </trkpt>
      <trkpt lat="40.41644833333333" lon="-3.710433333333333">
        <ele>638.0467207838891</ele>
        <time>2024-09-03T15:15:06.776Z</time>
      </trkpt>
      <trkpt lat="40.416396666666664" lon="-3.710406666666666">
        <ele>638.3467116527081</ele>
        <time>2024-09-03T15:15:28.762Z</time>
      </trkpt>
      <trkpt lat="40.416489999999996" lon="-3.7103366666666666">
        <ele>646.7467531252566</ele>
        <time>2024-09-03T15:16:08.763Z</time>
      </trkpt>
      <trkpt lat="40.416375" lon="-3.710433333333333">
        <ele>648.1467029282296</ele>
        <time>2024-09-03T15:16:36.769Z</time>
      </trkpt>
      <trkpt lat="40.416534999999996" lon="-3.7106899999999996">
        <ele>644.5466957843532</ele>
        <time>2024-09-03T15:17:13.769Z</time>
      </trkpt>
      <trkpt lat="40.416486666666664" lon="-3.710933333333333">
        <ele>644.1466310858325</ele>
        <time>2024-09-03T15:17:28.762Z</time>
      </trkpt>
      <trkpt lat="40.416555" lon="-3.7110733333333332">
        <ele>651.4466205635846</ele>
        <time>2024-09-03T15:17:41.773Z</time>
      </trkpt>
      <trkpt lat="40.41667333333333" lon="-3.7111199999999998">
        <ele>655.0466495124161</ele>
        <time>2024-09-03T15:17:58.769Z</time>
      </trkpt>
      <trkpt lat="40.416875" lon="-3.7114249999999998">
        <ele>645.4466540529507</ele>
        <time>2024-09-03T15:19:24.773Z</time>
      </trkpt>
      <trkpt lat="40.41722666666667" lon="-3.711345">
        <ele>685.9467874078838</ele>
        <time>2024-09-03T15:33:19.753Z</time>
      </trkpt>
      <trkpt lat="40.41743666666667" lon="-3.7110950000000003">
        <ele>673.3469138966549</ele>
        <time>2024-09-03T15:41:29.772Z</time>
      </trkpt>
      <trkpt lat="40.41721333333333" lon="-3.711351666666667">
        <ele>682.5467725532574</ele>
        <time>2024-09-03T15:53:07.779Z</time>
      </trkpt>
      <trkpt lat="40.417069999999995" lon="-3.7121633333333337">
        <ele>634.1465878810145</ele>
        <time>2024-09-03T16:11:35.513Z</time>
      </trkpt>
      <trkpt lat="40.41719833333333" lon="-3.7130233333333336">
        <ele>690.0464289493121</ele>
        <time>2024-09-03T16:11:45.473Z</time>
      </trkpt>
      <trkpt lat="40.417381666666664" lon="-3.7126583333333336">
        <ele>652.6465067288858</ele>
        <time>2024-09-03T16:11:47.479Z</time>
      </trkpt>
      <trkpt lat="40.417500000000004" lon="-3.71193">
        <ele>607.2467473416382</ele>
        <time>2024-09-03T16:11:51.482Z</time>
      </trkpt>
      <trkpt lat="40.41751333333333" lon="-3.711006666666666">
        <ele>601.246945011099</ele>
        <time>2024-09-03T16:12:10.516Z</time>
      </trkpt>
      <trkpt lat="40.416915" lon="-3.7131616666666662">
        <ele>601.2469610981574</ele>
        <time>2024-09-03T16:19:41.519Z</time>
      </trkpt>
      <trkpt lat="40.41728" lon="-3.711988333333333">
        <ele>753.9466647111624</ele>
        <time>2024-09-03T16:19:44.507Z</time>
      </trkpt>
      <trkpt lat="40.417206666666665" lon="-3.7113633333333333">
        <ele>681.3467733378671</ele>
        <time>2024-09-03T16:21:09.756Z</time>
      </trkpt>
      <trkpt lat="40.41706666666666" lon="-3.7113783333333337">
        <ele>663.3467273753596</ele>
        <time>2024-09-03T16:21:31.765Z</time>
      </trkpt>
      <trkpt lat="40.41739333333333" lon="-3.7099366666666667">
        <ele>646.1471483123403</ele>
        <time>2024-09-03T16:23:43.766Z</time>
      </trkpt>
      <trkpt lat="40.417651666666664" lon="-3.7099649999999995">
        <ele>646.9472243902956</ele>
        <time>2024-09-03T16:24:02.733Z</time>
      </trkpt>
      <trkpt lat="40.4179" lon="-3.7100583333333335">
        <ele>641.747289879371</ele>
        <time>2024-09-03T16:24:47.721Z</time>
      </trkpt>
      <trkpt lat="40.41785166666667" lon="-3.7101783333333334">
        <ele>641.6472524616627</ele>
        <time>2024-09-03T16:25:04.773Z</time>
      </trkpt>
      <trkpt lat="40.41793" lon="-3.7102000000000004">
        <ele>640.5472722833438</ele>
        <time>2024-09-03T16:25:21.766Z</time>
      </trkpt>
      <trkpt lat="40.41781" lon="-3.710388333333333">
        <ele>637.1471991490037</ele>
        <time>2024-09-03T16:25:56.766Z</time>
      </trkpt>
      <trkpt lat="40.41788666666666" lon="-3.7105449999999998">
        <ele>638.1471884662997</ele>
        <time>2024-09-03T16:26:06.743Z</time>
      </trkpt>
      <trkpt lat="40.41759666666667" lon="-3.7108666666666665">
        <ele>641.447017487491</ele>
        <time>2024-09-03T16:26:46.734Z</time>
      </trkpt>
      <trkpt lat="40.41736166666667" lon="-3.7113116666666666">
        <ele>638.246851980349</ele>
        <time>2024-09-03T16:27:36.766Z</time>
      </trkpt>
      <trkpt lat="40.41710333333333" lon="-3.7120433333333334">
        <ele>642.4466005039644</ele>
        <time>2024-09-03T16:28:52.743Z</time>
      </trkpt>
      <trkpt lat="40.41717333333334" lon="-3.712693333333333">
        <ele>642.6464767313585</ele>
        <time>2024-09-03T16:29:40.733Z</time>
      </trkpt>
      <trkpt lat="40.41711833333333" lon="-3.712033333333333">
        <ele>641.0466003353512</ele>
        <time>2024-09-03T16:31:43.743Z</time>
      </trkpt>
      <trkpt lat="40.41681166666667" lon="-3.711853333333334">
        <ele>649.1465431592553</ele>
        <time>2024-09-03T16:32:45.760Z</time>
      </trkpt>
      <trkpt lat="40.41648" lon="-3.7119633333333333">
        <ele>653.8464066888574</ele>
        <time>2024-09-03T16:33:24.746Z</time>
      </trkpt>
      <trkpt lat="40.416383333333336" lon="-3.7113">
        <ele>655.346509921833</ele>
        <time>2024-09-03T16:34:13.762Z</time>
      </trkpt>
      <trkpt lat="40.41649833333334" lon="-3.711128333333334">
        <ele>655.2465884741831</ele>
        <time>2024-09-03T16:34:29.729Z</time>
      </trkpt>
      <trkpt lat="40.41643833333333" lon="-3.7110683333333334">
        <ele>661.546581354113</ele>
        <time>2024-09-03T16:34:43.752Z</time>
      </trkpt>
      <trkpt lat="40.4165" lon="-3.711041666666667">
        <ele>664.3466011961659</ele>
        <time>2024-09-03T16:34:54.767Z</time>
      </trkpt>
      <trkpt lat="40.41659833333333" lon="-3.7105216666666667">
        <ele>650.4467498587102</ele>
        <time>2024-09-03T16:35:33.765Z</time>
      </trkpt>
      <trkpt lat="40.416291666666666" lon="-3.7098733333333334">
        <ele>649.5467833110654</ele>
        <time>2024-09-03T16:36:20.767Z</time>
      </trkpt>
      <trkpt lat="40.41616666666666" lon="-3.7097949999999997">
        <ele>648.7467646816078</ele>
        <time>2024-09-03T16:36:28.770Z</time>
      </trkpt>
      <trkpt lat="40.416155" lon="-3.7096083333333336">
        <ele>654.94679319481</ele>
        <time>2024-09-03T16:36:42.753Z</time>
      </trkpt>
      <trkpt lat="40.41633" lon="-3.7088200000000002">
        <ele>648.7470134015606</ele>
        <time>2024-09-03T16:37:47.733Z</time>
      </trkpt>
      <trkpt lat="40.416048333333336" lon="-3.7086733333333335">
        <ele>651.2469509326769</ele>
        <time>2024-09-03T16:38:08.756Z</time>
      </trkpt>
      <trkpt lat="40.415996666666665" lon="-3.7087250000000003">
        <ele>655.3469228276201</ele>
        <time>2024-09-03T16:38:15.746Z</time>
      </trkpt>
      <trkpt lat="40.41598166666667" lon="-3.708546666666667">
        <ele>653.2469504349395</ele>
        <time>2024-09-03T16:38:49.773Z</time>
      </trkpt>
      <trkpt lat="40.41616666666666" lon="-3.707978333333333">
        <ele>650.5471277756742</ele>
        <time>2024-09-03T16:39:32.730Z</time>
      </trkpt>
      <trkpt lat="40.41614166666667" lon="-3.707633333333334">
        <ele>667.3471900149232</ele>
        <time>2024-09-03T16:39:54.743Z</time>
      </trkpt>
      <trkpt lat="40.41631666666667" lon="-3.7070950000000003">
        <ele>666.9473553243487</ele>
        <time>2024-09-03T16:40:43.723Z</time>
      </trkpt>
      <trkpt lat="40.41631833333334" lon="-3.7067866666666665">
        <ele>657.6474173282447</ele>
        <time>2024-09-03T16:41:21.767Z</time>
      </trkpt>
      <trkpt lat="40.41645833333334" lon="-3.7064916666666665">
        <ele>651.1475142109118</ele>
        <time>2024-09-03T16:41:47.769Z</time>
      </trkpt>
      <trkpt lat="40.41638833333333" lon="-3.70619">
        <ele>639.0475556743221</ele>
        <time>2024-09-03T16:42:21.762Z</time>
      </trkpt>
      <trkpt lat="40.416515" lon="-3.7060999999999997">
        <ele>638.3476119023464</ele>
        <time>2024-09-03T16:42:39.769Z</time>
      </trkpt>
      <trkpt lat="40.41637" lon="-3.7057500000000005">
        <ele>638.9476303716372</ele>
        <time>2024-09-03T16:42:58.753Z</time>
      </trkpt>
      <trkpt lat="40.41661" lon="-3.7053966666666667">
        <ele>647.647779229271</ele>
        <time>2024-09-03T16:43:35.770Z</time>
      </trkpt>
      <trkpt lat="40.416505" lon="-3.705166666666667">
        <ele>655.0477904831411</ele>
        <time>2024-09-03T16:44:01.769Z</time>
      </trkpt>
      <trkpt lat="40.41668833333333" lon="-3.7038549999999995">
        <ele>644.1480850968416</ele>
        <time>2024-09-03T16:45:41.765Z</time>
      </trkpt>
      <trkpt lat="40.41665833333333" lon="-3.7036166666666666">
        <ele>646.7481223836712</ele>
        <time>2024-09-03T16:45:55.767Z</time>
      </trkpt>
      <trkpt lat="40.416758333333334" lon="-3.7032833333333333">
        <ele>647.7482181577514</ele>
        <time>2024-09-03T16:46:17.772Z</time>
      </trkpt>
      <trkpt lat="40.416788333333336" lon="-3.7025650000000003">
        <ele>651.4483522637084</ele>
        <time>2024-09-03T16:47:07.770Z</time>
      </trkpt>
      <trkpt lat="40.41670666666666" lon="-3.7023116666666662">
        <ele>649.4483691214705</ele>
        <time>2024-09-03T16:47:26.744Z</time>
      </trkpt>
      <trkpt lat="40.416803333333334" lon="-3.701836666666667">
        <ele>653.1484865566922</ele>
        <time>2024-09-03T16:47:56.740Z</time>
      </trkpt>
      <trkpt lat="40.41681666666667" lon="-3.701903333333333">
        <ele>652.0484822916968</ele>
        <time>2024-09-03T16:48:06.730Z</time>
      </trkpt>
      <trkpt lat="40.416705" lon="-3.7018416666666667">
        <ele>647.8484541316461</ele>
        <time>2024-09-03T16:49:35.733Z</time>
      </trkpt>
      <trkpt lat="40.41677333333334" lon="-3.7016849999999994">
        <ele>649.9485007075849</ele>
        <time>2024-09-03T16:49:53.772Z</time>
      </trkpt>
      <trkpt lat="40.416630000000005" lon="-3.7006716666666666">
        <ele>661.3486266768006</ele>
        <time>2024-09-03T16:51:13.753Z</time>
      </trkpt>
      <trkpt lat="40.416713333333334" lon="-3.700528333333333">
        <ele>685.7486726024136</ele>
        <time>2024-09-03T16:51:26.759Z</time>
      </trkpt>
      <trkpt lat="40.416505" lon="-3.7004766666666664">
        <ele>678.8486154324103</ele>
        <time>2024-09-03T16:51:55.750Z</time>
      </trkpt>
      <trkpt lat="40.41666166666666" lon="-3.7006766666666664">
        <ele>671.7486336207633</ele>
        <time>2024-09-03T16:52:49.730Z</time>
      </trkpt>
      <trkpt lat="40.41667333333333" lon="-3.700881666666667">
        <ele>659.8486078595039</ele>
        <time>2024-09-03T16:53:35.730Z</time>
      </trkpt>
      <trkpt lat="40.41650166666667" lon="-3.7005899999999996">
        <ele>658.7485945010691</ele>
        <time>2024-09-03T16:54:13.766Z</time>
      </trkpt>
      <trkpt lat="40.416185000000006" lon="-3.70076">
        <ele>650.1484587222134</ele>
        <time>2024-09-03T16:54:42.766Z</time>
      </trkpt>
      <trkpt lat="40.41609833333334" lon="-3.7010266666666665">
        <ele>639.5483869220068</ele>
        <time>2024-09-03T16:55:00.769Z</time>
      </trkpt>
      <trkpt lat="40.41566666666667" lon="-3.7015666666666664">
        <ele>641.648148713241</ele>
        <time>2024-09-03T16:55:53.730Z</time>
      </trkpt>
      <trkpt lat="40.41569833333333" lon="-3.7016566666666666">
        <ele>649.748133786995</ele>
        <time>2024-09-03T16:56:02.759Z</time>
      </trkpt>
      <trkpt lat="40.41583" lon="-3.7015383333333336">
        <ele>656.0482008006614</ele>
        <time>2024-09-03T16:56:17.782Z</time>
      </trkpt>
      <trkpt lat="40.41588333333333" lon="-3.701318333333333">
        <ele>657.8482604468481</ele>
        <time>2024-09-03T16:56:30.766Z</time>
      </trkpt>
      <trkpt lat="40.41568333333333" lon="-3.701221666666667">
        <ele>659.5482054880858</ele>
        <time>2024-09-03T16:56:44.753Z</time>
      </trkpt>
      <trkpt lat="40.415306666666666" lon="-3.701305">
        <ele>654.2480666359172</ele>
        <time>2024-09-03T16:57:30.773Z</time>
      </trkpt>
      <trkpt lat="40.415195000000004" lon="-3.701178333333333">
        <ele>648.4480471941953</ele>
        <time>2024-09-03T16:57:41.777Z</time>
      </trkpt>
      <trkpt lat="40.41466833333333" lon="-3.701525">
        <ele>634.1478115204435</ele>
        <time>2024-09-03T16:58:32.737Z</time>
      </trkpt>
      <trkpt lat="40.41464" lon="-3.701213333333333">
        <ele>647.8478463146631</ele>
        <time>2024-09-03T16:58:49.733Z</time>
      </trkpt>
      <trkpt lat="40.414405" lon="-3.7012349999999996">
        <ele>660.3477611013261</ele>
        <time>2024-09-03T16:59:18.734Z</time>
      </trkpt>
      <trkpt lat="40.41456166666667" lon="-3.7013966666666667">
        <ele>672.2477625493922</ele>
        <time>2024-09-03T16:59:23.750Z</time>
      </trkpt>
      <trkpt lat="40.41441833333333" lon="-3.701318333333333">
        <ele>694.4477883614533</ele>
        <time>2024-09-03T16:59:24.737Z</time>
      </trkpt>
      <trkpt lat="40.414415" lon="-3.7014266666666664">
        <ele>651.4477344955113</ele>
        <time>2024-09-03T16:59:27.736Z</time>
      </trkpt>
      <trkpt lat="40.414276666666666" lon="-3.7012616666666664">
        <ele>676.5477146736316</ele>
        <time>2024-09-03T16:59:33.786Z</time>
      </trkpt>
      <trkpt lat="40.414235" lon="-3.701405">
        <ele>673.9476789374946</ele>
        <time>2024-09-03T16:59:50.753Z</time>
      </trkpt>
      <trkpt lat="40.41379" lon="-3.7015350000000002">
        <ele>666.0474989308436</ele>
        <time>2024-09-03T17:00:32.749Z</time>
      </trkpt>
      <trkpt lat="40.413575" lon="-3.7015583333333333">
        <ele>666.0474253929085</ele>
        <time>2024-09-03T17:00:52.765Z</time>
      </trkpt>
      <trkpt lat="40.41340833333334" lon="-3.7014550000000006">
        <ele>664.8473789828502</ele>
        <time>2024-09-03T17:01:12.754Z</time>
      </trkpt>
      <trkpt lat="40.41298666666667" lon="-3.700763333333333">
        <ele>647.6473452939072</ele>
        <time>2024-09-03T17:02:24.763Z</time>
      </trkpt>
      <trkpt lat="40.41283833333333" lon="-3.7002683333333333">
        <ele>651.8473746178887</ele>
        <time>2024-09-03T17:02:59.743Z</time>
      </trkpt>
      <trkpt lat="40.412906666666665" lon="-3.700118333333333">
        <ele>657.7474223551462</ele>
        <time>2024-09-03T17:03:11.756Z</time>
      </trkpt>
      <trkpt lat="40.41275333333333" lon="-3.6999983333333337">
        <ele>655.5473900876656</ele>
        <time>2024-09-03T17:03:33.776Z</time>
      </trkpt>
      <trkpt lat="40.41254666666667" lon="-3.6996233333333333">
        <ele>644.1473769036112</ele>
        <time>2024-09-03T17:04:04.773Z</time>
      </trkpt>
      <trkpt lat="40.4125" lon="-3.699023333333333">
        <ele>643.9474519344399</ele>
        <time>2024-09-03T17:04:44.786Z</time>
      </trkpt>
      <trkpt lat="40.41238" lon="-3.6989133333333335">
        <ele>643.3474307615505</ele>
        <time>2024-09-03T17:04:55.727Z</time>
      </trkpt>
      <trkpt lat="40.41225833333333" lon="-3.6989466666666666">
        <ele>647.8473843330128</ele>
        <time>2024-09-03T17:05:09.733Z</time>
      </trkpt>
      <trkpt lat="40.412214999999996" lon="-3.6987883333333333">
        <ele>650.2473933664654</ele>
        <time>2024-09-03T17:05:20.782Z</time>
      </trkpt>
      <trkpt lat="40.412283333333335" lon="-3.6986016666666663">
        <ele>651.0474411050285</ele>
        <time>2024-09-03T17:05:43.759Z</time>
      </trkpt>
      <trkpt lat="40.41229" lon="-3.6979516666666665">
        <ele>652.9475431734039</ele>
        <time>2024-09-03T17:06:24.759Z</time>
      </trkpt>
      <trkpt lat="40.41224666666667" lon="-3.697763333333333">
        <ele>655.3475544471191</ele>
        <time>2024-09-03T17:06:40.736Z</time>
      </trkpt>
      <trkpt lat="40.41238166666667" lon="-3.697491666666666">
        <ele>660.547643507067</ele>
        <time>2024-09-03T17:07:17.750Z</time>
      </trkpt>
      <trkpt lat="40.41236166666667" lon="-3.6971983333333336">
        <ele>652.4476790022492</ele>
        <time>2024-09-03T17:07:34.753Z</time>
      </trkpt>
      <trkpt lat="40.41255666666667" lon="-3.697046666666666">
        <ele>650.7477676684041</ele>
        <time>2024-09-03T17:07:52.746Z</time>
      </trkpt>
      <trkpt lat="40.41289166666666" lon="-3.6971083333333334">
        <ele>648.5478735598572</ele>
        <time>2024-09-03T17:08:40.757Z</time>
      </trkpt>
      <trkpt lat="40.412775" lon="-3.6967899999999996">
        <ele>632.4478863333095</ele>
        <time>2024-09-03T17:09:07.763Z</time>
      </trkpt>
      <trkpt lat="40.41255" lon="-3.6956783333333334">
        <ele>650.8479655027712</ele>
        <time>2024-09-03T17:10:45.762Z</time>
      </trkpt>
      <trkpt lat="40.41260666666667" lon="-3.6958283333333335">
        <ele>649.6479651803899</ele>
        <time>2024-09-03T17:11:10.762Z</time>
      </trkpt>
      <trkpt lat="40.41257666666667" lon="-3.6957283333333333">
        <ele>652.6479697449282</ele>
        <time>2024-09-03T17:11:40.743Z</time>
      </trkpt>
      <trkpt lat="40.41251666666667" lon="-3.69578">
        <ele>656.947969040226</ele>
        <time>2024-09-03T17:12:04.736Z</time>
      </trkpt>
      <trkpt lat="40.41256" lon="-3.696346666666667">
        <ele>641.2478767183139</ele>
        <time>2024-09-03T17:12:49.763Z</time>
      </trkpt>
      <trkpt lat="40.41236833333333" lon="-3.6968266666666665">
        <ele>637.1477429712447</ele>
        <time>2024-09-03T17:13:32.775Z</time>
      </trkpt>
      <trkpt lat="40.41226166666667" lon="-3.6979683333333337">
        <ele>637.1475343068608</ele>
        <time>2024-09-03T17:14:52.782Z</time>
      </trkpt>
      <trkpt lat="40.41232333333333" lon="-3.6985316666666668">
        <ele>641.5474675524167</ele>
        <time>2024-09-03T17:15:34.782Z</time>
      </trkpt>
      <trkpt lat="40.412225" lon="-3.6986799999999995">
        <ele>649.1474123014315</ele>
        <time>2024-09-03T17:15:52.763Z</time>
      </trkpt>
      <trkpt lat="40.412259999999996" lon="-3.6989650000000003">
        <ele>653.0473806980218</ele>
        <time>2024-09-03T17:16:16.772Z</time>
      </trkpt>
      <trkpt lat="40.41240833333333" lon="-3.6992400000000005">
        <ele>652.747387224235</ele>
        <time>2024-09-03T17:16:36.737Z</time>
      </trkpt>
      <trkpt lat="40.41234833333333" lon="-3.69951">
        <ele>650.9473255878441</ele>
        <time>2024-09-03T17:17:22.756Z</time>
      </trkpt>
      <trkpt lat="40.41214" lon="-3.6996499999999997">
        <ele>651.1472324915229</ele>
        <time>2024-09-03T17:17:52.744Z</time>
      </trkpt>
      <trkpt lat="40.41198" lon="-3.6996199999999995">
        <ele>652.7471803935232</ele>
        <time>2024-09-03T17:18:11.779Z</time>
      </trkpt>
      <trkpt lat="40.41156333333333" lon="-3.6992199999999995">
        <ele>663.3470959303854</ele>
        <time>2024-09-03T17:18:55.769Z</time>
      </trkpt>
      <trkpt lat="40.41153833333333" lon="-3.699075">
        <ele>656.0471092711941</ele>
        <time>2024-09-03T17:19:03.769Z</time>
      </trkpt>
      <trkpt lat="40.41134833333333" lon="-3.698956666666667">
        <ele>651.8470601209227</ele>
        <time>2024-09-03T17:19:28.740Z</time>
      </trkpt>
      <trkpt lat="40.411065" lon="-3.6984700000000004">
        <ele>656.4470335731003</ele>
        <time>2024-09-03T17:20:28.773Z</time>
      </trkpt>
      <trkpt lat="40.41059666666667" lon="-3.6981066666666664">
        <ele>651.0469298336137</ele>
        <time>2024-09-03T17:21:24.776Z</time>
      </trkpt>
      <trkpt lat="40.41052333333334" lon="-3.698363333333333">
        <ele>647.4468623010683</ele>
        <time>2024-09-03T17:22:11.769Z</time>
      </trkpt>
      <trkpt lat="40.410091666666666" lon="-3.69892">
        <ele>637.3466248463579</ele>
        <time>2024-09-03T17:23:29.776Z</time>
      </trkpt>
      <trkpt lat="40.40999" lon="-3.699171666666667">
        <ele>634.1465506760482</ele>
        <time>2024-09-03T17:23:52.734Z</time>
      </trkpt>
      <trkpt lat="40.40974333333334" lon="-3.6992700000000003">
        <ele>638.1464482901296</ele>
        <time>2024-09-03T17:24:23.740Z</time>
      </trkpt>
      <trkpt lat="40.40951833333334" lon="-3.699616666666666">
        <ele>625.7463150799161</ele>
        <time>2024-09-03T17:24:56.740Z</time>
      </trkpt>
      <trkpt lat="40.409101666666665" lon="-3.699965">
        <ele>618.7461128598387</ele>
        <time>2024-09-03T17:25:35.776Z</time>
      </trkpt>
      <trkpt lat="40.40898666666667" lon="-3.700141666666667">
        <ele>623.3460408096298</ele>
        <time>2024-09-03T17:25:52.734Z</time>
      </trkpt>
      <trkpt lat="40.40912333333333" lon="-3.700946666666667">
        <ele>623.0459588336279</ele>
        <time>2024-09-03T17:26:59.753Z</time>
      </trkpt>
      <trkpt lat="40.40904833333333" lon="-3.7013800000000003">
        <ele>624.7458592599963</ele>
        <time>2024-09-03T17:27:40.754Z</time>
      </trkpt>
      <trkpt lat="40.40893666666667" lon="-3.70139">
        <ele>627.5458221984327</ele>
        <time>2024-09-03T17:28:02.757Z</time>
      </trkpt>
      <trkpt lat="40.40885166666667" lon="-3.701881666666667">
        <ele>625.1457108824306</ele>
        <time>2024-09-03T17:28:38.753Z</time>
      </trkpt>
      <trkpt lat="40.40871666666667" lon="-3.702138333333334">
        <ele>625.9456176284685</ele>
        <time>2024-09-03T17:28:59.749Z</time>
      </trkpt>
      <trkpt lat="40.40854" lon="-3.702256666666667">
        <ele>628.7455368524759</ele>
        <time>2024-09-03T17:29:16.740Z</time>
      </trkpt>
      <trkpt lat="40.408393333333336" lon="-3.7026999999999997">
        <ele>623.6454083606753</ele>
        <time>2024-09-03T17:29:48.740Z</time>
      </trkpt>
      <trkpt lat="40.408211666666666" lon="-3.7029716666666666">
        <ele>625.3452987534375</ele>
        <time>2024-09-03T17:30:17.754Z</time>
      </trkpt>
      <trkpt lat="40.408249999999995" lon="-3.703393333333333">
        <ele>623.8452378116376</ele>
        <time>2024-09-03T17:30:57.743Z</time>
      </trkpt>
      <trkpt lat="40.408055" lon="-3.703548333333333">
        <ele>622.8451407876912</ele>
        <time>2024-09-03T17:31:32.750Z</time>
      </trkpt>
      <trkpt lat="40.407826666666665" lon="-3.704325">
        <ele>633.5449231195876</ele>
        <time>2024-09-03T17:32:42.733Z</time>
      </trkpt>
      <trkpt lat="40.407651666666666" lon="-3.7051350000000003">
        <ele>632.5447169883944</ele>
        <time>2024-09-03T17:34:08.773Z</time>
      </trkpt>
      <trkpt lat="40.408005" lon="-3.7053050000000005">
        <ele>633.0448020311052</ele>
        <time>2024-09-03T17:35:06.769Z</time>
      </trkpt>
      <trkpt lat="40.407805" lon="-3.705776666666667">
        <ele>630.044649489725</ele>
        <time>2024-09-03T17:35:58.727Z</time>
      </trkpt>
      <trkpt lat="40.4076" lon="-3.7058983333333337">
        <ele>631.7445539484074</ele>
        <time>2024-09-03T17:36:29.757Z</time>
      </trkpt>
      <trkpt lat="40.40767" lon="-3.70604">
        <ele>634.0445518892753</ele>
        <time>2024-09-03T17:36:44.762Z</time>
      </trkpt>
      <trkpt lat="40.40804333333333" lon="-3.706171666666666">
        <ele>630.4446514335617</ele>
        <time>2024-09-03T17:37:20.766Z</time>
      </trkpt>
      <trkpt lat="40.408210000000004" lon="-3.70634">
        <ele>631.9446834987618</ele>
        <time>2024-09-03T17:37:49.727Z</time>
      </trkpt>
      <trkpt lat="40.40822333333333" lon="-3.70643">
        <ele>630.9446738854047</ele>
        <time>2024-09-03T17:37:58.765Z</time>
      </trkpt>
      <trkpt lat="40.408136666666664" lon="-3.706456666666667">
        <ele>628.8446400033306</ele>
        <time>2024-09-03T17:38:07.776Z</time>
      </trkpt>
      <trkpt lat="40.40795166666667" lon="-3.7068466666666664">
        <ele>628.2444981483575</ele>
        <time>2024-09-03T17:39:17.733Z</time>
      </trkpt>
      <trkpt lat="40.40801166666667" lon="-3.7071850000000004">
        <ele>627.5444550204692</ele>
        <time>2024-09-03T17:39:49.740Z</time>
      </trkpt>
      <trkpt lat="40.407891666666664" lon="-3.7073649999999994">
        <ele>638.6443778305153</ele>
        <time>2024-09-03T17:40:05.754Z</time>
      </trkpt>
      <trkpt lat="40.408120000000004" lon="-3.707378333333333">
        <ele>644.3444500280057</ele>
        <time>2024-09-03T17:40:35.730Z</time>
      </trkpt>
      <trkpt lat="40.40819666666666" lon="-3.707473333333333">
        <ele>648.944461378675</ele>
        <time>2024-09-03T17:40:52.763Z</time>
      </trkpt>
      <trkpt lat="40.40848666666667" lon="-3.7073200000000006">
        <ele>653.4445915078218</ele>
        <time>2024-09-03T17:41:41.759Z</time>
      </trkpt>
      <trkpt lat="40.41006166666667" lon="-3.7074233333333333">
        <ele>668.6451237808501</ele>
        <time>2024-09-03T17:44:47.754Z</time>
      </trkpt>
      <trkpt lat="40.41050833333334" lon="-3.707405">
        <ele>661.3452838402179</ele>
        <time>2024-09-03T17:45:31.765Z</time>
      </trkpt>
      <trkpt lat="40.410669999999996" lon="-3.7070983333333336">
        <ele>660.8454015117226</ele>
        <time>2024-09-03T17:45:52.792Z</time>
      </trkpt>
      <trkpt lat="40.41068333333333" lon="-3.7073166666666673">
        <ele>662.6453647547642</ele>
        <time>2024-09-03T17:46:14.750Z</time>
      </trkpt>
      <trkpt lat="40.41084166666667" lon="-3.707376666666667">
        <ele>666.8454043320565</ele>
        <time>2024-09-03T17:46:34.762Z</time>
      </trkpt>
      <trkpt lat="40.41147333333333" lon="-3.707273333333333">
        <ele>663.5456474470345</ele>
        <time>2024-09-03T17:47:51.727Z</time>
      </trkpt>
      <trkpt lat="40.41141666666667" lon="-3.707378333333333">
        <ele>664.445610999095</ele>
        <time>2024-09-03T17:48:05.723Z</time>
      </trkpt>
      <trkpt lat="40.411498333333334" lon="-3.707731666666667">
        <ele>666.2455707416594</ele>
        <time>2024-09-03T17:48:31.746Z</time>
      </trkpt>
      <trkpt lat="40.41126833333333" lon="-3.7080166666666665">
        <ele>657.6454352089161</ele>
        <time>2024-09-03T17:48:55.750Z</time>
      </trkpt>
      <trkpt lat="40.411235000000005" lon="-3.708315">
        <ele>655.8453631123248</ele>
        <time>2024-09-03T17:49:30.733Z</time>
      </trkpt>
      <trkpt lat="40.41107" lon="-3.708413333333333">
        <ele>654.7452846853391</ele>
        <time>2024-09-03T17:49:50.759Z</time>
      </trkpt>
      <trkpt lat="40.41104333333333" lon="-3.7085266666666663">
        <ele>648.2452552869416</ele>
        <time>2024-09-03T17:50:02.766Z</time>
      </trkpt>
      <trkpt lat="40.411345" lon="-3.7088466666666666">
        <ele>652.3452884570818</ele>
        <time>2024-09-03T17:50:42.766Z</time>
      </trkpt>
      <trkpt lat="40.41147333333333" lon="-3.709225">
        <ele>652.745261509225</ele>
        <time>2024-09-03T17:51:08.779Z</time>
      </trkpt>
      <trkpt lat="40.41149" lon="-3.7095850000000006">
        <ele>658.0451925580609</ele>
        <time>2024-09-03T17:51:36.743Z</time>
      </trkpt>
      <trkpt lat="40.41158333333333" lon="-3.7097266666666666">
        <ele>642.1451950757104</ele>
        <time>2024-09-03T17:52:08.766Z</time>
      </trkpt>
      <trkpt lat="40.41126666666666" lon="-3.7098316666666666">
        <ele>657.0450671210606</ele>
        <time>2024-09-03T17:52:57.730Z</time>
      </trkpt>
      <trkpt lat="40.411228333333334" lon="-3.7097716666666667">
        <ele>653.945061461931</ele>
        <time>2024-09-03T17:53:11.782Z</time>
      </trkpt>
      <trkpt lat="40.41129333333333" lon="-3.7097583333333337">
        <ele>660.745086095758</ele>
        <time>2024-09-03T17:53:36.763Z</time>
      </trkpt>
      <trkpt lat="40.41131333333333" lon="-3.709878333333333">
        <ele>660.7450708785329</ele>
        <time>2024-09-03T17:53:59.730Z</time>
      </trkpt>
      <trkpt lat="40.41124333333333" lon="-3.709931666666666">
        <ele>656.9450386522993</ele>
        <time>2024-09-03T17:54:21.737Z</time>
      </trkpt>
      <trkpt lat="40.41119166666667" lon="-3.7099233333333332">
        <ele>655.9450179184366</ele>
        <time>2024-09-03T17:54:30.746Z</time>
      </trkpt>
      <trkpt lat="40.41122333333333" lon="-3.7095633333333335">
        <ele>654.945101626079</ele>
        <time>2024-09-03T17:55:04.736Z</time>
      </trkpt>
      <trkpt lat="40.411206666666665" lon="-3.70967">
        <ele>656.8450780188515</ele>
        <time>2024-09-03T17:55:17.736Z</time>
      </trkpt>
      <trkpt lat="40.41097666666667" lon="-3.709708333333333">
        <ele>651.3449897010788</ele>
        <time>2024-09-03T17:55:35.780Z</time>
      </trkpt>
      <trkpt lat="40.41098833333333" lon="-3.710278333333333">
        <ele>646.3448751341253</ele>
        <time>2024-09-03T17:56:26.776Z</time>
      </trkpt>
      <trkpt lat="40.411235000000005" lon="-3.7102516666666663">
        <ele>650.6449597941438</ele>
        <time>2024-09-03T17:56:55.779Z</time>
      </trkpt>
      <trkpt lat="40.411343333333335" lon="-3.7098166666666668">
        <ele>654.0450887502732</ele>
        <time>2024-09-03T17:57:44.782Z</time>
      </trkpt>
      <trkpt lat="40.41157333333333" lon="-3.710205">
        <ele>665.8450934613547</ele>
        <time>2024-09-03T17:58:20.775Z</time>
      </trkpt>
      <trkpt lat="40.411431666666665" lon="-3.7105250000000005">
        <ele>654.3449948579237</ele>
        <time>2024-09-03T17:59:03.776Z</time>
      </trkpt>
      <trkpt lat="40.41148833333333" lon="-3.710833333333333">
        <ele>651.7449303794128</ele>
        <time>2024-09-03T17:59:35.754Z</time>
      </trkpt>
      <trkpt lat="40.411635000000004" lon="-3.7107133333333335">
        <ele>653.3450060211384</ele>
        <time>2024-09-03T18:00:15.769Z</time>
      </trkpt>
      <trkpt lat="40.41169" lon="-3.7105949999999996">
        <ele>655.3450484130027</ele>
        <time>2024-09-03T18:00:34.760Z</time>
      </trkpt>
      <trkpt lat="40.411993333333335" lon="-3.7108399999999997">
        <ele>655.1451056824927</ele>
        <time>2024-09-03T18:01:08.733Z</time>
      </trkpt>
      <trkpt lat="40.41303295421697" lon="-3.710554030226221">
        <ele>652.2589764581227</ele>
        <time>2024-09-03T18:02:49.075Z</time>
      </trkpt>
      <trkpt lat="40.413499553351315" lon="-3.7089431900635472">
        <ele>654.7763877462168</ele>
        <time>2024-09-03T18:04:52.289Z</time>
      </trkpt>
      <trkpt lat="40.41411473558929" lon="-3.7076034078799127">
        <ele>660.4252646729512</ele>
        <time>2024-09-03T18:06:44.217Z</time>
      </trkpt>
      <trkpt lat="40.414643984110285" lon="-3.706816252760916">
        <ele>665.226410233789</ele>
        <time>2024-09-03T18:07:59.872Z</time>
      </trkpt>
      <trkpt lat="40.415578538333335" lon="-3.7067918428624886">
        <ele>662.2029133474798</ele>
        <time>2024-09-03T18:09:27.629Z</time>
      </trkpt>
      <trkpt lat="40.415913829083166" lon="-3.7058537306285757">
        <ele>666.5971190907288</ele>
        <time>2024-09-03T18:10:41.704Z</time>
      </trkpt>
      <trkpt lat="40.41677377962645" lon="-3.7044175827378467">
        <ele>663.2251747335547</ele>
        <time>2024-09-03T18:13:41.332Z</time>
      </trkpt>
    </trkseg>
  </trk>
</gpx>
