<?xml version="1.0" encoding="UTF-8"?>
<gpx version="1.1" creator="Export" xmlns="http://www.topografix.com/GPX/1/1" xmlns:xsi="http://www.w3.org/2001/XMLSchema-instance" xsi:schemaLocation="http://www.topografix.com/GPX/1/1 http://www.topografix.com/GPX/1/1/gpx.xsd http://www.garmin.com/xmlschemas/GpxExtensions/v3 http://www.garmin.com/xmlschemas/GpxExtensionsv3.xsd http://www.garmin.com/xmlschemas/TrackPointExtension/v1 http://www.garmin.com/xmlschemas/TrackPointExtensionv1.xsd http://www.garmin.com/xmlschemas/PowerExtension/v1 http://www.garmin.com/xmlschemas/PowerExtensionv1.xsd http://www.topografix.com/GPX/gpx_style/0/2 http://www.topografix.com/GPX/gpx_style/0/2/gpx_style.xsd" xmlns:gpxtpx="http://www.garmin.com/xmlschemas/TrackPointExtension/v1" xmlns:gpxx="http://www.garmin.com/xmlschemas/GpxExtensions/v3" xmlns:gpxpx="http://www.garmin.com/xmlschemas/PowerExtension/v1" xmlns:gpx_style="http://www.topografix.com/GPX/gpx_style/0/2">
  <metadata>
    <name>activity_162_2024-08-22</name>
    <author>
      <name>gpx.studio</name>
      <link href="https://gpx.studio"/>
    </author>
  </metadata>
  <wpt lat="55.702123" lon="12.547355">
    <ele>12.241797044630317</ele>
    <name>Hall 21</name>
    <sym>Building</sym>
  </wpt>
  <wpt lat="55.683853" lon="12.569672">
    <ele>9.22931896890597</ele>
    <name>Street Market</name>
    <sym>Shopping Center</sym>
  </wpt>
  <wpt lat="55.675473" lon="12.56509">
    <ele>5.624806994421513</ele>
    <name>Dalle Valle</name>
    <sym>Restaurant</sym>
  </wpt>
  <trk>
    <name>activity_162_2024-08-22</name>
    <trkseg>
      <trkpt lat="55.67553833333333" lon="12.563580000000002">
        <ele>2.436902327955309</ele>
        <time>2024-08-22T09:19:29.563Z</time>
      </trkpt>
      <trkpt lat="55.67479" lon="12.564391666666666">
        <ele>8.53629293723408</ele>
        <time>2024-08-22T09:20:53.595Z</time>
      </trkpt>
      <trkpt lat="55.67479" lon="12.564248333333333">
        <ele>13.7362880455346</ele>
        <time>2024-08-22T09:21:24.599Z</time>
      </trkpt>
      <trkpt lat="55.67464833333334" lon="12.563966666666666">
        <ele>12.636153375964895</ele>
        <time>2024-08-22T09:21:36.595Z</time>
      </trkpt>
      <trkpt lat="55.674483333333335" lon="12.563396666666666">
        <ele>12.035978743865456</ele>
        <time>2024-08-22T09:22:06.596Z</time>
      </trkpt>
      <trkpt lat="55.6745" lon="12.563218333333335">
        <ele>6.8359788463301285</ele>
        <time>2024-08-22T09:22:21.598Z</time>
      </trkpt>
      <trkpt lat="55.67422666666666" lon="12.562251666666668">
        <ele>3.5356965358140684</ele>
        <time>2024-08-22T09:23:15.588Z</time>
      </trkpt>
      <trkpt lat="55.673919999999995" lon="12.561806666666666">
        <ele>14.435402647151392</ele>
        <time>2024-08-22T09:23:52.598Z</time>
      </trkpt>
      <trkpt lat="55.673739999999995" lon="12.561115">
        <ele>0.735199935309403</ele>
        <time>2024-08-22T09:24:33.608Z</time>
      </trkpt>
      <trkpt lat="55.67358666666667" lon="12.560871666666666">
        <ele>8.035055891426452</ele>
        <time>2024-08-22T09:24:53.592Z</time>
      </trkpt>
      <trkpt lat="55.67350666666666" lon="12.560906666666664">
        <ele>11.034990952675138</ele>
        <time>2024-08-22T09:25:03.588Z</time>
      </trkpt>
      <trkpt lat="55.67344666666666" lon="12.560756666666668">
        <ele>11.23493087305242</ele>
        <time>2024-08-22T09:25:12.568Z</time>
      </trkpt>
      <trkpt lat="55.673323333333336" lon="12.560011666666666">
        <ele>9.834775549963283</ele>
        <time>2024-08-22T09:25:48.582Z</time>
      </trkpt>
      <trkpt lat="55.672565" lon="12.556658333333333">
        <ele>23.03389909939824</ele>
        <time>2024-08-22T09:28:36.595Z</time>
      </trkpt>
      <trkpt lat="55.67239166666666" lon="12.555631666666667">
        <ele>8.533672273867346</ele>
        <time>2024-08-22T09:29:21.585Z</time>
      </trkpt>
      <trkpt lat="55.67240166666667" lon="12.55545">
        <ele>7.433662851446442</ele>
        <time>2024-08-22T09:29:32.552Z</time>
      </trkpt>
      <trkpt lat="55.67227333333334" lon="12.555518333333335">
        <ele>5.53356658975644</ele>
        <time>2024-08-22T09:29:48.556Z</time>
      </trkpt>
      <trkpt lat="55.67212333333334" lon="12.555423333333332">
        <ele>10.5334220916683</ele>
        <time>2024-08-22T09:30:14.559Z</time>
      </trkpt>
      <trkpt lat="55.67180833333334" lon="12.554836666666665">
        <ele>8.833110331277176</ele>
        <time>2024-08-22T09:31:04.614Z</time>
      </trkpt>
      <trkpt lat="55.67175" lon="12.554548333333333">
        <ele>2.6330289992120015</ele>
        <time>2024-08-22T09:31:24.601Z</time>
      </trkpt>
      <trkpt lat="55.67113500000001" lon="12.554975000000002">
        <ele>2.3325374600523006</ele>
        <time>2024-08-22T09:32:25.618Z</time>
      </trkpt>
      <trkpt lat="55.67067" lon="12.555448333333334">
        <ele>-3.7678436681921212</ele>
        <time>2024-08-22T09:33:17.591Z</time>
      </trkpt>
      <trkpt lat="55.670730000000006" lon="12.555316666666666">
        <ele>-1.1678098986032026</ele>
        <time>2024-08-22T09:33:27.599Z</time>
      </trkpt>
      <trkpt lat="55.67079666666667" lon="12.555278333333336">
        <ele>2.0322439403827843</ele>
        <time>2024-08-22T09:33:36.592Z</time>
      </trkpt>
      <trkpt lat="55.670730000000006" lon="12.555465">
        <ele>4.7322057352862075</ele>
        <time>2024-08-22T09:33:57.559Z</time>
      </trkpt>
      <trkpt lat="55.67068166666666" lon="12.555393333333333">
        <ele>4.732164426356043</ele>
        <time>2024-08-22T09:34:08.563Z</time>
      </trkpt>
      <trkpt lat="55.670370000000005" lon="12.55571">
        <ele>3.7319043742915383</ele>
        <time>2024-08-22T09:34:50.561Z</time>
      </trkpt>
      <trkpt lat="55.67003166666667" lon="12.556116666666666">
        <ele>1.2316583215718069</ele>
        <time>2024-08-22T09:35:31.586Z</time>
      </trkpt>
      <trkpt lat="55.67006333333334" lon="12.55618">
        <ele>3.9316745920226097</ele>
        <time>2024-08-22T09:35:39.555Z</time>
      </trkpt>
      <trkpt lat="55.669956666666664" lon="12.555948333333333">
        <ele>7.631573729371496</ele>
        <time>2024-08-22T09:36:07.598Z</time>
      </trkpt>
      <trkpt lat="55.669755" lon="12.555100000000001">
        <ele>1.6313301083858747</ele>
        <time>2024-08-22T09:36:52.602Z</time>
      </trkpt>
      <trkpt lat="55.66969166666666" lon="12.555058333333333">
        <ele>1.0312733798151612</ele>
        <time>2024-08-22T09:36:58.605Z</time>
      </trkpt>
      <trkpt lat="55.669414999999994" lon="12.553966666666668">
        <ele>6.630942436345556</ele>
        <time>2024-08-22T09:37:54.556Z</time>
      </trkpt>
      <trkpt lat="55.66934" lon="12.553920000000002">
        <ele>12.030877503255958</ele>
        <time>2024-08-22T09:38:08.562Z</time>
      </trkpt>
      <trkpt lat="55.66933833333333" lon="12.553653333333333">
        <ele>5.830850980673723</ele>
        <time>2024-08-22T09:38:23.584Z</time>
      </trkpt>
      <trkpt lat="55.66910666666666" lon="12.552791666666668">
        <ele>11.730586287149684</ele>
        <time>2024-08-22T09:39:42.591Z</time>
      </trkpt>
      <trkpt lat="55.668975" lon="12.552736666666666">
        <ele>12.530467298047874</ele>
        <time>2024-08-22T09:39:51.585Z</time>
      </trkpt>
      <trkpt lat="55.66901666666666" lon="12.55261">
        <ele>8.730479444759808</ele>
        <time>2024-08-22T09:39:55.595Z</time>
      </trkpt>
      <trkpt lat="55.668171666666666" lon="12.54977">
        <ele>13.629504729530609</ele>
        <time>2024-08-22T09:42:58.592Z</time>
      </trkpt>
      <trkpt lat="55.66796833333333" lon="12.550041666666667">
        <ele>13.129353999703177</ele>
        <time>2024-08-22T09:43:29.632Z</time>
      </trkpt>
      <trkpt lat="55.667505" lon="12.550064999999998">
        <ele>13.128957180119237</ele>
        <time>2024-08-22T09:44:12.566Z</time>
      </trkpt>
      <trkpt lat="55.66745666666667" lon="12.55015">
        <ele>13.228919947599799</ele>
        <time>2024-08-22T09:44:22.588Z</time>
      </trkpt>
      <trkpt lat="55.66699833333334" lon="12.550108333333332">
        <ele>15.128507624903321</ele>
        <time>2024-08-22T09:45:15.565Z</time>
      </trkpt>
      <trkpt lat="55.666798333333325" lon="12.550188333333331">
        <ele>20.32834124723078</ele>
        <time>2024-08-22T09:45:39.582Z</time>
      </trkpt>
      <trkpt lat="55.66667" lon="12.550041666666667">
        <ele>14.92821268694351</ele>
        <time>2024-08-22T09:45:56.588Z</time>
      </trkpt>
      <trkpt lat="55.66636666666667" lon="12.550094999999999">
        <ele>7.627948087849738</ele>
        <time>2024-08-22T09:46:26.592Z</time>
      </trkpt>
      <trkpt lat="55.66633166666667" lon="12.55003">
        <ele>8.627923414363053</ele>
        <time>2024-08-22T09:46:36.591Z</time>
      </trkpt>
      <trkpt lat="55.666180000000004" lon="12.550203333333332">
        <ele>3.027797158950861</ele>
        <time>2024-08-22T09:46:56.592Z</time>
      </trkpt>
      <trkpt lat="55.66580333333333" lon="12.550180000000001">
        <ele>3.227463843053144</ele>
        <time>2024-08-22T09:47:24.584Z</time>
      </trkpt>
      <trkpt lat="55.66556833333334" lon="12.54952">
        <ele>4.42718960433286</ele>
        <time>2024-08-22T09:48:05.582Z</time>
      </trkpt>
      <trkpt lat="55.665395000000004" lon="12.549433333333331">
        <ele>9.027032974580848</ele>
        <time>2024-08-22T09:48:39.594Z</time>
      </trkpt>
      <trkpt lat="55.66555666666667" lon="12.550041666666667">
        <ele>7.027216240730652</ele>
        <time>2024-08-22T09:49:46.817Z</time>
      </trkpt>
      <trkpt lat="55.66546" lon="12.550071666666668">
        <ele>2.803439560262741</ele>
        <time>2024-08-22T09:50:04.362Z</time>
      </trkpt>
      <trkpt lat="55.665545" lon="12.550139999999999">
        <ele>6.527212389662154</ele>
        <time>2024-08-22T09:50:07.596Z</time>
      </trkpt>
      <trkpt lat="55.66554833333333" lon="12.550288333333333">
        <ele>9.427236905247575</ele>
        <time>2024-08-22T09:50:23.589Z</time>
      </trkpt>
      <trkpt lat="55.66563166666666" lon="12.550213333333334">
        <ele>12.727295577357985</ele>
        <time>2024-08-22T09:50:41.592Z</time>
      </trkpt>
      <trkpt lat="55.66586" lon="12.550849999999999">
        <ele>6.227562773497013</ele>
        <time>2024-08-22T09:51:35.575Z</time>
      </trkpt>
      <trkpt lat="55.66584833333333" lon="12.551074999999999">
        <ele>3.7275680408502865</ele>
        <time>2024-08-22T09:51:59.611Z</time>
      </trkpt>
      <trkpt lat="55.666271666666674" lon="12.552164999999999">
        <ele>8.82802687064828</ele>
        <time>2024-08-22T09:53:05.589Z</time>
      </trkpt>
      <trkpt lat="55.666265" lon="12.552328333333332">
        <ele>5.228046891758019</ele>
        <time>2024-08-22T09:53:18.601Z</time>
      </trkpt>
      <trkpt lat="55.66618666666667" lon="12.552253333333333">
        <ele>5.2280142023968</ele>
        <time>2024-08-22T09:54:00.601Z</time>
      </trkpt>
      <trkpt lat="55.666213333333324" lon="12.55237">
        <ele>2.528003696151721</ele>
        <time>2024-08-22T09:54:19.562Z</time>
      </trkpt>
      <trkpt lat="55.66642166666667" lon="12.55258833333333">
        <ele>3.528193637229002</ele>
        <time>2024-08-22T09:54:58.595Z</time>
      </trkpt>
      <trkpt lat="55.666488333333334" lon="12.552826666666666">
        <ele>2.9282836814818936</ele>
        <time>2024-08-22T09:55:17.601Z</time>
      </trkpt>
      <trkpt lat="55.66643333333333" lon="12.552886666666666">
        <ele>2.0282426250722025</ele>
        <time>2024-08-22T09:55:25.609Z</time>
      </trkpt>
      <trkpt lat="55.666486666666664" lon="12.5529">
        <ele>1.7282800279838995</ele>
        <time>2024-08-22T09:55:35.585Z</time>
      </trkpt>
      <trkpt lat="55.666529999999995" lon="12.553071666666664">
        <ele>-0.7716597156935165</ele>
        <time>2024-08-22T09:55:52.599Z</time>
      </trkpt>
      <trkpt lat="55.66658166666666" lon="12.55305">
        <ele>-0.5716563774496777</ele>
        <time>2024-08-22T09:57:04.588Z</time>
      </trkpt>
      <trkpt lat="55.666715" lon="12.553366666666667">
        <ele>-1.3714716785589616</ele>
        <time>2024-08-22T09:57:30.572Z</time>
      </trkpt>
      <trkpt lat="55.66679666666667" lon="12.553353333333332">
        <ele>2.228533622786763</ele>
        <time>2024-08-22T09:58:01.552Z</time>
      </trkpt>
      <trkpt lat="55.66696833333334" lon="12.553898333333333">
        <ele>1.0287863293547375</ele>
        <time>2024-08-22T09:58:40.605Z</time>
      </trkpt>
      <trkpt lat="55.66733666666667" lon="12.554628333333335">
        <ele>1.1291683064512767</ele>
        <time>2024-08-22T09:59:29.605Z</time>
      </trkpt>
      <trkpt lat="55.66731333333334" lon="12.554731666666665">
        <ele>-0.5708443667267957</ele>
        <time>2024-08-22T09:59:41.585Z</time>
      </trkpt>
      <trkpt lat="55.66920166666667" lon="12.558448333333335">
        <ele>12.431071969991955</ele>
        <time>2024-08-22T10:05:23.604Z</time>
      </trkpt>
      <trkpt lat="55.66933666666667" lon="12.558333333333334">
        <ele>11.631189952303025</ele>
        <time>2024-08-22T10:05:47.562Z</time>
      </trkpt>
      <trkpt lat="55.669358333333335" lon="12.558196666666667">
        <ele>10.031206041074654</ele>
        <time>2024-08-22T10:05:59.561Z</time>
      </trkpt>
      <trkpt lat="55.66942000000001" lon="12.558348333333333">
        <ele>14.531260358745698</ele>
        <time>2024-08-22T10:06:14.591Z</time>
      </trkpt>
      <trkpt lat="55.66962" lon="12.558420000000002">
        <ele>10.031436853278905</ele>
        <time>2024-08-22T10:06:57.582Z</time>
      </trkpt>
      <trkpt lat="55.669641666666664" lon="12.558296666666669">
        <ele>7.131456952372702</ele>
        <time>2024-08-22T10:07:06.592Z</time>
      </trkpt>
      <trkpt lat="55.67034333333333" lon="12.557551666666665">
        <ele>10.332011938873826</ele>
        <time>2024-08-22T10:08:15.589Z</time>
      </trkpt>
      <trkpt lat="55.670449999999995" lon="12.557725000000001">
        <ele>9.332102410959862</ele>
        <time>2024-08-22T10:08:24.598Z</time>
      </trkpt>
      <trkpt lat="55.67082666666667" lon="12.558771666666667">
        <ele>16.032509432831183</ele>
        <time>2024-08-22T10:09:19.592Z</time>
      </trkpt>
      <trkpt lat="55.67089166666666" lon="12.558773333333333">
        <ele>16.832558070643742</ele>
        <time>2024-08-22T10:09:23.595Z</time>
      </trkpt>
      <trkpt lat="55.670880000000004" lon="12.558870000000002">
        <ele>14.232577167968053</ele>
        <time>2024-08-22T10:09:34.601Z</time>
      </trkpt>
      <trkpt lat="55.671263333333336" lon="12.560065000000002">
        <ele>12.332982736334792</ele>
        <time>2024-08-22T10:10:49.592Z</time>
      </trkpt>
      <trkpt lat="55.671776666666666" lon="12.561200000000001">
        <ele>32.83349726015722</ele>
        <time>2024-08-22T10:12:06.579Z</time>
      </trkpt>
      <trkpt lat="55.67175666666667" lon="12.561326666666666">
        <ele>29.733504780466433</ele>
        <time>2024-08-22T10:12:14.582Z</time>
      </trkpt>
      <trkpt lat="55.671645000000005" lon="12.561303333333335">
        <ele>18.633438025916817</ele>
        <time>2024-08-22T10:12:57.599Z</time>
      </trkpt>
      <trkpt lat="55.67171" lon="12.561268333333333">
        <ele>15.633439579507666</ele>
        <time>2024-08-22T10:13:02.578Z</time>
      </trkpt>
      <trkpt lat="55.6718" lon="12.561483333333335">
        <ele>13.233529695823236</ele>
        <time>2024-08-22T10:13:10.608Z</time>
      </trkpt>
      <trkpt lat="55.67202" lon="12.562331666666667">
        <ele>19.03378059971245</ele>
        <time>2024-08-22T10:14:05.609Z</time>
      </trkpt>
      <trkpt lat="55.672415" lon="12.56345">
        <ele>9.834189834078899</ele>
        <time>2024-08-22T10:15:23.601Z</time>
      </trkpt>
      <trkpt lat="55.672738333333335" lon="12.563203333333336">
        <ele>10.734455318636968</ele>
        <time>2024-08-22T10:16:21.591Z</time>
      </trkpt>
      <trkpt lat="55.672794999999994" lon="12.563400000000001">
        <ele>7.934514443681607</ele>
        <time>2024-08-22T10:16:33.594Z</time>
      </trkpt>
      <trkpt lat="55.67290666666666" lon="12.56327">
        <ele>13.334594595665806</ele>
        <time>2024-08-22T10:16:54.611Z</time>
      </trkpt>
      <trkpt lat="55.673051666666666" lon="12.563548333333332">
        <ele>15.534737536214003</ele>
        <time>2024-08-22T10:17:09.598Z</time>
      </trkpt>
      <trkpt lat="55.67313666666667" lon="12.563483333333332">
        <ele>17.434806798751545</ele>
        <time>2024-08-22T10:17:18.595Z</time>
      </trkpt>
      <trkpt lat="55.67317833333333" lon="12.563754999999999">
        <ele>20.834859557935836</ele>
        <time>2024-08-22T10:17:34.608Z</time>
      </trkpt>
      <trkpt lat="55.673246666666664" lon="12.563735000000001">
        <ele>20.034921532132103</ele>
        <time>2024-08-22T10:17:45.565Z</time>
      </trkpt>
      <trkpt lat="55.67322000000001" lon="12.563856666666668">
        <ele>20.134905686773102</ele>
        <time>2024-08-22T10:17:57.589Z</time>
      </trkpt>
      <trkpt lat="55.673285" lon="12.564078333333335">
        <ele>16.234974128743225</ele>
        <time>2024-08-22T10:18:11.602Z</time>
      </trkpt>
      <trkpt lat="55.67349166666666" lon="12.564490000000001">
        <ele>14.435171192238798</ele>
        <time>2024-08-22T10:19:12.598Z</time>
      </trkpt>
      <trkpt lat="55.67358333333333" lon="12.564478333333334">
        <ele>13.335248548423358</ele>
        <time>2024-08-22T10:19:20.586Z</time>
      </trkpt>
      <trkpt lat="55.673658333333336" lon="12.564343333333333">
        <ele>10.335304877550492</ele>
        <time>2024-08-22T10:19:33.595Z</time>
      </trkpt>
      <trkpt lat="55.67372833333334" lon="12.56443">
        <ele>9.935376401403992</ele>
        <time>2024-08-22T10:19:43.599Z</time>
      </trkpt>
      <trkpt lat="55.674168333333334" lon="12.563911666666668">
        <ele>5.235723083581412</ele>
        <time>2024-08-22T10:20:33.604Z</time>
      </trkpt>
      <trkpt lat="55.67434333333334" lon="12.564381666666668">
        <ele>8.935900927958478</ele>
        <time>2024-08-22T10:21:02.599Z</time>
      </trkpt>
      <trkpt lat="55.67451166666667" lon="12.564151666666666">
        <ele>15.136030887743772</ele>
        <time>2024-08-22T10:21:31.605Z</time>
      </trkpt>
      <trkpt lat="55.67477333333333" lon="12.563963333333334">
        <ele>14.536246492619497</ele>
        <time>2024-08-22T10:22:08.150Z</time>
      </trkpt>
      <trkpt lat="55.674881745787616" lon="12.564251606059713">
        <ele>6</ele>
        <time>2024-08-22T10:22:33.435Z</time>
      </trkpt>
      <trkpt lat="55.67486214995296" lon="12.564512622939304">
        <ele>5.827491356855603</ele>
        <time>2024-08-22T10:22:52.651Z</time>
      </trkpt>
      <trkpt lat="55.67501166666666" lon="12.564991666666666">
        <ele>5.519901924331894</ele>
        <time>2024-08-22T10:23:18.287Z</time>
      </trkpt>
      <trkpt lat="55.6753228466703" lon="12.564698066828669">
        <ele>5.809270230247456</ele>
        <time>2024-08-22T10:25:06.906Z</time>
      </trkpt>
      <trkpt lat="55.67546166666666" lon="12.565028333333332">
        <ele>5.521700309937495</ele>
        <time>2024-08-22T10:26:18.484Z</time>
      </trkpt>
      <trkpt lat="55.67545479471735" lon="12.56465472080123">
        <ele>5.883499240879881</ele>
        <time>2024-08-22T10:28:16.573Z</time>
      </trkpt>
      <trkpt lat="55.67578946977076" lon="12.564327779385337">
        <ele>6.005709385233288</ele>
        <time>2024-08-22T10:31:38.979Z</time>
      </trkpt>
      <trkpt lat="55.67572166666667" lon="12.56351">
        <ele>6.700000000000728</ele>
        <time>2024-08-22T10:34:02.751Z</time>
      </trkpt>
      <trkpt lat="55.6759" lon="12.56339">
        <ele>15.63718820588251</ele>
        <time>2024-08-22T12:05:25.579Z</time>
      </trkpt>
      <trkpt lat="55.67595333333334" lon="12.563205000000002">
        <ele>11.937235642928457</ele>
        <time>2024-08-22T12:05:39.561Z</time>
      </trkpt>
      <trkpt lat="55.67600000000001" lon="12.563583333333334">
        <ele>13.437292758004652</ele>
        <time>2024-08-22T12:06:48.609Z</time>
      </trkpt>
      <trkpt lat="55.676204999999996" lon="12.563808333333334">
        <ele>14.637472270803556</ele>
        <time>2024-08-22T12:07:12.569Z</time>
      </trkpt>
      <trkpt lat="55.676485" lon="12.563773333333332">
        <ele>15.137708382300367</ele>
        <time>2024-08-22T12:07:55.576Z</time>
      </trkpt>
      <trkpt lat="55.676425" lon="12.564136666666665">
        <ele>12.037693424900503</ele>
        <time>2024-08-22T12:08:26.794Z</time>
      </trkpt>
      <trkpt lat="55.676928333333336" lon="12.565306666666666">
        <ele>6.435921707777672</ele>
        <time>2024-08-22T12:10:28.140Z</time>
      </trkpt>
      <trkpt lat="55.677004999999994" lon="12.565213333333334">
        <ele>18.538235515880572</ele>
        <time>2024-08-22T12:11:28.561Z</time>
      </trkpt>
      <trkpt lat="55.677285" lon="12.565878333333334">
        <ele>15.238506100966383</ele>
        <time>2024-08-22T12:12:16.594Z</time>
      </trkpt>
      <trkpt lat="55.677366666666664" lon="12.565824999999998">
        <ele>18.138577243188678</ele>
        <time>2024-08-22T12:12:34.558Z</time>
      </trkpt>
      <trkpt lat="55.677355000000006" lon="12.566279999999999">
        <ele>32.73858949225202</ele>
        <time>2024-08-22T12:13:13.565Z</time>
      </trkpt>
      <trkpt lat="55.677446666666675" lon="12.56609">
        <ele>37.23863879855631</ele>
        <time>2024-08-22T12:13:16.552Z</time>
      </trkpt>
      <trkpt lat="55.67755999999999" lon="12.566255000000002">
        <ele>23.33876341599963</ele>
        <time>2024-08-22T12:13:28.599Z</time>
      </trkpt>
      <trkpt lat="55.67772333333334" lon="12.566875000000001">
        <ele>10.63893513710606</ele>
        <time>2024-08-22T12:14:19.562Z</time>
      </trkpt>
      <trkpt lat="55.67771333333334" lon="12.567073333333333">
        <ele>15.538931790169165</ele>
        <time>2024-08-22T12:14:44.586Z</time>
      </trkpt>
      <trkpt lat="55.67787333333334" lon="12.567378333333332">
        <ele>13.73908128089176</ele>
        <time>2024-08-22T12:15:07.572Z</time>
      </trkpt>
      <trkpt lat="55.67847891881982" lon="12.569273412782195">
        <ele>8.100000000000364</ele>
        <time>2024-08-22T12:22:04.880Z</time>
      </trkpt>
      <trkpt lat="55.67854833333334" lon="12.569189999999999">
        <ele>8.19178194380435</ele>
        <time>2024-08-22T12:22:50.695Z</time>
      </trkpt>
      <trkpt lat="55.678563333333344" lon="12.569358333333332">
        <ele>22.539759356844584</ele>
        <time>2024-08-22T12:26:12.066Z</time>
      </trkpt>
      <trkpt lat="55.67866666666667" lon="12.569126666666667">
        <ele>24.239835285986423</ele>
        <time>2024-08-22T12:27:02.757Z</time>
      </trkpt>
      <trkpt lat="55.67913367855948" lon="12.5687467637633">
        <ele>8.450661592276006</ele>
        <time>2024-08-22T12:29:39.132Z</time>
      </trkpt>
      <trkpt lat="55.680036666666666" lon="12.567783333333333">
        <ele>8.41941512827706</ele>
        <time>2024-08-22T12:34:59.857Z</time>
      </trkpt>
      <trkpt lat="55.679112188695626" lon="12.568645634156326">
        <ele>8.400000000001455</ele>
        <time>2024-08-22T12:37:05.069Z</time>
      </trkpt>
      <trkpt lat="55.679156666666664" lon="12.569170000000002">
        <ele>16.340261243373526</ele>
        <time>2024-08-22T12:38:58.209Z</time>
      </trkpt>
      <trkpt lat="55.67925333333333" lon="12.569320000000001">
        <ele>19.940344911566804</ele>
        <time>2024-08-22T12:39:30.212Z</time>
      </trkpt>
      <trkpt lat="55.679293333333334" lon="12.569238333333333">
        <ele>19.840379861172536</ele>
        <time>2024-08-22T12:39:48.188Z</time>
      </trkpt>
      <trkpt lat="55.679281666666675" lon="12.569565">
        <ele>16.040381526895025</ele>
        <time>2024-08-22T12:40:10.212Z</time>
      </trkpt>
      <trkpt lat="55.67935000000001" lon="12.569841666666665">
        <ele>13.840452350708205</ele>
        <time>2024-08-22T12:40:33.199Z</time>
      </trkpt>
      <trkpt lat="55.679541666666665" lon="12.570165000000001">
        <ele>23.64062352607835</ele>
        <time>2024-08-22T12:41:40.214Z</time>
      </trkpt>
      <trkpt lat="55.679525" lon="12.570405000000001">
        <ele>19.440620783103107</ele>
        <time>2024-08-22T12:41:52.196Z</time>
      </trkpt>
      <trkpt lat="55.679685" lon="12.570938333333334">
        <ele>12.740776945869897</ele>
        <time>2024-08-22T12:42:46.212Z</time>
      </trkpt>
      <trkpt lat="55.67993" lon="12.570808333333332">
        <ele>12.140979609798677</ele>
        <time>2024-08-22T12:44:00.217Z</time>
      </trkpt>
      <trkpt lat="55.679868333333324" lon="12.570755">
        <ele>13.640927158054609</ele>
        <time>2024-08-22T12:44:16.208Z</time>
      </trkpt>
      <trkpt lat="55.679731666666676" lon="12.570763333333332">
        <ele>16.54082269446804</ele>
        <time>2024-08-22T12:44:37.209Z</time>
      </trkpt>
      <trkpt lat="55.67984" lon="12.570474999999998">
        <ele>12.440894437013007</ele>
        <time>2024-08-22T12:45:01.175Z</time>
      </trkpt>
      <trkpt lat="55.679743333333334" lon="12.570600000000002">
        <ele>16.04082927119194</ele>
        <time>2024-08-22T12:45:48.168Z</time>
      </trkpt>
      <trkpt lat="55.679766666666666" lon="12.570755">
        <ele>19.140841257322002</ele>
        <time>2024-08-22T12:45:57.204Z</time>
      </trkpt>
      <trkpt lat="55.679715" lon="12.570986666666666">
        <ele>20.34080810576473</ele>
        <time>2024-08-22T12:46:13.208Z</time>
      </trkpt>
      <trkpt lat="55.679809999999996" lon="12.571341666666667">
        <ele>18.940894142072572</ele>
        <time>2024-08-22T12:46:38.211Z</time>
      </trkpt>
      <trkpt lat="55.679878333333335" lon="12.571406666666666">
        <ele>20.440955508560847</ele>
        <time>2024-08-22T12:46:48.211Z</time>
      </trkpt>
      <trkpt lat="55.679866666666676" lon="12.5713">
        <ele>19.6409505538425</ele>
        <time>2024-08-22T12:46:56.181Z</time>
      </trkpt>
      <trkpt lat="55.67994166666667" lon="12.571418333333334">
        <ele>20.74100941277611</ele>
        <time>2024-08-22T12:47:33.182Z</time>
      </trkpt>
      <trkpt lat="55.679383333333334" lon="12.571878333333332">
        <ele>33.74055632157276</ele>
        <time>2024-08-22T12:49:13.179Z</time>
      </trkpt>
      <trkpt lat="55.679426666666664" lon="12.571778333333334">
        <ele>28.040586064776953</ele>
        <time>2024-08-22T12:49:52.195Z</time>
      </trkpt>
      <trkpt lat="55.679361666666665" lon="12.571738333333334">
        <ele>22.340557648826305</ele>
        <time>2024-08-22T12:49:57.337Z</time>
      </trkpt>
      <trkpt lat="55.678893450073645" lon="12.572019613929598">
        <ele>8.138684779342476</ele>
        <time>2024-08-22T12:50:34.344Z</time>
      </trkpt>
      <trkpt lat="55.678750678575085" lon="12.571406048012847">
        <ele>7.043939905407601</ele>
        <time>2024-08-22T12:50:56.724Z</time>
      </trkpt>
      <trkpt lat="55.678765000000006" lon="12.571278333333332">
        <ele>8.470111643947918</ele>
        <time>2024-08-22T12:51:00.112Z</time>
      </trkpt>
      <trkpt lat="55.67881666666667" lon="12.571315">
        <ele>8.506372178539879</ele>
        <time>2024-08-22T12:51:19.933Z</time>
      </trkpt>
      <trkpt lat="55.678783015541114" lon="12.571714764368153">
        <ele>8.29783221159757</ele>
        <time>2024-08-22T12:52:11.301Z</time>
      </trkpt>
      <trkpt lat="55.67902666666667" lon="12.571935">
        <ele>8.386947453563522</ele>
        <time>2024-08-22T12:53:12.942Z</time>
      </trkpt>
      <trkpt lat="55.67906833333333" lon="12.572115">
        <ele>41.34028821251063</ele>
        <time>2024-08-22T12:57:45.795Z</time>
      </trkpt>
      <trkpt lat="55.67821833333334" lon="12.572406666666666">
        <ele>30.03957721862892</ele>
        <time>2024-08-22T12:59:18.175Z</time>
      </trkpt>
      <trkpt lat="55.678185" lon="12.57225">
        <ele>25.3395449550222</ele>
        <time>2024-08-22T12:59:39.172Z</time>
      </trkpt>
      <trkpt lat="55.67811" lon="12.572451666666666">
        <ele>23.83949451163801</ele>
        <time>2024-08-22T13:00:02.205Z</time>
      </trkpt>
      <trkpt lat="55.67795666666666" lon="12.572531666666665">
        <ele>15.239368195800289</ele>
        <time>2024-08-22T13:00:19.205Z</time>
      </trkpt>
      <trkpt lat="55.677974999999996" lon="12.572618333333333">
        <ele>15.939386841239</ele>
        <time>2024-08-22T13:01:07.168Z</time>
      </trkpt>
      <trkpt lat="55.67788833333334" lon="12.572571666666667">
        <ele>20.439309078858678</ele>
        <time>2024-08-22T13:01:18.214Z</time>
      </trkpt>
      <trkpt lat="55.67779" lon="12.572328333333333">
        <ele>20.53921521122043</ele>
        <time>2024-08-22T13:01:48.156Z</time>
      </trkpt>
      <trkpt lat="55.67782666666667" lon="12.572493333333334">
        <ele>17.839247293358532</ele>
        <time>2024-08-22T13:02:08.202Z</time>
      </trkpt>
      <trkpt lat="55.67776166666666" lon="12.572645">
        <ele>15.139201457307372</ele>
        <time>2024-08-22T13:02:19.208Z</time>
      </trkpt>
      <trkpt lat="55.67737666666667" lon="12.573141666666666">
        <ele>16.038892096945617</ele>
        <time>2024-08-22T13:03:21.165Z</time>
      </trkpt>
      <trkpt lat="55.67725" lon="12.572985000000001">
        <ele>12.038775078894894</ele>
        <time>2024-08-22T13:03:43.201Z</time>
      </trkpt>
      <trkpt lat="55.67724666666666" lon="12.572848333333331">
        <ele>16.038766109179647</ele>
        <time>2024-08-22T13:04:05.206Z</time>
      </trkpt>
      <trkpt lat="55.67723666666667" lon="12.573138333333334">
        <ele>17.23876884855145</ele>
        <time>2024-08-22T13:04:24.215Z</time>
      </trkpt>
      <trkpt lat="55.677139999999994" lon="12.573074999999998">
        <ele>16.538687269608666</ele>
        <time>2024-08-22T13:04:39.208Z</time>
      </trkpt>
      <trkpt lat="55.67692" lon="12.573155000000002">
        <ele>18.5385066998764</ele>
        <time>2024-08-22T13:05:00.172Z</time>
      </trkpt>
      <trkpt lat="55.676746666666666" lon="12.572591666666664">
        <ele>26.238334089834588</ele>
        <time>2024-08-22T13:05:42.231Z</time>
      </trkpt>
      <trkpt lat="55.67670499999999" lon="12.572239999999999">
        <ele>19.238287524855842</ele>
        <time>2024-08-22T13:06:08.194Z</time>
      </trkpt>
      <trkpt lat="55.67657666666667" lon="12.572143333333335">
        <ele>16.338178890968898</ele>
        <time>2024-08-22T13:06:25.198Z</time>
      </trkpt>
      <trkpt lat="55.676249999999996" lon="12.571555">
        <ele>5.037870600504377</ele>
        <time>2024-08-22T13:07:11.169Z</time>
      </trkpt>
      <trkpt lat="55.67627833333333" lon="12.571525000000001">
        <ele>8.63788833347072</ele>
        <time>2024-08-22T13:07:17.175Z</time>
      </trkpt>
      <trkpt lat="55.67612666666667" lon="12.571280000000002">
        <ele>15.337756231120572</ele>
        <time>2024-08-22T13:07:43.218Z</time>
      </trkpt>
      <trkpt lat="55.676128333333324" lon="12.571053333333335">
        <ele>17.537769943962893</ele>
        <time>2024-08-22T13:08:08.212Z</time>
      </trkpt>
      <trkpt lat="55.675844999999995" lon="12.571018333333333">
        <ele>16.937509953534203</ele>
        <time>2024-08-22T13:08:29.214Z</time>
      </trkpt>
      <trkpt lat="55.67572333333332" lon="12.571139999999998">
        <ele>19.13741281358095</ele>
        <time>2024-08-22T13:08:50.199Z</time>
      </trkpt>
      <trkpt lat="55.67558999999999" lon="12.571409999999998">
        <ele>18.537299517576812</ele>
        <time>2024-08-22T13:09:16.194Z</time>
      </trkpt>
      <trkpt lat="55.675735" lon="12.571735">
        <ele>18.53743493155134</ele>
        <time>2024-08-22T13:09:52.202Z</time>
      </trkpt>
      <trkpt lat="55.67541166666667" lon="12.572025">
        <ele>27.337177161553875</ele>
        <time>2024-08-22T13:10:23.161Z</time>
      </trkpt>
      <trkpt lat="55.67541833333333" lon="12.571921666666666">
        <ele>28.137170997692344</ele>
        <time>2024-08-22T13:10:27.209Z</time>
      </trkpt>
      <trkpt lat="55.67565333333334" lon="12.571795000000002">
        <ele>27.937312890055914</ele>
        <time>2024-08-22T13:10:34.204Z</time>
      </trkpt>
      <trkpt lat="55.67570166666666" lon="12.571945000000001">
        <ele>26.437396514388354</ele>
        <time>2024-08-22T13:10:36.206Z</time>
      </trkpt>
      <trkpt lat="55.67577500000001" lon="12.571871666666668">
        <ele>26.83745741608555</ele>
        <time>2024-08-22T13:10:40.205Z</time>
      </trkpt>
      <trkpt lat="55.67597666666667" lon="12.572334999999999">
        <ele>25.037663964983892</ele>
        <time>2024-08-22T13:11:22.202Z</time>
      </trkpt>
      <trkpt lat="55.67569166666667" lon="12.572591666666664">
        <ele>21.73743310641334</ele>
        <time>2024-08-22T13:11:41.202Z</time>
      </trkpt>
      <trkpt lat="55.675915" lon="12.572336666666668">
        <ele>23.537597722721635</ele>
        <time>2024-08-22T13:12:06.214Z</time>
      </trkpt>
      <trkpt lat="55.67593166666667" lon="12.572223333333334">
        <ele>21.137621939303706</ele>
        <time>2024-08-22T13:12:12.209Z</time>
      </trkpt>
      <trkpt lat="55.675563333333336" lon="12.571331666666667">
        <ele>18.9372730999997</ele>
        <time>2024-08-22T13:13:27.208Z</time>
      </trkpt>
      <trkpt lat="55.675394999999995" lon="12.571115">
        <ele>21.537168061423337</ele>
        <time>2024-08-22T13:13:47.205Z</time>
      </trkpt>
      <trkpt lat="55.67538833333333" lon="12.570973333333333">
        <ele>19.537112164715545</ele>
        <time>2024-08-22T13:14:02.165Z</time>
      </trkpt>
      <trkpt lat="55.675435" lon="12.570993333333336">
        <ele>22.837145787009426</ele>
        <time>2024-08-22T13:14:10.219Z</time>
      </trkpt>
      <trkpt lat="55.675515" lon="12.570715">
        <ele>24.337212723564974</ele>
        <time>2024-08-22T13:14:31.218Z</time>
      </trkpt>
      <trkpt lat="55.675398333333334" lon="12.570779999999997">
        <ele>24.737123912745126</ele>
        <time>2024-08-22T13:14:42.211Z</time>
      </trkpt>
      <trkpt lat="55.674809999999994" lon="12.572065000000002">
        <ele>12.436670220562803</ele>
        <time>2024-08-22T13:16:58.188Z</time>
      </trkpt>
      <trkpt lat="55.67482833333334" lon="12.572140000000001">
        <ele>12.43668334482296</ele>
        <time>2024-08-22T13:17:08.169Z</time>
      </trkpt>
      <trkpt lat="55.67447000000001" lon="12.572836666666667">
        <ele>8.936403247254127</ele>
        <time>2024-08-22T13:18:04.192Z</time>
      </trkpt>
      <trkpt lat="55.67431" lon="12.572861666666665">
        <ele>11.33627398314681</ele>
        <time>2024-08-22T13:18:19.206Z</time>
      </trkpt>
      <trkpt lat="55.673838333333336" lon="12.572413333333335">
        <ele>10.835853234625425</ele>
        <time>2024-08-22T13:19:19.195Z</time>
      </trkpt>
      <trkpt lat="55.673791666666666" lon="12.572173333333334">
        <ele>11.73580275745384</ele>
        <time>2024-08-22T13:19:51.211Z</time>
      </trkpt>
      <trkpt lat="55.673166666666674" lon="12.571538333333335">
        <ele>12.935279540030173</ele>
        <time>2024-08-22T13:23:57.214Z</time>
      </trkpt>
      <trkpt lat="55.67281" lon="12.570886666666668">
        <ele>12.034905896774767</ele>
        <time>2024-08-22T13:24:53.228Z</time>
      </trkpt>
      <trkpt lat="55.67172333333333" lon="12.567936666666666">
        <ele>15.83384063943734</ele>
        <time>2024-08-22T13:27:53.205Z</time>
      </trkpt>
      <trkpt lat="55.67173833333333" lon="12.567743333333333">
        <ele>16.033836842729038</ele>
        <time>2024-08-22T13:28:31.179Z</time>
      </trkpt>
      <trkpt lat="55.671654999999994" lon="12.567481666666668">
        <ele>16.03375618985293</ele>
        <time>2024-08-22T13:28:47.198Z</time>
      </trkpt>
      <trkpt lat="55.67246" lon="12.566568333333331">
        <ele>20.334398168696318</ele>
        <time>2024-08-22T13:30:27.168Z</time>
      </trkpt>
      <trkpt lat="55.67335500000001" lon="12.565943333333333">
        <ele>11.935133994765685</ele>
        <time>2024-08-22T13:33:03.191Z</time>
      </trkpt>
      <trkpt lat="55.673255000000005" lon="12.566114999999998">
        <ele>16.735063259969174</ele>
        <time>2024-08-22T13:33:52.454Z</time>
      </trkpt>
      <trkpt lat="55.67297033909617" lon="12.564758013245779">
        <ele>4.728300382431174</ele>
        <time>2024-08-22T13:38:41.447Z</time>
      </trkpt>
      <trkpt lat="55.672508333333326" lon="12.563615">
        <ele>12.234282330897322</ele>
        <time>2024-08-22T13:42:59.221Z</time>
      </trkpt>
      <trkpt lat="55.67252833333334" lon="12.563386666666668">
        <ele>14.434284423899932</ele>
        <time>2024-08-22T13:43:12.198Z</time>
      </trkpt>
      <trkpt lat="55.672598333333326" lon="12.563896666666668">
        <ele>17.43437174143068</ele>
        <time>2024-08-22T13:43:34.206Z</time>
      </trkpt>
      <trkpt lat="55.67232333333333" lon="12.564110000000001">
        <ele>25.03414935235302</ele>
        <time>2024-08-22T13:44:09.224Z</time>
      </trkpt>
      <trkpt lat="55.672286666666665" lon="12.56399">
        <ele>22.63412159371</ele>
        <time>2024-08-22T13:44:30.217Z</time>
      </trkpt>
      <trkpt lat="55.672025" lon="12.564221666666667">
        <ele>19.43392490209289</ele>
        <time>2024-08-22T13:44:45.199Z</time>
      </trkpt>
      <trkpt lat="55.67172833333334" lon="12.56433">
        <ele>18.23365090851403</ele>
        <time>2024-08-22T13:44:45.420Z</time>
      </trkpt>
      <trkpt lat="55.67178470670234" lon="12.56441954553128">
        <ele>3.3500848367255824</ele>
        <time>2024-08-22T13:44:45.475Z</time>
      </trkpt>
      <trkpt lat="55.67178333333333" lon="12.564691666666667">
        <ele>2.8054773500665964</ele>
        <time>2024-08-22T13:44:45.587Z</time>
      </trkpt>
      <trkpt lat="55.67221500000001" lon="12.564245000000001">
        <ele>-1.465949960324295</ele>
        <time>2024-08-22T13:46:02.205Z</time>
      </trkpt>
      <trkpt lat="55.67237" lon="12.564200000000001">
        <ele>23.73418891298696</ele>
        <time>2024-08-22T13:46:13.064Z</time>
      </trkpt>
      <trkpt lat="55.672675" lon="12.56522">
        <ele>1.0146845774363655</ele>
        <time>2024-08-22T13:46:58.076Z</time>
      </trkpt>
      <trkpt lat="55.67268666666667" lon="12.565945">
        <ele>-12.365434355976173</ele>
        <time>2024-08-22T14:24:26.191Z</time>
      </trkpt>
      <trkpt lat="55.67255" lon="12.566255000000002">
        <ele>-13.665539308614491</ele>
        <time>2024-08-22T14:24:33.185Z</time>
      </trkpt>
      <trkpt lat="55.672688333333326" lon="12.566126666666666">
        <ele>-13.665427574909877</ele>
        <time>2024-08-22T14:24:39.195Z</time>
      </trkpt>
      <trkpt lat="55.672883333333324" lon="12.566133333333335">
        <ele>-19.365250864619515</ele>
        <time>2024-08-22T14:25:36.204Z</time>
      </trkpt>
      <trkpt lat="55.673051666666666" lon="12.566261666666666">
        <ele>22.83489064047602</ele>
        <time>2024-08-22T14:29:17.198Z</time>
      </trkpt>
      <trkpt lat="55.67354999999999" lon="12.565678333333334">
        <ele>42.03526259575754</ele>
        <time>2024-08-22T14:31:15.192Z</time>
      </trkpt>
      <trkpt lat="55.67357666666667" lon="12.56582">
        <ele>16.235301768252704</ele>
        <time>2024-08-22T14:59:41.211Z</time>
      </trkpt>
      <trkpt lat="55.673026666666665" lon="12.566318333333333">
        <ele>49.03488376406979</ele>
        <time>2024-08-22T15:02:04.745Z</time>
      </trkpt>
      <trkpt lat="55.673941666666664" lon="12.564995">
        <ele>24.235576858532177</ele>
        <time>2024-08-22T15:05:45.901Z</time>
      </trkpt>
      <trkpt lat="55.6732548493093" lon="12.564705318056099">
        <ele>6.750626452172833</ele>
        <time>2024-08-22T15:07:11.227Z</time>
      </trkpt>
      <trkpt lat="55.672613333333324" lon="12.565731666666666">
        <ele>1.156265558023696</ele>
        <time>2024-08-22T15:08:55.654Z</time>
      </trkpt>
      <trkpt lat="55.672531666666664" lon="12.565734999999998">
        <ele>5.634423218137613</ele>
        <time>2024-08-22T15:52:13.172Z</time>
      </trkpt>
      <trkpt lat="55.67252833333334" lon="12.565491666666667">
        <ele>21.334378680938308</ele>
        <time>2024-08-22T15:52:19.179Z</time>
      </trkpt>
      <trkpt lat="55.672925" lon="12.565193333333331">
        <ele>23.534400427033795</ele>
        <time>2024-08-22T15:53:06.680Z</time>
      </trkpt>
      <trkpt lat="55.67312556330728" lon="12.566006286818578">
        <ele>6.341546436586729</ele>
        <time>2024-08-22T15:54:01.845Z</time>
      </trkpt>
      <trkpt lat="55.672576666666664" lon="12.565806666666667">
        <ele>1.118397712945549</ele>
        <time>2024-08-22T15:55:03.616Z</time>
      </trkpt>
      <trkpt lat="55.67273247589776" lon="12.565977352350274">
        <ele>5.046100350517011</ele>
        <time>2024-08-22T15:55:32.125Z</time>
      </trkpt>
      <trkpt lat="55.67465333333333" lon="12.564053333333334">
        <ele>6.154153040127577</ele>
        <time>2024-08-22T16:01:15.540Z</time>
      </trkpt>
      <trkpt lat="55.674800000000005" lon="12.564580000000001">
        <ele>12.336306257136513</ele>
        <time>2024-08-22T16:03:04.173Z</time>
      </trkpt>
      <trkpt lat="55.674890000000005" lon="12.564641666666667">
        <ele>13.236382927546579</ele>
        <time>2024-08-22T16:03:11.192Z</time>
      </trkpt>
      <trkpt lat="55.67504833333334" lon="12.565063333333335">
        <ele>18.33653979528175</ele>
        <time>2024-08-22T16:03:33.182Z</time>
      </trkpt>
      <trkpt lat="55.675124999999994" lon="12.56543">
        <ele>16.636626982621785</ele>
        <time>2024-08-22T16:03:52.179Z</time>
      </trkpt>
      <trkpt lat="55.675835000000006" lon="12.567346666666667">
        <ele>15.03732361148996</ele>
        <time>2024-08-22T16:05:47.181Z</time>
      </trkpt>
      <trkpt lat="55.67581333333332" lon="12.567460000000002">
        <ele>12.537323724175899</ele>
        <time>2024-08-22T16:05:53.162Z</time>
      </trkpt>
      <trkpt lat="55.67613333333334" lon="12.568323333333334">
        <ele>13.937630354496825</ele>
        <time>2024-08-22T16:07:39.214Z</time>
      </trkpt>
      <trkpt lat="55.67635166666667" lon="12.569126666666667">
        <ele>11.637856501988878</ele>
        <time>2024-08-22T16:08:39.186Z</time>
      </trkpt>
      <trkpt lat="55.67647" lon="12.569271666666669">
        <ele>10.537958515718287</ele>
        <time>2024-08-22T16:08:50.171Z</time>
      </trkpt>
      <trkpt lat="55.677945" lon="12.572533333333334">
        <ele>19.539339679149585</ele>
        <time>2024-08-22T16:12:35.208Z</time>
      </trkpt>
      <trkpt lat="55.67816666666666" lon="12.57249">
        <ele>23.43952769507839</ele>
        <time>2024-08-22T16:12:58.181Z</time>
      </trkpt>
      <trkpt lat="55.678414999999994" lon="12.572255">
        <ele>15.639738313711568</ele>
        <time>2024-08-22T16:13:25.183Z</time>
      </trkpt>
      <trkpt lat="55.678491666666666" lon="12.572385">
        <ele>17.339809278119496</ele>
        <time>2024-08-22T16:13:36.179Z</time>
      </trkpt>
      <trkpt lat="55.678555" lon="12.572255">
        <ele>10.839855072009996</ele>
        <time>2024-08-22T16:13:55.199Z</time>
      </trkpt>
      <trkpt lat="55.67950166666666" lon="12.571834999999998">
        <ele>15.540648743915085</ele>
        <time>2024-08-22T16:15:21.198Z</time>
      </trkpt>
      <trkpt lat="55.680498333333325" lon="12.571163333333335">
        <ele>31.241470412212756</ele>
        <time>2024-08-22T16:16:45.198Z</time>
      </trkpt>
      <trkpt lat="55.68114666666667" lon="12.571188333333335">
        <ele>36.74203103321478</ele>
        <time>2024-08-22T16:17:41.192Z</time>
      </trkpt>
      <trkpt lat="55.68127333333334" lon="12.571075">
        <ele>33.142131613336744</ele>
        <time>2024-08-22T16:17:56.166Z</time>
      </trkpt>
      <trkpt lat="55.682660000000006" lon="12.570773333333333">
        <ele>19.34328771868467</ele>
        <time>2024-08-22T16:21:01.855Z</time>
      </trkpt>
      <trkpt lat="55.68283488958423" lon="12.571120337351744">
        <ele>10.01630985126867</ele>
        <time>2024-08-22T16:21:44.527Z</time>
      </trkpt>
      <trkpt lat="55.68349360814585" lon="12.569536100883028">
        <ele>9.063087152093479</ele>
        <time>2024-08-22T16:26:11.814Z</time>
      </trkpt>
      <trkpt lat="55.68382239287507" lon="12.569488314010954">
        <ele>9.101438895157171</ele>
        <time>2024-08-22T16:29:21.546Z</time>
      </trkpt>
      <trkpt lat="55.683982475294385" lon="12.570456519899011">
        <ele>9.021917193965356</ele>
        <time>2024-08-22T16:32:07.515Z</time>
      </trkpt>
      <trkpt lat="55.68368333333333" lon="12.571386666666667">
        <ele>9.296547840592947</ele>
        <time>2024-08-22T17:12:24.000Z</time>
      </trkpt>
      <trkpt lat="55.683963074955045" lon="12.570989471501576">
        <ele>9.125324320504568</ele>
        <time>2024-08-22T17:14:58.168Z</time>
      </trkpt>
      <trkpt lat="55.683913981475854" lon="12.570905257384055">
        <ele>9.300000000001091</ele>
        <time>2024-08-22T17:15:19.196Z</time>
      </trkpt>
      <trkpt lat="55.68441500000001" lon="12.57073">
        <ele>8.960730536143348</ele>
        <time>2024-08-22T17:15:51.997Z</time>
      </trkpt>
      <trkpt lat="55.68432500000001" lon="12.570818333333333">
        <ele>32.04473686473603</ele>
        <time>2024-08-22T17:17:35.377Z</time>
      </trkpt>
      <trkpt lat="55.68389833333334" lon="12.570711666666666">
        <ele>33.44437814478427</ele>
        <time>2024-08-22T17:17:50.381Z</time>
      </trkpt>
      <trkpt lat="55.683805" lon="12.571338333333332">
        <ele>15.844301739568522</ele>
        <time>2024-08-22T17:18:59.410Z</time>
      </trkpt>
      <trkpt lat="55.683625" lon="12.571433333333335">
        <ele>23.644159953362582</ele>
        <time>2024-08-22T17:19:37.367Z</time>
      </trkpt>
      <trkpt lat="55.68357833333333" lon="12.571561666666666">
        <ele>22.644132896738242</ele>
        <time>2024-08-22T17:19:42.363Z</time>
      </trkpt>
      <trkpt lat="55.68366833333333" lon="12.572056666666667">
        <ele>15.244209069172335</ele>
        <time>2024-08-22T17:20:00.367Z</time>
      </trkpt>
      <trkpt lat="55.683545" lon="12.572228333333332">
        <ele>15.744113224131006</ele>
        <time>2024-08-22T17:20:17.360Z</time>
      </trkpt>
      <trkpt lat="55.683539999999994" lon="12.572499999999998">
        <ele>16.44411179312835</ele>
        <time>2024-08-22T17:20:28.371Z</time>
      </trkpt>
      <trkpt lat="55.68363666666667" lon="12.572633333333332">
        <ele>19.94419988020251</ele>
        <time>2024-08-22T17:20:46.370Z</time>
      </trkpt>
      <trkpt lat="55.68378666666668" lon="12.572523333333333">
        <ele>14.544318872696856</ele>
        <time>2024-08-22T17:21:21.351Z</time>
      </trkpt>
      <trkpt lat="55.68370333333334" lon="12.572790000000001">
        <ele>6.2442578918210785</ele>
        <time>2024-08-22T17:21:44.406Z</time>
      </trkpt>
      <trkpt lat="55.68378833333333" lon="12.572903333333333">
        <ele>7.144323043498282</ele>
        <time>2024-08-22T17:21:57.420Z</time>
      </trkpt>
      <trkpt lat="55.68396500000001" lon="12.572903333333333">
        <ele>13.744477907459625</ele>
        <time>2024-08-22T17:22:18.361Z</time>
      </trkpt>
      <trkpt lat="55.684203333333336" lon="12.573286666666668">
        <ele>17.74469768080425</ele>
        <time>2024-08-22T17:22:46.364Z</time>
      </trkpt>
      <trkpt lat="55.684293333333336" lon="12.573260000000001">
        <ele>18.74476780669677</ele>
        <time>2024-08-22T17:23:02.384Z</time>
      </trkpt>
      <trkpt lat="55.68443333333333" lon="12.573481666666664">
        <ele>15.54488474195292</ele>
        <time>2024-08-22T17:23:18.383Z</time>
      </trkpt>
      <trkpt lat="55.68460666666667" lon="12.573166666666669">
        <ele>7.245030514921304</ele>
        <time>2024-08-22T17:23:39.364Z</time>
      </trkpt>
      <trkpt lat="55.685026666666666" lon="12.571741666666666">
        <ele>14.145349067618518</ele>
        <time>2024-08-22T17:24:59.377Z</time>
      </trkpt>
      <trkpt lat="55.685673333333334" lon="12.569013333333332">
        <ele>12.545825619860665</ele>
        <time>2024-08-22T17:27:39.387Z</time>
      </trkpt>
      <trkpt lat="55.68582166666667" lon="12.568786666666664">
        <ele>12.345940754037457</ele>
        <time>2024-08-22T17:28:08.370Z</time>
      </trkpt>
      <trkpt lat="55.686536666666676" lon="12.565961666666665">
        <ele>22.54646256400438</ele>
        <time>2024-08-22T17:30:54.364Z</time>
      </trkpt>
      <trkpt lat="55.686355000000006" lon="12.565818333333334">
        <ele>15.846324764826335</ele>
        <time>2024-08-22T17:31:19.393Z</time>
      </trkpt>
      <trkpt lat="55.686323333333334" lon="12.565706666666665">
        <ele>14.246285149157032</ele>
        <time>2024-08-22T17:31:21.403Z</time>
      </trkpt>
      <trkpt lat="55.68629166666666" lon="12.565383333333333">
        <ele>12.546237009816778</ele>
        <time>2024-08-22T17:31:27.416Z</time>
      </trkpt>
      <trkpt lat="55.686364999999995" lon="12.565026666666665">
        <ele>8.346281277455248</ele>
        <time>2024-08-22T17:31:42.364Z</time>
      </trkpt>
      <trkpt lat="55.68817166666666" lon="12.560283333333333">
        <ele>3.447636838045355</ele>
        <time>2024-08-22T17:37:20.401Z</time>
      </trkpt>
      <trkpt lat="55.68819666666666" lon="12.559973333333335">
        <ele>8.347652132152518</ele>
        <time>2024-08-22T17:37:36.374Z</time>
      </trkpt>
      <trkpt lat="55.688283333333324" lon="12.559705000000001">
        <ele>13.447711047686816</ele>
        <time>2024-08-22T17:37:57.397Z</time>
      </trkpt>
      <trkpt lat="55.68820833333333" lon="12.559633333333332">
        <ele>12.547652272390167</ele>
        <time>2024-08-22T17:38:05.409Z</time>
      </trkpt>
      <trkpt lat="55.688230000000004" lon="12.559551666666668">
        <ele>12.64765113805727</ele>
        <time>2024-08-22T17:38:19.376Z</time>
      </trkpt>
      <trkpt lat="55.68841666666667" lon="12.559529999999999">
        <ele>15.547804996026372</ele>
        <time>2024-08-22T17:38:34.397Z</time>
      </trkpt>
      <trkpt lat="55.69036333333334" lon="12.560563333333334">
        <ele>3.3495420785351016</ele>
        <time>2024-08-22T17:41:43.410Z</time>
      </trkpt>
      <trkpt lat="55.690380000000005" lon="12.560741666666669">
        <ele>5.549567354981541</ele>
        <time>2024-08-22T17:41:51.361Z</time>
      </trkpt>
      <trkpt lat="55.69063333333334" lon="12.560888333333333">
        <ele>16.9497779437743</ele>
        <time>2024-08-22T17:42:10.390Z</time>
      </trkpt>
      <trkpt lat="55.69073166666667" lon="12.560596666666667">
        <ele>22.449863420049198</ele>
        <time>2024-08-22T17:42:22.361Z</time>
      </trkpt>
      <trkpt lat="55.690715" lon="12.560448333333333">
        <ele>20.849839683027007</ele>
        <time>2024-08-22T17:42:36.358Z</time>
      </trkpt>
      <trkpt lat="55.691015" lon="12.560843333333333">
        <ele>14.350109800870449</ele>
        <time>2024-08-22T17:43:14.377Z</time>
      </trkpt>
      <trkpt lat="55.69130333333332" lon="12.560785">
        <ele>13.75035518959261</ele>
        <time>2024-08-22T17:43:41.410Z</time>
      </trkpt>
      <trkpt lat="55.691663333333324" lon="12.560856666666666">
        <ele>15.650674255502253</ele>
        <time>2024-08-22T17:44:23.403Z</time>
      </trkpt>
      <trkpt lat="55.69168333333334" lon="12.560668333333334">
        <ele>15.950697432944139</ele>
        <time>2024-08-22T17:44:32.373Z</time>
      </trkpt>
      <trkpt lat="55.691693333333326" lon="12.560938333333334">
        <ele>18.150714564030572</ele>
        <time>2024-08-22T17:44:51.368Z</time>
      </trkpt>
      <trkpt lat="55.69187166666667" lon="12.560931666666667">
        <ele>13.450851117476724</ele>
        <time>2024-08-22T17:45:15.417Z</time>
      </trkpt>
      <trkpt lat="55.691945000000004" lon="12.560746666666667">
        <ele>10.950917292169883</ele>
        <time>2024-08-22T17:45:36.407Z</time>
      </trkpt>
      <trkpt lat="55.69325166666666" lon="12.560996666666664">
        <ele>7.452047767241993</ele>
        <time>2024-08-22T17:47:56.409Z</time>
      </trkpt>
      <trkpt lat="55.69584166666667" lon="12.561316666666668">
        <ele>15.754283265347254</ele>
        <time>2024-08-22T17:52:21.386Z</time>
      </trkpt>
      <trkpt lat="55.696136666666675" lon="12.561448333333333">
        <ele>13.25453907199062</ele>
        <time>2024-08-22T17:52:48.387Z</time>
      </trkpt>
      <trkpt lat="55.69630833333334" lon="12.561146666666666">
        <ele>12.154690040226484</ele>
        <time>2024-08-22T17:53:07.391Z</time>
      </trkpt>
      <trkpt lat="55.69695" lon="12.559220000000002">
        <ele>20.355175634185812</ele>
        <time>2024-08-22T17:55:12.364Z</time>
      </trkpt>
      <trkpt lat="55.69708666666667" lon="12.559034999999998">
        <ele>22.655272035255116</ele>
        <time>2024-08-22T17:55:26.360Z</time>
      </trkpt>
      <trkpt lat="55.697284999999994" lon="12.558546666666667">
        <ele>19.155437557453226</ele>
        <time>2024-08-22T17:56:07.367Z</time>
      </trkpt>
      <trkpt lat="55.697895" lon="12.556825">
        <ele>11.355911970442769</ele>
        <time>2024-08-22T17:58:12.409Z</time>
      </trkpt>
      <trkpt lat="55.698010000000004" lon="12.556706666666665">
        <ele>19.055992811024815</ele>
        <time>2024-08-22T17:58:30.416Z</time>
      </trkpt>
      <trkpt lat="55.69825833333333" lon="12.556173333333334">
        <ele>28.556184690304406</ele>
        <time>2024-08-22T17:59:07.414Z</time>
      </trkpt>
      <trkpt lat="55.698453333333326" lon="12.555653333333332">
        <ele>22.256334535280082</ele>
        <time>2024-08-22T17:59:35.380Z</time>
      </trkpt>
      <trkpt lat="55.698413333333335" lon="12.555576666666665">
        <ele>20.656304594798698</ele>
        <time>2024-08-22T17:59:54.373Z</time>
      </trkpt>
      <trkpt lat="55.69899333333333" lon="12.554381666666666">
        <ele>24.256759477345206</ele>
        <time>2024-08-22T18:01:19.368Z</time>
      </trkpt>
      <trkpt lat="55.699021666666674" lon="12.554273333333333">
        <ele>26.956782328795427</ele>
        <time>2024-08-22T18:01:33.381Z</time>
      </trkpt>
      <trkpt lat="55.69896000000001" lon="12.554273333333333">
        <ele>25.55673166111577</ele>
        <time>2024-08-22T18:01:44.371Z</time>
      </trkpt>
      <trkpt lat="55.69902833333334" lon="12.55411">
        <ele>22.55677979954433</ele>
        <time>2024-08-22T18:01:56.409Z</time>
      </trkpt>
      <trkpt lat="55.699149999999996" lon="12.554026666666667">
        <ele>17.85687499358331</ele>
        <time>2024-08-22T18:02:11.414Z</time>
      </trkpt>
      <trkpt lat="55.69950666666667" lon="12.553453333333334">
        <ele>16.45716324867184</ele>
        <time>2024-08-22T18:02:57.417Z</time>
      </trkpt>
      <trkpt lat="55.70023333333334" lon="12.552553333333332">
        <ele>18.357753242812535</ele>
        <time>2024-08-22T18:04:24.414Z</time>
      </trkpt>
      <trkpt lat="55.70044500000001" lon="12.552161666666667">
        <ele>22.257929881114805</ele>
        <time>2024-08-22T18:05:06.410Z</time>
      </trkpt>
      <trkpt lat="55.700540000000004" lon="12.552164999999999">
        <ele>23.4579417132666</ele>
        <time>2024-08-22T18:05:25.378Z</time>
      </trkpt>
      <trkpt lat="55.701055" lon="12.55148">
        <ele>21.058427748325784</ele>
        <time>2024-08-22T18:06:26.383Z</time>
      </trkpt>
      <trkpt lat="55.70182" lon="12.550296666666668">
        <ele>10.259036942422291</ele>
        <time>2024-08-22T18:08:01.419Z</time>
      </trkpt>
      <trkpt lat="55.702038333333334" lon="12.550206666666668">
        <ele>3.3592166466012543</ele>
        <time>2024-08-22T18:08:23.403Z</time>
      </trkpt>
      <trkpt lat="55.70232333333333" lon="12.54968">
        <ele>9.859442440171179</ele>
        <time>2024-08-22T18:08:52.373Z</time>
      </trkpt>
      <trkpt lat="55.70227333333334" lon="12.549511666666668">
        <ele>15.359404449795335</ele>
        <time>2024-08-22T18:09:04.370Z</time>
      </trkpt>
      <trkpt lat="55.70256666666668" lon="12.548938333333334">
        <ele>7.559632760912187</ele>
        <time>2024-08-22T18:09:45.377Z</time>
      </trkpt>
      <trkpt lat="55.70243333333333" lon="12.548575000000001">
        <ele>13.15950476113003</ele>
        <time>2024-08-22T18:10:09.367Z</time>
      </trkpt>
      <trkpt lat="55.702353333333335" lon="12.548558333333336">
        <ele>13.059434393532094</ele>
        <time>2024-08-22T18:10:14.390Z</time>
      </trkpt>
      <trkpt lat="55.702308333333335" lon="12.548393333333335">
        <ele>10.659381460910296</ele>
        <time>2024-08-22T18:10:24.386Z</time>
      </trkpt>
      <trkpt lat="55.70217833333333" lon="12.548241666666668">
        <ele>13.759260008919874</ele>
        <time>2024-08-22T18:10:46.412Z</time>
      </trkpt>
      <trkpt lat="55.702325" lon="12.547966666666666">
        <ele>19.359372737745126</ele>
        <time>2024-08-22T18:11:06.972Z</time>
      </trkpt>
      <trkpt lat="55.702104999999996" lon="12.547448333333334">
        <ele>12.52770674028539</ele>
        <time>2024-08-22T18:12:15.607Z</time>
      </trkpt>
      <trkpt lat="55.70235758433222" lon="12.547633774828796">
        <ele>13.100000000000364</ele>
        <time>2024-08-22T18:13:28.833Z</time>
      </trkpt>
      <trkpt lat="55.702243333333335" lon="12.548284999999998">
        <ele>13.442734097294478</ele>
        <time>2024-08-22T18:14:33.644Z</time>
      </trkpt>
      <trkpt lat="55.70260499999999" lon="12.548891666666668">
        <ele>23.05966008536415</ele>
        <time>2024-08-22T19:57:08.406Z</time>
      </trkpt>
      <trkpt lat="55.70259666666667" lon="12.549036666666666">
        <ele>23.159661861183295</ele>
        <time>2024-08-22T19:57:57.403Z</time>
      </trkpt>
      <trkpt lat="55.70151333333333" lon="12.550976666666667">
        <ele>10.858812465989317</ele>
        <time>2024-08-22T20:00:16.406Z</time>
      </trkpt>
      <trkpt lat="55.701078333333335" lon="12.551619999999998">
        <ele>8.658462402118737</ele>
        <time>2024-08-22T20:01:04.401Z</time>
      </trkpt>
      <trkpt lat="55.69947666666667" lon="12.553578333333332">
        <ele>12.75715467036219</ele>
        <time>2024-08-22T20:03:59.412Z</time>
      </trkpt>
      <trkpt lat="55.699221666666666" lon="12.55362">
        <ele>3.0569405915309105</ele>
        <time>2024-08-22T20:04:25.410Z</time>
      </trkpt>
      <trkpt lat="55.698274999999995" lon="12.555784999999998">
        <ele>20.256199459089935</ele>
        <time>2024-08-22T20:06:12.384Z</time>
      </trkpt>
      <trkpt lat="55.69724166666666" lon="12.555896666666667">
        <ele>32.55531573819751</ele>
        <time>2024-08-22T20:07:40.397Z</time>
      </trkpt>
      <trkpt lat="55.69714666666667" lon="12.555993333333333">
        <ele>27.055242608078075</ele>
        <time>2024-08-22T20:07:59.390Z</time>
      </trkpt>
      <trkpt lat="55.69543999999999" lon="12.556288333333335">
        <ele>20.253771424062464</ele>
        <time>2024-08-22T20:10:32.389Z</time>
      </trkpt>
      <trkpt lat="55.69532833333333" lon="12.55648333333333">
        <ele>19.45367683358773</ele>
        <time>2024-08-22T20:10:46.360Z</time>
      </trkpt>
      <trkpt lat="55.69536166666667" lon="12.556500000000002">
        <ele>19.253703337302916</ele>
        <time>2024-08-22T20:11:02.400Z</time>
      </trkpt>
      <trkpt lat="55.695190000000004" lon="12.55652833333333">
        <ele>18.75356917307186</ele>
        <time>2024-08-22T20:11:14.390Z</time>
      </trkpt>
      <trkpt lat="55.694655" lon="12.556538333333332">
        <ele>20.95308848482022</ele>
        <time>2024-08-22T20:12:41.364Z</time>
      </trkpt>
      <trkpt lat="55.693155" lon="12.556299999999998">
        <ele>15.651790306404727</ele>
        <time>2024-08-22T20:15:26.357Z</time>
      </trkpt>
      <trkpt lat="55.69303166666667" lon="12.556383333333335">
        <ele>13.851678285359029</ele>
        <time>2024-08-22T20:15:44.370Z</time>
      </trkpt>
      <trkpt lat="55.69295" lon="12.556488333333334">
        <ele>12.051611698085495</ele>
        <time>2024-08-22T20:16:20.364Z</time>
      </trkpt>
      <trkpt lat="55.69298666666667" lon="12.556503333333334">
        <ele>13.551643194073023</ele>
        <time>2024-08-22T20:16:28.366Z</time>
      </trkpt>
      <trkpt lat="55.692845000000005" lon="12.556565">
        <ele>16.451527386029767</ele>
        <time>2024-08-22T20:16:48.360Z</time>
      </trkpt>
      <trkpt lat="55.69259999999999" lon="12.556859999999999">
        <ele>15.351330754370998</ele>
        <time>2024-08-22T20:17:30.410Z</time>
      </trkpt>
      <trkpt lat="55.69225166666667" lon="12.557596666666665">
        <ele>16.551065409194877</ele>
        <time>2024-08-22T20:18:29.361Z</time>
      </trkpt>
      <trkpt lat="55.692168333333335" lon="12.557449999999998">
        <ele>17.250994461489952</ele>
        <time>2024-08-22T20:18:39.364Z</time>
      </trkpt>
      <trkpt lat="55.691844999999994" lon="12.557673333333332">
        <ele>14.850714692466</ele>
        <time>2024-08-22T20:19:22.363Z</time>
      </trkpt>
      <trkpt lat="55.691176666666664" lon="12.559153333333333">
        <ele>23.55019642663489</ele>
        <time>2024-08-22T20:20:59.376Z</time>
      </trkpt>
      <trkpt lat="55.69100666666667" lon="12.559356666666668">
        <ele>26.650062534534165</ele>
        <time>2024-08-22T20:21:32.367Z</time>
      </trkpt>
      <trkpt lat="55.690464999999996" lon="12.560615">
        <ele>13.64965436195714</ele>
        <time>2024-08-22T20:22:38.400Z</time>
      </trkpt>
      <trkpt lat="55.69052" lon="12.560745">
        <ele>13.849670302763712</ele>
        <time>2024-08-22T20:22:41.400Z</time>
      </trkpt>
      <trkpt lat="55.69061666666666" lon="12.560748333333333">
        <ele>15.549771714390054</ele>
        <time>2024-08-22T20:22:49.367Z</time>
      </trkpt>
      <trkpt lat="55.69055166666667" lon="12.560976666666667">
        <ele>11.849723790434112</ele>
        <time>2024-08-22T20:23:45.383Z</time>
      </trkpt>
      <trkpt lat="55.690693333333336" lon="12.561106666666667">
        <ele>9.649848863613393</ele>
        <time>2024-08-22T20:24:00.363Z</time>
      </trkpt>
      <trkpt lat="55.69074166666666" lon="12.56126">
        <ele>11.64990336167589</ele>
        <time>2024-08-22T20:24:09.358Z</time>
      </trkpt>
      <trkpt lat="55.69026999999999" lon="12.562118333333334">
        <ele>22.749537376026225</ele>
        <time>2024-08-22T20:25:21.412Z</time>
      </trkpt>
      <trkpt lat="55.689875" lon="12.562981666666667">
        <ele>23.749223592881805</ele>
        <time>2024-08-22T20:26:13.373Z</time>
      </trkpt>
      <trkpt lat="55.68989333333334" lon="12.563049999999999">
        <ele>22.549241238823598</ele>
        <time>2024-08-22T20:26:23.367Z</time>
      </trkpt>
      <trkpt lat="55.68976166666666" lon="12.563368333333335">
        <ele>17.149143099505345</ele>
        <time>2024-08-22T20:26:50.363Z</time>
      </trkpt>
      <trkpt lat="55.68957333333333" lon="12.563126666666669">
        <ele>15.848977391721988</ele>
        <time>2024-08-22T20:27:16.360Z</time>
      </trkpt>
      <trkpt lat="55.68961833333333" lon="12.563028333333333">
        <ele>17.14900642646647</ele>
        <time>2024-08-22T20:27:26.370Z</time>
      </trkpt>
      <trkpt lat="55.689588333333326" lon="12.563145">
        <ele>16.84898306487677</ele>
        <time>2024-08-22T20:27:42.364Z</time>
      </trkpt>
      <trkpt lat="55.689613333333334" lon="12.563105">
        <ele>16.948981756017275</ele>
        <time>2024-08-22T20:27:48.366Z</time>
      </trkpt>
      <trkpt lat="55.68892833333333" lon="12.562348333333334">
        <ele>7.148384301353232</ele>
        <time>2024-08-22T20:29:13.363Z</time>
      </trkpt>
      <trkpt lat="55.688725000000005" lon="12.562653333333333">
        <ele>15.348227562408432</ele>
        <time>2024-08-22T20:29:35.407Z</time>
      </trkpt>
      <trkpt lat="55.688291666666665" lon="12.563640000000001">
        <ele>9.947890174776482</ele>
        <time>2024-08-22T20:30:42.383Z</time>
      </trkpt>
      <trkpt lat="55.68819" lon="12.563736666666667">
        <ele>9.947805435612104</ele>
        <time>2024-08-22T20:30:53.386Z</time>
      </trkpt>
      <trkpt lat="55.68810333333332" lon="12.563746666666669">
        <ele>9.947729978513841</ele>
        <time>2024-08-22T20:31:13.367Z</time>
      </trkpt>
      <trkpt lat="55.688021666666664" lon="12.563505000000001">
        <ele>7.747663073619336</ele>
        <time>2024-08-22T20:31:26.367Z</time>
      </trkpt>
      <trkpt lat="55.68756833333334" lon="12.562966666666666">
        <ele>6.747257594366474</ele>
        <time>2024-08-22T20:32:34.387Z</time>
      </trkpt>
      <trkpt lat="55.68737333333333" lon="12.56315">
        <ele>6.947085620010263</ele>
        <time>2024-08-22T20:32:50.376Z</time>
      </trkpt>
      <trkpt lat="55.68711833333334" lon="12.563055">
        <ele>11.646855274733504</ele>
        <time>2024-08-22T20:33:38.367Z</time>
      </trkpt>
      <trkpt lat="55.686321666666664" lon="12.564961666666667">
        <ele>9.946239714287792</ele>
        <time>2024-08-22T20:35:44.366Z</time>
      </trkpt>
      <trkpt lat="55.68635166666666" lon="12.565003333333333">
        <ele>9.546269423397206</ele>
        <time>2024-08-22T20:35:50.364Z</time>
      </trkpt>
      <trkpt lat="55.68629666666667" lon="12.565198333333335">
        <ele>11.346233673087681</ele>
        <time>2024-08-22T20:36:13.383Z</time>
      </trkpt>
      <trkpt lat="55.68602666666667" lon="12.564945">
        <ele>7.24599530615918</ele>
        <time>2024-08-22T20:36:32.391Z</time>
      </trkpt>
      <trkpt lat="55.68587666666667" lon="12.565374999999998">
        <ele>7.445885562994718</ele>
        <time>2024-08-22T20:36:54.389Z</time>
      </trkpt>
      <trkpt lat="55.68555500000001" lon="12.564986666666668">
        <ele>5.845586049765345</ele>
        <time>2024-08-22T20:37:31.370Z</time>
      </trkpt>
      <trkpt lat="55.68550333333333" lon="12.565018333333335">
        <ele>10.045542895502159</ele>
        <time>2024-08-22T20:37:39.393Z</time>
      </trkpt>
      <trkpt lat="55.68473666666667" lon="12.566343333333334">
        <ele>28.644941801288297</ele>
        <time>2024-08-22T20:39:16.403Z</time>
      </trkpt>
      <trkpt lat="55.68474833333333" lon="12.566519999999999">
        <ele>27.744955729149304</ele>
        <time>2024-08-22T20:39:27.406Z</time>
      </trkpt>
      <trkpt lat="55.68469833333334" lon="12.566571666666668">
        <ele>24.744915329520616</ele>
        <time>2024-08-22T20:39:33.374Z</time>
      </trkpt>
      <trkpt lat="55.68464666666667" lon="12.566489999999998">
        <ele>26.14486655712193</ele>
        <time>2024-08-22T20:39:45.370Z</time>
      </trkpt>
      <trkpt lat="55.68428000000001" lon="12.567183333333332">
        <ele>26.14457609947207</ele>
        <time>2024-08-22T20:40:29.383Z</time>
      </trkpt>
      <trkpt lat="55.68324166666666" lon="12.566186666666665">
        <ele>11.343640761204384</ele>
        <time>2024-08-22T20:42:18.381Z</time>
      </trkpt>
      <trkpt lat="55.683119999999995" lon="12.566365">
        <ele>13.143554823111685</ele>
        <time>2024-08-22T20:42:29.383Z</time>
      </trkpt>
      <trkpt lat="55.68290166666667" lon="12.566321666666665">
        <ele>12.143358535987943</ele>
        <time>2024-08-22T20:42:56.361Z</time>
      </trkpt>
      <trkpt lat="55.682930000000006" lon="12.566234999999999">
        <ele>11.043381833676037</ele>
        <time>2024-08-22T20:43:06.406Z</time>
      </trkpt>
      <trkpt lat="55.68288333333333" lon="12.566161666666668">
        <ele>11.743345811351155</ele>
        <time>2024-08-22T20:43:11.393Z</time>
      </trkpt>
      <trkpt lat="55.682626666666664" lon="12.565933333333332">
        <ele>13.44311012922087</ele>
        <time>2024-08-22T20:43:43.419Z</time>
      </trkpt>
      <trkpt lat="55.680995" lon="12.564703333333334">
        <ele>7.141662309683767</ele>
        <time>2024-08-22T20:46:36.406Z</time>
      </trkpt>
      <trkpt lat="55.681" lon="12.564633333333331">
        <ele>7.441653134486934</ele>
        <time>2024-08-22T20:47:01.360Z</time>
      </trkpt>
      <trkpt lat="55.67985166666667" lon="12.563861666666666">
        <ele>7.4406328811797025</ele>
        <time>2024-08-22T20:48:51.409Z</time>
      </trkpt>
      <trkpt lat="55.679880000000004" lon="12.563946666666668">
        <ele>8.940655197952928</ele>
        <time>2024-08-22T20:49:00.357Z</time>
      </trkpt>
      <trkpt lat="55.679553333333324" lon="12.563813333333334">
        <ele>11.140389737423263</ele>
        <time>2024-08-22T20:49:35.422Z</time>
      </trkpt>
      <trkpt lat="55.679095000000004" lon="12.563246666666664">
        <ele>13.43995680825158</ele>
        <time>2024-08-22T20:50:18.416Z</time>
      </trkpt>
      <trkpt lat="55.67841166666667" lon="12.562793333333332">
        <ele>22.43934246087926</ele>
        <time>2024-08-22T20:51:17.406Z</time>
      </trkpt>
      <trkpt lat="55.677715000000006" lon="12.562551666666666">
        <ele>19.338729572119078</ele>
        <time>2024-08-22T20:52:20.420Z</time>
      </trkpt>
      <trkpt lat="55.67767166666666" lon="12.562548333333332">
        <ele>18.238703658122077</ele>
        <time>2024-08-22T20:52:25.426Z</time>
      </trkpt>
      <trkpt lat="55.677726666666665" lon="12.562563333333333">
        <ele>17.138703745659676</ele>
        <time>2024-08-22T20:52:28.364Z</time>
      </trkpt>
      <trkpt lat="55.67771333333334" lon="12.562683333333332">
        <ele>15.338732805520664</ele>
        <time>2024-08-22T20:52:30.376Z</time>
      </trkpt>
      <trkpt lat="55.67730333333334" lon="12.563616666666666">
        <ele>6.338414720009617</ele>
        <time>2024-08-22T20:54:39.371Z</time>
      </trkpt>
      <trkpt lat="55.67722333333333" lon="12.563550000000001">
        <ele>8.238355403030873</ele>
        <time>2024-08-22T20:54:50.406Z</time>
      </trkpt>
      <trkpt lat="55.67682166666667" lon="12.563640000000001">
        <ele>7.438018907081535</ele>
        <time>2024-08-22T20:55:24.389Z</time>
      </trkpt>
      <trkpt lat="55.67638166666667" lon="12.564005000000002">
        <ele>17.83765217331304</ele>
        <time>2024-08-22T20:56:10.429Z</time>
      </trkpt>
      <trkpt lat="55.67643833333333" lon="12.564093333333336">
        <ele>19.53770152160545</ele>
        <time>2024-08-22T20:56:23.420Z</time>
      </trkpt>
      <trkpt lat="55.676318333333334" lon="12.564093333333336">
        <ele>17.23759542675954</ele>
        <time>2024-08-22T20:56:36.361Z</time>
      </trkpt>
      <trkpt lat="55.675979999999996" lon="12.564476666666668">
        <ele>13.237334102782668</ele>
        <time>2024-08-22T20:57:40.403Z</time>
      </trkpt>
      <trkpt lat="55.67587333333333" lon="12.564484999999998">
        <ele>13.037233211782116</ele>
        <time>2024-08-22T20:57:51.407Z</time>
      </trkpt>
      <trkpt lat="55.67574666666666" lon="12.564651666666668">
        <ele>12.837136103312275</ele>
        <time>2024-08-22T20:58:04.370Z</time>
      </trkpt>
      <trkpt lat="55.675663333333326" lon="12.564906666666666">
        <ele>18.437079131448833</ele>
        <time>2024-08-22T20:58:26.416Z</time>
      </trkpt>
      <trkpt lat="55.67547166666667" lon="12.564855">
        <ele>32.73690174094656</ele>
        <time>2024-08-22T20:59:20.361Z</time>
      </trkpt>
      <trkpt lat="55.67533" lon="12.564975">
        <ele>35.836792727371034</ele>
        <time>2024-08-22T20:59:50.419Z</time>
      </trkpt>
      <trkpt lat="55.675445" lon="12.565366666666668">
        <ele>37.736863077126706</ele>
        <time>2024-08-22T21:00:35.407Z</time>
      </trkpt>
      <trkpt lat="55.67526333333333" lon="12.565296666666665">
        <ele>40.23677643484924</ele>
        <time>2024-08-22T21:00:54.387Z</time>
      </trkpt>
      <trkpt lat="55.67518833333334" lon="12.565363333333334">
        <ele>33.83669503491558</ele>
        <time>2024-08-22T21:01:04.371Z</time>
      </trkpt>
      <trkpt lat="55.67515333333334" lon="12.565273333333334">
        <ele>30.336651229396175</ele>
        <time>2024-08-22T21:01:12.357Z</time>
      </trkpt>
      <trkpt lat="55.67474666666667" lon="12.565515000000001">
        <ele>10.236315056488401</ele>
        <time>2024-08-22T21:02:25.390Z</time>
      </trkpt>
      <trkpt lat="55.67554499999999" lon="12.56782">
        <ele>10.537109298972851</ele>
        <time>2024-08-22T21:05:46.367Z</time>
      </trkpt>
      <trkpt lat="55.67528833333334" lon="12.567143333333336">
        <ele>5.736864386796526</ele>
        <time>2024-08-22T21:06:46.413Z</time>
      </trkpt>
      <trkpt lat="55.675155" lon="12.567029999999999">
        <ele>4.736746961126514</ele>
        <time>2024-08-22T21:06:58.413Z</time>
      </trkpt>
      <trkpt lat="55.67491666666667" lon="12.566315000000001">
        <ele>10.736506835392873</ele>
        <time>2024-08-22T21:07:37.419Z</time>
      </trkpt>
      <trkpt lat="55.674974999999996" lon="12.566223333333335">
        <ele>9.93652707399599</ele>
        <time>2024-08-22T21:07:56.406Z</time>
      </trkpt>
      <trkpt lat="55.67489833333334" lon="12.565734999999998">
        <ele>14.736454004488259</ele>
        <time>2024-08-22T21:08:24.364Z</time>
      </trkpt>
      <trkpt lat="55.67459" lon="12.564895000000002">
        <ele>10.636148806720271</ele>
        <time>2024-08-22T21:09:22.400Z</time>
      </trkpt>
      <trkpt lat="55.67453666666667" lon="12.564895000000002">
        <ele>11.536103934773458</ele>
        <time>2024-08-22T21:09:27.416Z</time>
      </trkpt>
      <trkpt lat="55.674380000000006" lon="12.564555">
        <ele>12.835952942350751</ele>
        <time>2024-08-22T21:09:58.373Z</time>
      </trkpt>
      <trkpt lat="55.67386833333333" lon="12.565055">
        <ele>23.33554165154748</ele>
        <time>2024-08-22T21:10:47.407Z</time>
      </trkpt>
      <trkpt lat="55.67372999999999" lon="12.564883333333334">
        <ele>14.035410028862472</ele>
        <time>2024-08-22T21:11:01.368Z</time>
      </trkpt>
      <trkpt lat="55.67363833333334" lon="12.564638333333335">
        <ele>7.335321454778942</ele>
        <time>2024-08-22T21:11:13.368Z</time>
      </trkpt>
      <trkpt lat="55.673649999999995" lon="12.564516666666668">
        <ele>9.135313680248629</ele>
        <time>2024-08-22T21:11:25.353Z</time>
      </trkpt>
      <trkpt lat="55.673458333333336" lon="12.564615">
        <ele>9.335167238718164</ele>
        <time>2024-08-22T21:11:54.386Z</time>
      </trkpt>
      <trkpt lat="55.673253333333335" lon="12.564410000000002">
        <ele>6.934977630816448</ele>
        <time>2024-08-22T21:12:15.390Z</time>
      </trkpt>
      <trkpt lat="55.67243166666667" lon="12.564580000000001">
        <ele>0.6759070910937341</ele>
        <time>2024-08-22T21:22:37.506Z</time>
      </trkpt>
      <trkpt lat="55.67270499999999" lon="12.565539999999999">
        <ele>12.434556898191921</ele>
        <time>2024-08-22T21:24:13.410Z</time>
      </trkpt>
    </trkseg>
  </trk>
</gpx>
