<?xml version="1.0" encoding="UTF-8"?>
<gpx version="1.1" creator="Export" xmlns="http://www.topografix.com/GPX/1/1" xmlns:xsi="http://www.w3.org/2001/XMLSchema-instance" xsi:schemaLocation="http://www.topografix.com/GPX/1/1 http://www.topografix.com/GPX/1/1/gpx.xsd http://www.garmin.com/xmlschemas/GpxExtensions/v3 http://www.garmin.com/xmlschemas/GpxExtensionsv3.xsd http://www.garmin.com/xmlschemas/TrackPointExtension/v1 http://www.garmin.com/xmlschemas/TrackPointExtensionv1.xsd http://www.garmin.com/xmlschemas/PowerExtension/v1 http://www.garmin.com/xmlschemas/PowerExtensionv1.xsd http://www.topografix.com/GPX/gpx_style/0/2 http://www.topografix.com/GPX/gpx_style/0/2/gpx_style.xsd" xmlns:gpxtpx="http://www.garmin.com/xmlschemas/TrackPointExtension/v1" xmlns:gpxx="http://www.garmin.com/xmlschemas/GpxExtensions/v3" xmlns:gpxpx="http://www.garmin.com/xmlschemas/PowerExtension/v1" xmlns:gpx_style="http://www.topografix.com/GPX/gpx_style/0/2">
  <metadata>
    <name>activity_194_2024-09-08</name>
    <author>
      <name>gpx.studio</name>
      <link href="https://gpx.studio"/>
    </author>
  </metadata>
  <wpt lat="37.389761" lon="-5.989095">
    <ele>21.531744750421993</ele>
    <name>Taberna Aguilas</name>
    <sym>Restaurant</sym>
  </wpt>
  <wpt lat="37.395763" lon="-6.000889">
    <ele>12.112748412206248</ele>
    <name>Hostel</name>
    <sym>Lodging</sym>
  </wpt>
  <trk>
    <name>activity_194_2024-09-08</name>
    <trkseg>
      <trkpt lat="37.39196833333333" lon="-5.977383333333334">
        <ele>19.296398141858184</ele>
        <time>2024-09-08T17:15:11.075Z</time>
      </trkpt>
      <trkpt lat="37.391841666666664" lon="-5.977786666666667">
        <ele>20.598412092726477</ele>
        <time>2024-09-08T17:15:43.062Z</time>
      </trkpt>
      <trkpt lat="37.39208833333333" lon="-5.977946666666666">
        <ele>22.999781627151535</ele>
        <time>2024-09-08T17:16:07.075Z</time>
      </trkpt>
      <trkpt lat="37.392043333333326" lon="-5.978163333333333">
        <ele>24.3008654461075</ele>
        <time>2024-09-08T17:16:30.062Z</time>
      </trkpt>
      <trkpt lat="37.39209166666667" lon="-5.978676666666667">
        <ele>18.903807748317035</ele>
        <time>2024-09-08T17:17:21.048Z</time>
      </trkpt>
      <trkpt lat="37.392761666666665" lon="-5.98009">
        <ele>9.312816954986602</ele>
        <time>2024-09-08T17:19:44.092Z</time>
      </trkpt>
      <trkpt lat="37.392770000000006" lon="-5.980354999999999">
        <ele>16.814248706550003</ele>
        <time>2024-09-08T17:19:59.092Z</time>
      </trkpt>
      <trkpt lat="37.39287" lon="-5.9804216666666665">
        <ele>19.91491251122806</ele>
        <time>2024-09-08T17:20:11.059Z</time>
      </trkpt>
      <trkpt lat="37.39294333333333" lon="-5.980625">
        <ele>23.316134720668742</ele>
        <time>2024-09-08T17:21:48.075Z</time>
      </trkpt>
      <trkpt lat="37.39290166666667" lon="-5.980471666666666">
        <ele>25.515245228806606</ele>
        <time>2024-09-08T17:22:09.076Z</time>
      </trkpt>
      <trkpt lat="37.392966666666666" lon="-5.980568333333334">
        <ele>24.41581087195899</ele>
        <time>2024-09-08T17:22:30.104Z</time>
      </trkpt>
      <trkpt lat="37.39315166666667" lon="-5.981105">
        <ele>20.719118811568904</ele>
        <time>2024-09-08T17:23:17.058Z</time>
      </trkpt>
      <trkpt lat="37.393276666666665" lon="-5.981273333333333">
        <ele>15.720283783561264</ele>
        <time>2024-09-08T17:23:40.059Z</time>
      </trkpt>
      <trkpt lat="37.394194999999996" lon="-5.983371666666667">
        <ele>11.133600840203187</ele>
        <time>2024-09-08T17:26:40.089Z</time>
      </trkpt>
      <trkpt lat="37.39387166666667" lon="-5.983625000000001">
        <ele>16.134325899527504</ele>
        <time>2024-09-08T17:27:24.085Z</time>
      </trkpt>
      <trkpt lat="37.39322" lon="-5.983778333333333">
        <ele>9.133945403369893</ele>
        <time>2024-09-08T17:28:32.062Z</time>
      </trkpt>
      <trkpt lat="37.39320333333333" lon="-5.984071666666667">
        <ele>22.43550133675781</ele>
        <time>2024-09-08T17:29:08.088Z</time>
      </trkpt>
      <trkpt lat="37.393058333333336" lon="-5.984093333333334">
        <ele>20.735329582564034</ele>
        <time>2024-09-08T17:29:41.092Z</time>
      </trkpt>
      <trkpt lat="37.39327" lon="-5.984728333333334">
        <ele>14.23919644714448</ele>
        <time>2024-09-08T17:30:29.098Z</time>
      </trkpt>
      <trkpt lat="37.39308166666667" lon="-5.984893333333334">
        <ele>12.239793305687328</ele>
        <time>2024-09-08T17:31:06.059Z</time>
      </trkpt>
      <trkpt lat="37.39317333333334" lon="-5.984908333333334">
        <ele>16.44001542384501</ele>
        <time>2024-09-08T17:31:18.066Z</time>
      </trkpt>
      <trkpt lat="37.39329333333333" lon="-5.9851116666666675">
        <ele>18.341317234570383</ele>
        <time>2024-09-08T17:31:38.072Z</time>
      </trkpt>
      <trkpt lat="37.393296666666664" lon="-5.985241666666667">
        <ele>18.642036943850087</ele>
        <time>2024-09-08T17:31:49.078Z</time>
      </trkpt>
      <trkpt lat="37.392968333333336" lon="-5.986253333333334">
        <ele>20.646990533139657</ele>
        <time>2024-09-08T17:33:16.058Z</time>
      </trkpt>
      <trkpt lat="37.39303833333334" lon="-5.986366666666667">
        <ele>22.647749258693445</ele>
        <time>2024-09-08T17:33:39.089Z</time>
      </trkpt>
      <trkpt lat="37.39297" lon="-5.986593333333333">
        <ele>20.048795379588697</ele>
        <time>2024-09-08T17:34:26.082Z</time>
      </trkpt>
      <trkpt lat="37.393069999999994" lon="-5.987031666666667">
        <ele>13.651367036180702</ele>
        <time>2024-09-08T17:35:05.088Z</time>
      </trkpt>
      <trkpt lat="37.393035000000005" lon="-5.987365">
        <ele>14.75320735695675</ele>
        <time>2024-09-08T17:35:47.095Z</time>
      </trkpt>
      <trkpt lat="37.39309" lon="-5.987393333333333">
        <ele>15.253436204193193</ele>
        <time>2024-09-08T17:35:57.092Z</time>
      </trkpt>
      <trkpt lat="37.39290833333334" lon="-5.9879750000000005">
        <ele>20.556238734478704</ele>
        <time>2024-09-08T17:37:07.082Z</time>
      </trkpt>
      <trkpt lat="37.39291" lon="-5.988366666666667">
        <ele>19.358391500528064</ele>
        <time>2024-09-08T17:37:42.049Z</time>
      </trkpt>
      <trkpt lat="37.39300333333333" lon="-5.988473333333333">
        <ele>28.359056057351985</ele>
        <time>2024-09-08T17:38:03.088Z</time>
      </trkpt>
      <trkpt lat="37.39285666666667" lon="-5.988619999999999">
        <ele>19.559682584886467</ele>
        <time>2024-09-08T17:38:19.068Z</time>
      </trkpt>
      <trkpt lat="37.392495000000004" lon="-5.989458333333332">
        <ele>7.463571872157075</ele>
        <time>2024-09-08T17:39:35.055Z</time>
      </trkpt>
      <trkpt lat="37.392606666666666" lon="-5.989573333333334">
        <ele>15.76430555122328</ele>
        <time>2024-09-08T17:40:14.082Z</time>
      </trkpt>
      <trkpt lat="37.392491666666665" lon="-5.989626666666667">
        <ele>18.06441413241093</ele>
        <time>2024-09-08T17:40:26.085Z</time>
      </trkpt>
      <trkpt lat="37.39256" lon="-5.989815">
        <ele>19.96553928899985</ele>
        <time>2024-09-08T17:40:35.089Z</time>
      </trkpt>
      <trkpt lat="37.39239094902288" lon="-5.990530670044819">
        <ele>21.973229001602537</ele>
        <time>2024-09-08T17:42:07.328Z</time>
      </trkpt>
      <trkpt lat="37.39249346137052" lon="-5.990537186628558">
        <ele>22.613897931947665</ele>
        <time>2024-09-08T17:42:17.901Z</time>
      </trkpt>
      <trkpt lat="37.392561666666666" lon="-5.991538333333334">
        <ele>21.279135312978738</ele>
        <time>2024-09-08T17:43:40.136Z</time>
      </trkpt>
      <trkpt lat="37.39236666666667" lon="-5.991553333333333">
        <ele>12.474740742151162</ele>
        <time>2024-09-08T17:58:56.059Z</time>
      </trkpt>
      <trkpt lat="37.39227" lon="-5.991441666666667">
        <ele>17.174035720787792</ele>
        <time>2024-09-08T17:59:09.072Z</time>
      </trkpt>
      <trkpt lat="37.392195" lon="-5.991016666666667">
        <ele>20.97155019066396</ele>
        <time>2024-09-08T17:59:41.092Z</time>
      </trkpt>
      <trkpt lat="37.392245" lon="-5.990646666666667">
        <ele>34.56975353634595</ele>
        <time>2024-09-08T18:00:18.052Z</time>
      </trkpt>
      <trkpt lat="37.39215333333333" lon="-5.990499999999999">
        <ele>29.768674279202855</ele>
        <time>2024-09-08T18:00:37.089Z</time>
      </trkpt>
      <trkpt lat="37.39164666666667" lon="-5.990466666666666">
        <ele>21.867463627151054</ele>
        <time>2024-09-08T18:01:18.072Z</time>
      </trkpt>
      <trkpt lat="37.391553333333334" lon="-5.989956666666666">
        <ele>12.364558964161247</ele>
        <time>2024-09-08T18:01:59.066Z</time>
      </trkpt>
      <trkpt lat="37.391355" lon="-5.989938333333333">
        <ele>23.66400791365649</ele>
        <time>2024-09-08T18:02:22.055Z</time>
      </trkpt>
      <trkpt lat="37.39140666666666" lon="-5.989796666666666">
        <ele>22.563360793605455</ele>
        <time>2024-09-08T18:02:44.059Z</time>
      </trkpt>
      <trkpt lat="37.391355" lon="-5.989545">
        <ele>21.06190514448904</ele>
        <time>2024-09-08T18:03:21.055Z</time>
      </trkpt>
      <trkpt lat="37.39074333333333" lon="-5.988605">
        <ele>7.755580797207664</ele>
        <time>2024-09-08T18:04:46.053Z</time>
      </trkpt>
      <trkpt lat="37.390634999999996" lon="-5.9886066666666675">
        <ele>21.355374189199594</ele>
        <time>2024-09-08T18:05:07.059Z</time>
      </trkpt>
      <trkpt lat="37.39056166666667" lon="-5.988878333333334">
        <ele>18.15669816808301</ele>
        <time>2024-09-08T18:05:27.156Z</time>
      </trkpt>
      <trkpt lat="37.38975518466472" lon="-5.989088652310045">
        <ele>21.494054167656746</ele>
        <time>2024-09-08T18:06:43.306Z</time>
      </trkpt>
      <trkpt lat="37.3898455200618" lon="-5.989092121660434">
        <ele>21.966515336442285</ele>
        <time>2024-09-08T18:06:51.780Z</time>
      </trkpt>
      <trkpt lat="37.390056666666666" lon="-5.99021">
        <ele>17.562899502201567</ele>
        <time>2024-09-08T18:40:55.095Z</time>
      </trkpt>
      <trkpt lat="37.39024666666667" lon="-5.990461666666666">
        <ele>26.864685648488596</ele>
        <time>2024-09-08T18:41:19.078Z</time>
      </trkpt>
      <trkpt lat="37.39020333333334" lon="-5.99063">
        <ele>34.76551284300175</ele>
        <time>2024-09-08T18:41:38.078Z</time>
      </trkpt>
      <trkpt lat="37.39039666666667" lon="-5.9907916666666665">
        <ele>30.266762661740685</ele>
        <time>2024-09-08T18:42:06.073Z</time>
      </trkpt>
      <trkpt lat="37.39045" lon="-5.9910250000000005">
        <ele>37.968142878860434</ele>
        <time>2024-09-08T18:42:28.066Z</time>
      </trkpt>
      <trkpt lat="37.39033166666666" lon="-5.991150000000001">
        <ele>30.268657378349026</ele>
        <time>2024-09-08T18:43:05.068Z</time>
      </trkpt>
      <trkpt lat="37.38983666666666" lon="-5.991253333333333">
        <ele>34.86829360648148</ele>
        <time>2024-09-08T18:43:51.072Z</time>
      </trkpt>
      <trkpt lat="37.389831666666666" lon="-5.992069999999999">
        <ele>27.97264019231269</ele>
        <time>2024-09-08T18:45:27.056Z</time>
      </trkpt>
      <trkpt lat="37.38975833333333" lon="-5.992378333333333">
        <ele>22.074226769551665</ele>
        <time>2024-09-08T18:46:05.066Z</time>
      </trkpt>
      <trkpt lat="37.38939333333334" lon="-5.992546666666668">
        <ele>20.874483771782835</ele>
        <time>2024-09-08T18:46:39.066Z</time>
      </trkpt>
      <trkpt lat="37.388823333333335" lon="-5.9926">
        <ele>27.773707103796966</ele>
        <time>2024-09-08T18:47:56.068Z</time>
      </trkpt>
      <trkpt lat="37.38871666666667" lon="-5.992771666666666">
        <ele>28.374385243941447</ele>
        <time>2024-09-08T18:48:10.066Z</time>
      </trkpt>
      <trkpt lat="37.38849666666667" lon="-5.992831666666666">
        <ele>31.07433215882974</ele>
        <time>2024-09-08T18:48:33.065Z</time>
      </trkpt>
      <trkpt lat="37.388085000000004" lon="-5.992818333333334">
        <ele>22.173456748179355</ele>
        <time>2024-09-08T18:49:10.062Z</time>
      </trkpt>
      <trkpt lat="37.38785" lon="-5.9927183333333325">
        <ele>29.872492193421216</ele>
        <time>2024-09-08T18:49:49.066Z</time>
      </trkpt>
      <trkpt lat="37.3872" lon="-5.992841666666667">
        <ele>19.471933706287047</ele>
        <time>2024-09-08T18:50:52.108Z</time>
      </trkpt>
      <trkpt lat="37.38709333333334" lon="-5.992985000000001">
        <ele>20.97248644912422</ele>
        <time>2024-09-08T18:51:10.056Z</time>
      </trkpt>
      <trkpt lat="37.386986666666665" lon="-5.9929983333333325">
        <ele>22.572375519892297</ele>
        <time>2024-09-08T18:51:23.051Z</time>
      </trkpt>
      <trkpt lat="37.38699833333333" lon="-5.9930900000000005">
        <ele>26.872878612239333</ele>
        <time>2024-09-08T18:51:52.102Z</time>
      </trkpt>
      <trkpt lat="37.38681166666667" lon="-5.992988333333333">
        <ele>21.87197819782223</ele>
        <time>2024-09-08T18:52:13.091Z</time>
      </trkpt>
      <trkpt lat="37.386738333333334" lon="-5.993336666666666">
        <ele>23.073753313457658</ele>
        <time>2024-09-08T18:52:47.089Z</time>
      </trkpt>
      <trkpt lat="37.386783333333334" lon="-5.993490000000001">
        <ele>21.074599235929824</ele>
        <time>2024-09-08T18:53:02.082Z</time>
      </trkpt>
      <trkpt lat="37.38681666666666" lon="-5.993376666666667">
        <ele>21.774097921691066</ele>
        <time>2024-09-08T18:53:17.075Z</time>
      </trkpt>
      <trkpt lat="37.387385" lon="-5.993403333333333">
        <ele>28.675356321598414</ele>
        <time>2024-09-08T18:54:08.085Z</time>
      </trkpt>
      <trkpt lat="37.38800333333334" lon="-5.993658333333333">
        <ele>16.977886311212984</ele>
        <time>2024-09-08T18:55:28.052Z</time>
      </trkpt>
      <trkpt lat="37.387926666666665" lon="-5.993706666666666">
        <ele>16.67795530529898</ele>
        <time>2024-09-08T18:56:09.059Z</time>
      </trkpt>
      <trkpt lat="37.38798666666666" lon="-5.993696666666667">
        <ele>16.278081676658587</ele>
        <time>2024-09-08T18:56:20.071Z</time>
      </trkpt>
      <trkpt lat="37.38802833333333" lon="-5.993543333333334">
        <ele>17.077355729912178</ele>
        <time>2024-09-08T18:56:39.063Z</time>
      </trkpt>
      <trkpt lat="37.388040000000004" lon="-5.993663333333334">
        <ele>15.1779283768171</ele>
        <time>2024-09-08T18:56:47.081Z</time>
      </trkpt>
      <trkpt lat="37.38821" lon="-5.9937483333333335">
        <ele>13.078778875371754</ele>
        <time>2024-09-08T18:57:14.056Z</time>
      </trkpt>
      <trkpt lat="37.38813666666667" lon="-5.994409999999999">
        <ele>15.58220791422378</ele>
        <time>2024-09-08T18:58:58.053Z</time>
      </trkpt>
      <trkpt lat="37.388353333333335" lon="-5.994801666666666">
        <ele>18.284703697518225</ele>
        <time>2024-09-08T19:00:02.058Z</time>
      </trkpt>
      <trkpt lat="37.388434999999994" lon="-5.9952">
        <ele>17.1870978908375</ele>
        <time>2024-09-08T19:00:44.085Z</time>
      </trkpt>
      <trkpt lat="37.388645" lon="-5.995299999999999">
        <ele>19.28801363884874</ele>
        <time>2024-09-08T19:01:07.055Z</time>
      </trkpt>
      <trkpt lat="37.38852833333333" lon="-5.9955766666666666">
        <ele>19.88923784221099</ele>
        <time>2024-09-08T19:01:43.055Z</time>
      </trkpt>
      <trkpt lat="37.38847666666666" lon="-5.995563333333333">
        <ele>15.589191494016212</ele>
        <time>2024-09-08T19:02:01.053Z</time>
      </trkpt>
      <trkpt lat="37.388495" lon="-5.995893333333333">
        <ele>14.290949307940487</ele>
        <time>2024-09-08T19:02:31.056Z</time>
      </trkpt>
      <trkpt lat="37.38831666666667" lon="-5.996063333333332">
        <ele>16.291599715573334</ele>
        <time>2024-09-08T19:02:51.055Z</time>
      </trkpt>
      <trkpt lat="37.388259999999995" lon="-5.996216666666667">
        <ele>15.692266744698102</ele>
        <time>2024-09-08T19:03:13.051Z</time>
      </trkpt>
      <trkpt lat="37.38812666666667" lon="-5.996278333333334">
        <ele>18.692397600037637</ele>
        <time>2024-09-08T19:03:36.042Z</time>
      </trkpt>
      <trkpt lat="37.388196666666666" lon="-5.996513333333333">
        <ele>14.693736039912487</ele>
        <time>2024-09-08T19:03:58.071Z</time>
      </trkpt>
      <trkpt lat="37.38816833333333" lon="-5.996673333333333">
        <ele>13.994586365521101</ele>
        <time>2024-09-08T19:04:12.089Z</time>
      </trkpt>
      <trkpt lat="37.38825166666666" lon="-5.997063333333333">
        <ele>16.196820032978685</ele>
        <time>2024-09-08T19:04:46.088Z</time>
      </trkpt>
      <trkpt lat="37.388299999999994" lon="-5.997134999999999">
        <ele>15.397310033639656</ele>
        <time>2024-09-08T19:04:52.082Z</time>
      </trkpt>
      <trkpt lat="37.38835666666667" lon="-5.99705">
        <ele>15.297389269324867</ele>
        <time>2024-09-08T19:04:53.085Z</time>
      </trkpt>
      <trkpt lat="37.388308333333335" lon="-5.997181666666667">
        <ele>18.997632474065796</ele>
        <time>2024-09-08T19:04:59.085Z</time>
      </trkpt>
      <trkpt lat="37.388263333333335" lon="-5.9971000000000005">
        <ele>12.197105424271527</ele>
        <time>2024-09-08T19:05:02.092Z</time>
      </trkpt>
      <trkpt lat="37.388465" lon="-5.997813333333333">
        <ele>17.601290063118086</ele>
        <time>2024-09-08T19:06:10.085Z</time>
      </trkpt>
      <trkpt lat="37.388745" lon="-5.9983483333333325">
        <ele>16.104836717713823</ele>
        <time>2024-09-08T19:07:00.065Z</time>
      </trkpt>
      <trkpt lat="37.388641666666665" lon="-5.998536666666666">
        <ele>12.205619079598165</ele>
        <time>2024-09-08T19:07:22.052Z</time>
      </trkpt>
      <trkpt lat="37.38845833333333" lon="-5.998630000000001">
        <ele>8.90578084855759</ele>
        <time>2024-09-08T19:07:44.092Z</time>
      </trkpt>
      <trkpt lat="37.388371666666664" lon="-5.998853333333333">
        <ele>9.906841996460784</ele>
        <time>2024-09-08T19:08:15.059Z</time>
      </trkpt>
      <trkpt lat="37.38915166666666" lon="-5.999486666666667">
        <ele>21.711688245583147</ele>
        <time>2024-09-08T19:09:38.059Z</time>
      </trkpt>
      <trkpt lat="37.389055" lon="-5.999703333333334">
        <ele>25.012767579811864</ele>
        <time>2024-09-08T19:09:53.071Z</time>
      </trkpt>
      <trkpt lat="37.388799999999996" lon="-5.999816666666668">
        <ele>14.812905546318213</ele>
        <time>2024-09-08T19:10:26.092Z</time>
      </trkpt>
      <trkpt lat="37.38846" lon="-6.000148333333334">
        <ele>1.5070737581069622</ele>
        <time>2024-09-08T19:11:39.096Z</time>
      </trkpt>
      <trkpt lat="37.38840833333334" lon="-6.000443333333334">
        <ele>20.708741687680998</ele>
        <time>2024-09-08T19:12:02.071Z</time>
      </trkpt>
      <trkpt lat="37.387953333333336" lon="-6.000635">
        <ele>3.208949139546384</ele>
        <time>2024-09-08T19:13:28.092Z</time>
      </trkpt>
      <trkpt lat="37.38715166666667" lon="-6.001551666666668">
        <ele>16.612767468062955</ele>
        <time>2024-09-08T19:16:41.082Z</time>
      </trkpt>
      <trkpt lat="37.386988333333335" lon="-6.001543333333332">
        <ele>16.11238628171286</ele>
        <time>2024-09-08T19:16:59.095Z</time>
      </trkpt>
      <trkpt lat="37.386986666666665" lon="-6.001428333333333">
        <ele>16.91167962367146</ele>
        <time>2024-09-08T19:17:20.053Z</time>
      </trkpt>
      <trkpt lat="37.387074999999996" lon="-6.0013950000000005">
        <ele>15.311687155227567</ele>
        <time>2024-09-08T19:17:36.089Z</time>
      </trkpt>
      <trkpt lat="37.38691166666667" lon="-6.00154">
        <ele>11.212167437093107</ele>
        <time>2024-09-08T19:18:07.088Z</time>
      </trkpt>
      <trkpt lat="37.38671166666666" lon="-6.001443333333333">
        <ele>10.111186077291904</ele>
        <time>2024-09-08T19:18:28.094Z</time>
      </trkpt>
      <trkpt lat="37.386275" lon="-6.000818333333332">
        <ele>10.206255958070372</ele>
        <time>2024-09-08T19:19:53.052Z</time>
      </trkpt>
      <trkpt lat="37.386118333333336" lon="-6.000901666666666">
        <ele>7.306408226044134</ele>
        <time>2024-09-08T19:20:24.055Z</time>
      </trkpt>
      <trkpt lat="37.38647666666667" lon="-6.0013250000000005">
        <ele>10.909719720371577</ele>
        <time>2024-09-08T19:22:32.089Z</time>
      </trkpt>
      <trkpt lat="37.386518333333335" lon="-6.001471666666666">
        <ele>10.910784289989998</ele>
        <time>2024-09-08T19:22:47.088Z</time>
      </trkpt>
      <trkpt lat="37.38612833333333" lon="-6.001078333333334">
        <ele>3.907514706799084</ele>
        <time>2024-09-08T19:28:22.085Z</time>
      </trkpt>
      <trkpt lat="37.38655666666667" lon="-6.001571666666666">
        <ele>4.011538713426866</ele>
        <time>2024-09-08T19:29:32.046Z</time>
      </trkpt>
      <trkpt lat="37.38664000000001" lon="-6.001531666666667">
        <ele>6.21151203818274</ele>
        <time>2024-09-08T19:29:58.079Z</time>
      </trkpt>
      <trkpt lat="37.38666333333333" lon="-6.001678333333333">
        <ele>5.812387047436076</ele>
        <time>2024-09-08T19:30:15.061Z</time>
      </trkpt>
      <trkpt lat="37.38682166666667" lon="-6.001803333333333">
        <ele>13.11356340484486</ele>
        <time>2024-09-08T19:30:52.055Z</time>
      </trkpt>
      <trkpt lat="37.38698333333333" lon="-6.002176666666666">
        <ele>13.016174151976799</ele>
        <time>2024-09-08T19:31:26.049Z</time>
      </trkpt>
      <trkpt lat="37.387793333333335" lon="-6.0029449999999995">
        <ele>16.022862185235972</ele>
        <time>2024-09-08T19:33:53.088Z</time>
      </trkpt>
      <trkpt lat="37.387674999999994" lon="-6.003198333333334">
        <ele>7.724126949514535</ele>
        <time>2024-09-08T19:34:24.075Z</time>
      </trkpt>
      <trkpt lat="37.387728333333335" lon="-6.003280000000001">
        <ele>4.324721045924456</ele>
        <time>2024-09-08T19:34:31.099Z</time>
      </trkpt>
      <trkpt lat="37.38830333333333" lon="-6.003651666666667">
        <ele>9.22839264655726</ele>
        <time>2024-09-08T19:35:38.055Z</time>
      </trkpt>
      <trkpt lat="37.388455" lon="-6.003963333333333">
        <ele>0.9306190474640772</ele>
        <time>2024-09-08T19:36:08.096Z</time>
      </trkpt>
      <trkpt lat="37.38901333333333" lon="-6.004338333333334">
        <ele>3.334255261813169</ele>
        <time>2024-09-08T19:37:19.092Z</time>
      </trkpt>
      <trkpt lat="37.38919833333333" lon="-6.004295">
        <ele>10.03445414650298</ele>
        <time>2024-09-08T19:37:47.092Z</time>
      </trkpt>
      <trkpt lat="37.38926666666667" lon="-6.003753333333333">
        <ele>9.431309699733873</ele>
        <time>2024-09-08T19:38:31.096Z</time>
      </trkpt>
      <trkpt lat="37.38961" lon="-6.003888333333333">
        <ele>9.832802666940367</ele>
        <time>2024-09-08T19:39:03.092Z</time>
      </trkpt>
      <trkpt lat="37.390495" lon="-6.0040249999999995">
        <ele>12.935711193488387</ele>
        <time>2024-09-08T19:40:46.105Z</time>
      </trkpt>
      <trkpt lat="37.390526666666666" lon="-6.003393333333334">
        <ele>13.732007159909188</ele>
        <time>2024-09-08T19:41:47.091Z</time>
      </trkpt>
      <trkpt lat="37.39051333333334" lon="-6.003161666666667">
        <ele>15.330505020094122</ele>
        <time>2024-09-08T19:42:06.091Z</time>
      </trkpt>
      <trkpt lat="37.390454999999996" lon="-6.003251666666667">
        <ele>15.530825950720299</ele>
        <time>2024-09-08T19:42:24.081Z</time>
      </trkpt>
      <trkpt lat="37.390451666666664" lon="-6.0031799999999995">
        <ele>14.330444168225497</ele>
        <time>2024-09-08T19:42:34.094Z</time>
      </trkpt>
      <trkpt lat="37.39053166666667" lon="-6.003066666666666">
        <ele>13.929872871525212</ele>
        <time>2024-09-08T19:42:47.075Z</time>
      </trkpt>
      <trkpt lat="37.390825" lon="-6.003220000000001">
        <ele>11.33111393547781</ele>
        <time>2024-09-08T19:44:12.091Z</time>
      </trkpt>
      <trkpt lat="37.39100833333334" lon="-6.0031783333333335">
        <ele>10.131647364673185</ele>
        <time>2024-09-08T19:44:34.079Z</time>
      </trkpt>
      <trkpt lat="37.393058333333336" lon="-6.003883333333333">
        <ele>12.340649811233611</ele>
        <time>2024-09-08T19:47:53.088Z</time>
      </trkpt>
      <trkpt lat="37.39311166666666" lon="-6.004008333333333">
        <ele>11.541522008070466</ele>
        <time>2024-09-08T19:48:04.091Z</time>
      </trkpt>
      <trkpt lat="37.393260000000005" lon="-6.0040466666666665">
        <ele>11.442155379180164</ele>
        <time>2024-09-08T19:48:23.092Z</time>
      </trkpt>
      <trkpt lat="37.39336" lon="-6.0037633333333345">
        <ele>12.340741919443325</ele>
        <time>2024-09-08T19:48:51.092Z</time>
      </trkpt>
      <trkpt lat="37.39329166666666" lon="-6.003303333333334">
        <ele>10.037677247842382</ele>
        <time>2024-09-08T19:49:27.089Z</time>
      </trkpt>
      <trkpt lat="37.39333666666666" lon="-6.002931666666666">
        <ele>6.735529257610331</ele>
        <time>2024-09-08T19:49:58.071Z</time>
      </trkpt>
      <trkpt lat="37.39344333333334" lon="-6.002863333333333">
        <ele>5.335281651698708</ele>
        <time>2024-09-08T19:50:08.086Z</time>
      </trkpt>
      <trkpt lat="37.393521666666665" lon="-6.002656666666667">
        <ele>10.83418943852412</ele>
        <time>2024-09-08T19:50:30.101Z</time>
      </trkpt>
      <trkpt lat="37.39476166666667" lon="-6.002793333333333">
        <ele>11.337812565680451</ele>
        <time>2024-09-08T19:52:48.104Z</time>
      </trkpt>
      <trkpt lat="37.395046666666666" lon="-6.002743333333332">
        <ele>10.938140846425021</ele>
        <time>2024-09-08T19:53:12.078Z</time>
      </trkpt>
      <trkpt lat="37.39574666666667" lon="-6.0022400000000005">
        <ele>14.036707868302827</ele>
        <time>2024-09-08T19:54:50.053Z</time>
      </trkpt>
      <trkpt lat="37.39577666666666" lon="-6.002291666666667">
        <ele>11.736983306719736</ele>
        <time>2024-09-08T19:55:02.049Z</time>
      </trkpt>
      <trkpt lat="37.39564666666667" lon="-6.001248333333333">
        <ele>5.7303632167670955</ele>
        <time>2024-09-08T19:56:50.049Z</time>
      </trkpt>
      <trkpt lat="37.39576318293213" lon="-6.000889767897036">
        <ele>12.111585475155557</ele>
        <time>2024-09-08T19:57:20.945Z</time>
      </trkpt>
    </trkseg>
  </trk>
</gpx>
