<?xml version="1.0" encoding="UTF-8"?>
<gpx version="1.1" creator="Export" xmlns="http://www.topografix.com/GPX/1/1" xmlns:xsi="http://www.w3.org/2001/XMLSchema-instance" xsi:schemaLocation="http://www.topografix.com/GPX/1/1 http://www.topografix.com/GPX/1/1/gpx.xsd http://www.garmin.com/xmlschemas/GpxExtensions/v3 http://www.garmin.com/xmlschemas/GpxExtensionsv3.xsd http://www.garmin.com/xmlschemas/TrackPointExtension/v1 http://www.garmin.com/xmlschemas/TrackPointExtensionv1.xsd http://www.garmin.com/xmlschemas/PowerExtension/v1 http://www.garmin.com/xmlschemas/PowerExtensionv1.xsd http://www.topografix.com/GPX/gpx_style/0/2 http://www.topografix.com/GPX/gpx_style/0/2/gpx_style.xsd" xmlns:gpxtpx="http://www.garmin.com/xmlschemas/TrackPointExtension/v1" xmlns:gpxx="http://www.garmin.com/xmlschemas/GpxExtensions/v3" xmlns:gpxpx="http://www.garmin.com/xmlschemas/PowerExtension/v1" xmlns:gpx_style="http://www.topografix.com/GPX/gpx_style/0/2">
  <metadata>
    <name>activity_200_2024-09-10</name>
    <author>
      <name>gpx.studio</name>
      <link href="https://gpx.studio"/>
    </author>
  </metadata>
  <wpt lat="39.472935" lon="-0.371963">
    <ele>25.78127743041899</ele>
    <name>Hostel</name>
    <sym>Lodging</sym>
  </wpt>
  <wpt lat="39.460471" lon="-0.376209">
    <ele>17.325869472505303</ele>
    <name>Dulce de Leche</name>
    <sym>Restaurant</sym>
  </wpt>
  <wpt lat="39.4728" lon="-0.377252">
    <ele>22.455413627439228</ele>
    <name>Cosmo</name>
    <sym>Restaurant</sym>
  </wpt>
  <wpt lat="39.4735" lon="-0.378983">
    <ele>25.821178029830175</ele>
    <name>Mercat Central</name>
    <sym>Convenience Store</sym>
  </wpt>
  <wpt lat="39.472778" lon="-0.373488">
    <ele>20.062705782492145</ele>
    <name>Cafe Durban</name>
    <sym>Restaurant</sym>
  </wpt>
  <wpt lat="39.47038" lon="-0.377038">
    <ele>19.820191170056827</ele>
    <name>Luciano</name>
    <sym>Restaurant</sym>
  </wpt>
  <wpt lat="39.474861" lon="-0.375775">
    <ele>18.800109804678694</ele>
    <name>Bertal</name>
    <sym>Restaurant</sym>
  </wpt>
  <trk>
    <name>activity_200_2024-09-10</name>
    <trkseg>
      <trkpt lat="39.47293166666667" lon="-0.37193666666666664">
        <ele>37.00931989633699</ele>
        <time>2024-09-10T07:57:40.072Z</time>
      </trkpt>
      <trkpt lat="39.4731" lon="-0.3714116666666667">
        <ele>-21.99068909359868</ele>
        <time>2024-09-10T08:00:45.204Z</time>
      </trkpt>
      <trkpt lat="39.473306666666666" lon="-0.37216666666666665">
        <ele>12.109842094831023</ele>
        <time>2024-09-10T08:04:12.094Z</time>
      </trkpt>
      <trkpt lat="39.473175" lon="-0.37262166666666663">
        <ele>14.209872183863084</ele>
        <time>2024-09-10T08:04:41.078Z</time>
      </trkpt>
      <trkpt lat="39.473345" lon="-0.37321000000000004">
        <ele>23.710298879429672</ele>
        <time>2024-09-10T08:05:42.095Z</time>
      </trkpt>
      <trkpt lat="39.47251166666667" lon="-0.37344166666666667">
        <ele>7.509416364516106</ele>
        <time>2024-09-10T08:07:39.092Z</time>
      </trkpt>
      <trkpt lat="39.472433333333335" lon="-0.3736416666666667">
        <ele>5.409417598643714</ele>
        <time>2024-09-10T08:08:14.085Z</time>
      </trkpt>
      <trkpt lat="39.472335" lon="-0.37367833333333333">
        <ele>12.90930218499193</ele>
        <time>2024-09-10T08:09:02.082Z</time>
      </trkpt>
      <trkpt lat="39.47237166666666" lon="-0.3735416666666667">
        <ele>19.709283839628583</ele>
        <time>2024-09-10T08:09:34.096Z</time>
      </trkpt>
      <trkpt lat="39.472568333333335" lon="-0.373425">
        <ele>19.6094705872221</ele>
        <time>2024-09-10T08:10:08.085Z</time>
      </trkpt>
      <trkpt lat="39.472775" lon="-0.3735">
        <ele>15.609797907367728</ele>
        <time>2024-09-10T08:46:30.094Z</time>
      </trkpt>
      <trkpt lat="39.472719999999995" lon="-0.373415">
        <ele>32.509646319594644</ele>
        <time>2024-09-10T08:49:26.094Z</time>
      </trkpt>
      <trkpt lat="39.473171666666666" lon="-0.37332166666666666">
        <ele>30.510122689394557</ele>
        <time>2024-09-10T08:50:17.092Z</time>
      </trkpt>
      <trkpt lat="39.473261666666666" lon="-0.3731933333333333">
        <ele>27.81019639057743</ele>
        <time>2024-09-10T08:50:34.089Z</time>
      </trkpt>
      <trkpt lat="39.473303333333334" lon="-0.373285">
        <ele>28.11020487045596</ele>
        <time>2024-09-10T08:50:50.101Z</time>
      </trkpt>
      <trkpt lat="39.47336333333333" lon="-0.373695">
        <ele>25.310512694798902</ele>
        <time>2024-09-10T08:51:23.096Z</time>
      </trkpt>
      <trkpt lat="39.473375000000004" lon="-0.3737083333333333">
        <ele>22.31054530154941</ele>
        <time>2024-09-10T08:51:52.088Z</time>
      </trkpt>
      <trkpt lat="39.47350166666667" lon="-0.3741816666666667">
        <ele>20.410854255483592</ele>
        <time>2024-09-10T08:52:39.101Z</time>
      </trkpt>
      <trkpt lat="39.47357" lon="-0.3742216666666666">
        <ele>25.610944763694818</ele>
        <time>2024-09-10T08:52:45.058Z</time>
      </trkpt>
      <trkpt lat="39.47358666666666" lon="-0.37470166666666666">
        <ele>25.011160534063464</ele>
        <time>2024-09-10T08:53:28.072Z</time>
      </trkpt>
      <trkpt lat="39.473796666666665" lon="-0.37553000000000003">
        <ele>22.511725970680885</ele>
        <time>2024-09-10T08:54:50.062Z</time>
      </trkpt>
      <trkpt lat="39.47387166666667" lon="-0.37597833333333336">
        <ele>26.011988098188787</ele>
        <time>2024-09-10T08:55:42.086Z</time>
      </trkpt>
      <trkpt lat="39.47375666666667" lon="-0.37589">
        <ele>28.511825427294333</ele>
        <time>2024-09-10T08:57:07.099Z</time>
      </trkpt>
      <trkpt lat="39.473773333333334" lon="-0.3760016666666666">
        <ele>28.611820866948555</ele>
        <time>2024-09-10T08:57:57.105Z</time>
      </trkpt>
      <trkpt lat="39.473931666666665" lon="-0.376355">
        <ele>23.612195741075112</ele>
        <time>2024-09-10T08:58:27.107Z</time>
      </trkpt>
      <trkpt lat="39.473865" lon="-0.37686166666666665">
        <ele>19.212314805817556</ele>
        <time>2024-09-10T08:59:04.095Z</time>
      </trkpt>
      <trkpt lat="39.47367333333333" lon="-0.37702833333333335">
        <ele>20.312160526114795</ele>
        <time>2024-09-10T08:59:35.250Z</time>
      </trkpt>
      <trkpt lat="39.4738683313314" lon="-0.37727993305236396">
        <ele>25.580172499933465</ele>
        <time>2024-09-10T09:00:06.762Z</time>
      </trkpt>
      <trkpt lat="39.47424991456563" lon="-0.37688573496723166">
        <ele>24.90922495222213</ele>
        <time>2024-09-10T09:01:02.658Z</time>
      </trkpt>
      <trkpt lat="39.47444349540925" lon="-0.37708825682264546">
        <ele>24.342588370933093</ele>
        <time>2024-09-10T09:01:31.333Z</time>
      </trkpt>
      <trkpt lat="39.47535130319929" lon="-0.3768965573152059">
        <ele>20.613505960479632</ele>
        <time>2024-09-10T09:03:16.968Z</time>
      </trkpt>
      <trkpt lat="39.475426088712" lon="-0.3767398653720875">
        <ele>21.464845678944084</ele>
        <time>2024-09-10T09:03:34.821Z</time>
      </trkpt>
      <trkpt lat="39.4758406428283" lon="-0.37693994663206354">
        <ele>24.801129563345672</ele>
        <time>2024-09-10T09:04:30.362Z</time>
      </trkpt>
      <trkpt lat="39.475911872980646" lon="-0.3762864436395148">
        <ele>28.31081357333342</ele>
        <time>2024-09-10T09:05:32.569Z</time>
      </trkpt>
      <trkpt lat="39.47618855800192" lon="-0.37620484499834106">
        <ele>29.119351604424633</ele>
        <time>2024-09-10T09:05:37.029Z</time>
      </trkpt>
      <trkpt lat="39.47576790635526" lon="-0.3758201656866902">
        <ele>27.239826060102047</ele>
        <time>2024-09-10T09:06:34.439Z</time>
      </trkpt>
      <trkpt lat="39.475738781184106" lon="-0.3754913292403046">
        <ele>25.774037549125616</ele>
        <time>2024-09-10T09:07:02.926Z</time>
      </trkpt>
      <trkpt lat="39.47485648238796" lon="-0.37577227510851685">
        <ele>18.791054887651477</ele>
        <time>2024-09-10T09:08:36.446Z</time>
      </trkpt>
      <trkpt lat="39.47487403049735" lon="-0.3756963643076858">
        <ele>18.32235591374422</ele>
        <time>2024-09-10T09:08:43.240Z</time>
      </trkpt>
      <trkpt lat="39.474579999999996" lon="-0.37568833333333335">
        <ele>19.439352591242816</ele>
        <time>2024-09-10T09:09:05.095Z</time>
      </trkpt>
      <trkpt lat="39.47483833333333" lon="-0.3755883333333333">
        <ele>24.912975668412763</ele>
        <time>2024-09-10T10:43:36.683Z</time>
      </trkpt>
      <trkpt lat="39.47466" lon="-0.37544833333333333">
        <ele>25.6127205578521</ele>
        <time>2024-09-10T10:44:19.650Z</time>
      </trkpt>
      <trkpt lat="39.474315000000004" lon="-0.375515">
        <ele>15.012343622197179</ele>
        <time>2024-09-10T10:45:05.641Z</time>
      </trkpt>
      <trkpt lat="39.47408333333333" lon="-0.37534666666666666">
        <ele>14.012003158076794</ele>
        <time>2024-09-10T10:45:40.657Z</time>
      </trkpt>
      <trkpt lat="39.473845" lon="-0.3754433333333333">
        <ele>13.511759992311866</ele>
        <time>2024-09-10T10:46:14.654Z</time>
      </trkpt>
      <trkpt lat="39.47359166666667" lon="-0.37576666666666664">
        <ele>14.211580801685272</ele>
        <time>2024-09-10T10:47:12.653Z</time>
      </trkpt>
      <trkpt lat="39.47341666666667" lon="-0.3762433333333333">
        <ele>28.511533159471497</ele>
        <time>2024-09-10T10:48:51.690Z</time>
      </trkpt>
      <trkpt lat="39.47302" lon="-0.37620333333333333">
        <ele>26.41107153071524</ele>
        <time>2024-09-10T10:56:46.671Z</time>
      </trkpt>
      <trkpt lat="39.472775" lon="-0.37639833333333333">
        <ele>32.61087085703619</ele>
        <time>2024-09-10T10:57:31.680Z</time>
      </trkpt>
      <trkpt lat="39.472685" lon="-0.376305">
        <ele>33.01075793491859</ele>
        <time>2024-09-10T10:57:56.641Z</time>
      </trkpt>
      <trkpt lat="39.472746666666666" lon="-0.376345">
        <ele>39.41080459106329</ele>
        <time>2024-09-10T10:58:31.667Z</time>
      </trkpt>
      <trkpt lat="39.472575" lon="-0.3764783333333333">
        <ele>32.31065816218251</ele>
        <time>2024-09-10T10:59:00.687Z</time>
      </trkpt>
      <trkpt lat="39.472566666666665" lon="-0.3766366666666666">
        <ele>29.41070505723701</ele>
        <time>2024-09-10T10:59:10.683Z</time>
      </trkpt>
      <trkpt lat="39.47242666666667" lon="-0.37677333333333335">
        <ele>20.810627826489977</ele>
        <time>2024-09-10T10:59:36.664Z</time>
      </trkpt>
      <trkpt lat="39.472045" lon="-0.3768">
        <ele>22.810160391941025</ele>
        <time>2024-09-10T11:00:37.657Z</time>
      </trkpt>
      <trkpt lat="39.47129333333333" lon="-0.3767833333333333">
        <ele>27.709275298342895</ele>
        <time>2024-09-10T11:02:21.654Z</time>
      </trkpt>
      <trkpt lat="39.471035" lon="-0.3763833333333333">
        <ele>13.108807773966682</ele>
        <time>2024-09-10T11:03:31.657Z</time>
      </trkpt>
      <trkpt lat="39.47049833333333" lon="-0.3760516666666666">
        <ele>9.008065719877266</ele>
        <time>2024-09-10T11:04:51.657Z</time>
      </trkpt>
      <trkpt lat="39.470400000000005" lon="-0.37589">
        <ele>12.207876620990227</ele>
        <time>2024-09-10T11:05:16.670Z</time>
      </trkpt>
      <trkpt lat="39.46982166666667" lon="-0.37570000000000003">
        <ele>15.907129173803078</ele>
        <time>2024-09-10T11:06:53.670Z</time>
      </trkpt>
      <trkpt lat="39.469833333333334" lon="-0.37513">
        <ele>8.606916602844016</ele>
        <time>2024-09-10T11:08:15.671Z</time>
      </trkpt>
      <trkpt lat="39.46982666666667" lon="-0.37566333333333335">
        <ele>8.307101564380211</ele>
        <time>2024-09-10T11:09:15.686Z</time>
      </trkpt>
      <trkpt lat="39.47024333333333" lon="-0.37581666666666663">
        <ele>9.007638342358298</ele>
        <time>2024-09-10T11:10:00.676Z</time>
      </trkpt>
      <trkpt lat="39.47022833333333" lon="-0.3764516666666667">
        <ele>18.93323903591614</ele>
        <time>2024-09-10T11:20:58.808Z</time>
      </trkpt>
      <trkpt lat="39.47018833333333" lon="-0.3762916666666667">
        <ele>9.407762831803943</ele>
        <time>2024-09-10T11:21:35.671Z</time>
      </trkpt>
      <trkpt lat="39.470220000000005" lon="-0.3759883333333333">
        <ele>14.507670438675156</ele>
        <time>2024-09-10T11:21:59.677Z</time>
      </trkpt>
      <trkpt lat="39.47036333333333" lon="-0.3773183333333333">
        <ele>18.30836771974829</ele>
        <time>2024-09-10T11:24:33.681Z</time>
      </trkpt>
      <trkpt lat="39.47058833333333" lon="-0.3779783333333333">
        <ele>33.5088848034106</ele>
        <time>2024-09-10T11:25:59.680Z</time>
      </trkpt>
      <trkpt lat="39.46973" lon="-0.37851">
        <ele>24.008083593004272</ele>
        <time>2024-09-10T11:28:01.686Z</time>
      </trkpt>
      <trkpt lat="39.46952" lon="-0.37877">
        <ele>22.707925713474452</ele>
        <time>2024-09-10T11:29:02.676Z</time>
      </trkpt>
      <trkpt lat="39.469388333333335" lon="-0.3787316666666667">
        <ele>21.20780843424722</ele>
        <time>2024-09-10T11:29:23.681Z</time>
      </trkpt>
      <trkpt lat="39.46922" lon="-0.37911666666666666">
        <ele>15.807704830801178</ele>
        <time>2024-09-10T11:30:04.674Z</time>
      </trkpt>
      <trkpt lat="39.46841666666667" lon="-0.379495">
        <ele>20.006908134374626</ele>
        <time>2024-09-10T11:31:55.677Z</time>
      </trkpt>
      <trkpt lat="39.46826" lon="-0.37934666666666667">
        <ele>18.50667105736511</ele>
        <time>2024-09-10T11:32:19.655Z</time>
      </trkpt>
      <trkpt lat="39.46817" lon="-0.37884166666666663">
        <ele>7.306363880177862</ele>
        <time>2024-09-10T11:33:35.687Z</time>
      </trkpt>
      <trkpt lat="39.467933333333335" lon="-0.37810166666666667">
        <ele>7.60580257689346</ele>
        <time>2024-09-10T11:36:16.677Z</time>
      </trkpt>
      <trkpt lat="39.46787666666667" lon="-0.3781466666666667">
        <ele>11.405773525710565</ele>
        <time>2024-09-10T11:36:50.661Z</time>
      </trkpt>
      <trkpt lat="39.467726666666664" lon="-0.37742833333333337">
        <ele>19.305311913506003</ele>
        <time>2024-09-10T11:37:59.651Z</time>
      </trkpt>
      <trkpt lat="39.467774999999996" lon="-0.377355">
        <ele>16.105336474591113</ele>
        <time>2024-09-10T11:38:17.655Z</time>
      </trkpt>
      <trkpt lat="39.467506666666665" lon="-0.37743333333333334">
        <ele>11.505060840636688</ele>
        <time>2024-09-10T11:38:49.677Z</time>
      </trkpt>
      <trkpt lat="39.467303333333334" lon="-0.3777466666666667">
        <ele>14.80493704177897</ele>
        <time>2024-09-10T11:39:22.654Z</time>
      </trkpt>
      <trkpt lat="39.463494999999995" lon="-0.37935166666666664">
        <ele>8.301056441598597</ele>
        <time>2024-09-10T11:46:23.670Z</time>
      </trkpt>
      <trkpt lat="39.46341333333333" lon="-0.3790266666666666">
        <ele>9.300844604448748</ele>
        <time>2024-09-10T11:46:45.635Z</time>
      </trkpt>
      <trkpt lat="39.463303333333336" lon="-0.37893166666666667">
        <ele>13.700670251931797</ele>
        <time>2024-09-10T11:47:07.677Z</time>
      </trkpt>
      <trkpt lat="39.463364999999996" lon="-0.3789433333333333">
        <ele>14.900739360677953</ele>
        <time>2024-09-10T11:47:23.644Z</time>
      </trkpt>
      <trkpt lat="39.463676666666665" lon="-0.37750333333333336">
        <ele>14.900744626438389</ele>
        <time>2024-09-10T11:49:37.651Z</time>
      </trkpt>
      <trkpt lat="39.46353833333333" lon="-0.377415">
        <ele>20.400391038757782</ele>
        <time>2024-09-10T11:49:42.683Z</time>
      </trkpt>
      <trkpt lat="39.46364333333334" lon="-0.3772733333333333">
        <ele>16.30044568079711</ele>
        <time>2024-09-10T11:50:09.644Z</time>
      </trkpt>
      <trkpt lat="39.46341333333333" lon="-0.37783333333333335">
        <ele>7.4003867764394045</ele>
        <time>2024-09-10T11:50:55.661Z</time>
      </trkpt>
      <trkpt lat="39.462981666666664" lon="-0.377865">
        <ele>9.499894369356362</ele>
        <time>2024-09-10T11:51:35.664Z</time>
      </trkpt>
      <trkpt lat="39.46271" lon="-0.3775316666666667">
        <ele>14.79949802936384</ele>
        <time>2024-09-10T11:52:25.645Z</time>
      </trkpt>
      <trkpt lat="39.46217166666667" lon="-0.37714166666666665">
        <ele>22.898673944205882</ele>
        <time>2024-09-10T11:53:34.689Z</time>
      </trkpt>
      <trkpt lat="39.46253166666667" lon="-0.3762433333333333">
        <ele>11.998754335043742</ele>
        <time>2024-09-10T11:55:09.686Z</time>
      </trkpt>
      <trkpt lat="39.46241" lon="-0.37655">
        <ele>18.498725503690366</ele>
        <time>2024-09-10T11:56:07.651Z</time>
      </trkpt>
      <trkpt lat="39.46247666666667" lon="-0.37635166666666664">
        <ele>14.898729146960854</ele>
        <time>2024-09-10T11:56:39.667Z</time>
      </trkpt>
      <trkpt lat="39.462563333333335" lon="-0.37643166666666666">
        <ele>11.698854781126634</ele>
        <time>2024-09-10T11:57:10.673Z</time>
      </trkpt>
      <trkpt lat="39.46256166666667" lon="-0.37660499999999997">
        <ele>13.798919340503232</ele>
        <time>2024-09-10T11:59:02.633Z</time>
      </trkpt>
      <trkpt lat="39.462345" lon="-0.37709">
        <ele>15.998853546712851</ele>
        <time>2024-09-10T11:59:52.645Z</time>
      </trkpt>
      <trkpt lat="39.46218" lon="-0.37714333333333333">
        <ele>20.398696222540757</ele>
        <time>2024-09-10T12:00:12.401Z</time>
      </trkpt>
      <trkpt lat="39.46058823192294" lon="-0.3761393880378989">
        <ele>17.45359761765276</ele>
        <time>2024-09-10T12:02:48.715Z</time>
      </trkpt>
      <trkpt lat="39.460481889823086" lon="-0.37619448310937287">
        <ele>17.299117721137037</ele>
        <time>2024-09-10T12:02:59.873Z</time>
      </trkpt>
      <trkpt lat="39.46044557189006" lon="-0.3759765743086234">
        <ele>17.250692527392925</ele>
        <time>2024-09-10T12:03:18.493Z</time>
      </trkpt>
      <trkpt lat="39.459095000000005" lon="-0.3751133333333333">
        <ele>20.397895841185385</ele>
        <time>2024-09-10T12:06:00.707Z</time>
      </trkpt>
      <trkpt lat="39.45899" lon="-0.3754183333333333">
        <ele>34.39428158891233</ele>
        <time>2024-09-10T14:09:53.645Z</time>
      </trkpt>
      <trkpt lat="39.45901666666667" lon="-0.375585">
        <ele>25.59436791710985</ele>
        <time>2024-09-10T14:10:09.644Z</time>
      </trkpt>
      <trkpt lat="39.458526666666664" lon="-0.37659333333333334">
        <ele>13.694170904378495</ele>
        <time>2024-09-10T14:12:17.650Z</time>
      </trkpt>
      <trkpt lat="39.45854166666666" lon="-0.37676833333333337">
        <ele>14.494253232573378</ele>
        <time>2024-09-10T14:12:32.641Z</time>
      </trkpt>
      <trkpt lat="39.45899166666666" lon="-0.37711666666666666">
        <ele>12.094896539641063</ele>
        <time>2024-09-10T14:13:46.635Z</time>
      </trkpt>
      <trkpt lat="39.45917833333333" lon="-0.37700333333333336">
        <ele>11.495091821881019</ele>
        <time>2024-09-10T14:14:06.648Z</time>
      </trkpt>
      <trkpt lat="39.46025833333333" lon="-0.37437333333333334">
        <ele>12.695368616007862</ele>
        <time>2024-09-10T14:19:11.671Z</time>
      </trkpt>
      <trkpt lat="39.46118666666667" lon="-0.37504000000000004">
        <ele>50.196710840536646</ele>
        <time>2024-09-10T14:21:27.658Z</time>
      </trkpt>
      <trkpt lat="39.461236666666665" lon="-0.3749116666666667">
        <ele>49.59672685030534</ele>
        <time>2024-09-10T14:21:44.670Z</time>
      </trkpt>
      <trkpt lat="39.46128" lon="-0.37514333333333333">
        <ele>17.726741456707355</ele>
        <time>2024-09-10T14:29:29.165Z</time>
      </trkpt>
      <trkpt lat="39.46127333333333" lon="-0.3748533333333333">
        <ele>29.396738695248942</ele>
        <time>2024-09-10T14:32:13.401Z</time>
      </trkpt>
      <trkpt lat="39.46153" lon="-0.3749966666666667">
        <ele>29.997067462296563</ele>
        <time>2024-09-10T14:32:39.398Z</time>
      </trkpt>
      <trkpt lat="39.46151666666666" lon="-0.3752433333333334">
        <ele>27.29718472760984</ele>
        <time>2024-09-10T14:33:00.414Z</time>
      </trkpt>
      <trkpt lat="39.46169666666666" lon="-0.37526666666666664">
        <ele>27.197389532365897</ele>
        <time>2024-09-10T14:33:38.417Z</time>
      </trkpt>
      <trkpt lat="39.462014999999994" lon="-0.3755133333333333">
        <ele>27.497862255818085</ele>
        <time>2024-09-10T14:34:30.417Z</time>
      </trkpt>
      <trkpt lat="39.46192" lon="-0.3755383333333333">
        <ele>30.597758688940992</ele>
        <time>2024-09-10T14:35:00.394Z</time>
      </trkpt>
      <trkpt lat="39.462585" lon="-0.3758933333333333">
        <ele>26.598687593857484</ele>
        <time>2024-09-10T14:36:23.417Z</time>
      </trkpt>
      <trkpt lat="39.46257166666667" lon="-0.3760266666666666">
        <ele>22.29871447798532</ele>
        <time>2024-09-10T14:36:37.423Z</time>
      </trkpt>
      <trkpt lat="39.46255" lon="-0.3758766666666667">
        <ele>21.198639444922705</ele>
        <time>2024-09-10T14:36:53.407Z</time>
      </trkpt>
      <trkpt lat="39.462628333333335" lon="-0.37600500000000003">
        <ele>22.39876446786159</ele>
        <time>2024-09-10T14:37:12.394Z</time>
      </trkpt>
      <trkpt lat="39.462671666666665" lon="-0.3759166666666667">
        <ele>22.49878273554082</ele>
        <time>2024-09-10T14:37:20.381Z</time>
      </trkpt>
      <trkpt lat="39.46338" lon="-0.3764866666666667">
        <ele>32.79981210884863</ele>
        <time>2024-09-10T14:39:06.401Z</time>
      </trkpt>
      <trkpt lat="39.46349166666666" lon="-0.376525">
        <ele>26.299968106847523</ele>
        <time>2024-09-10T14:39:31.427Z</time>
      </trkpt>
      <trkpt lat="39.46350333333333" lon="-0.3764366666666667">
        <ele>21.499971896498202</ele>
        <time>2024-09-10T14:39:44.417Z</time>
      </trkpt>
      <trkpt lat="39.46352666666667" lon="-0.3765716666666667">
        <ele>18.60003996060383</ele>
        <time>2024-09-10T14:40:07.404Z</time>
      </trkpt>
      <trkpt lat="39.463485" lon="-0.3764583333333333">
        <ele>18.600045766050577</ele>
        <time>2024-09-10T14:40:52.439Z</time>
      </trkpt>
      <trkpt lat="39.46357666666667" lon="-0.37628833333333334">
        <ele>11.799994490610715</ele>
        <time>2024-09-10T14:41:07.416Z</time>
      </trkpt>
      <trkpt lat="39.46300333333333" lon="-0.37762">
        <ele>-3.6001724698559556</ele>
        <time>2024-09-10T14:43:26.384Z</time>
      </trkpt>
      <trkpt lat="39.463125" lon="-0.3776583333333334">
        <ele>11.199973219373625</ele>
        <time>2024-09-10T14:43:45.416Z</time>
      </trkpt>
      <trkpt lat="39.46315833333333" lon="-0.37759666666666664">
        <ele>13.100000831214892</ele>
        <time>2024-09-10T14:43:53.433Z</time>
      </trkpt>
      <trkpt lat="39.463" lon="-0.3774983333333333">
        <ele>14.199799211239515</ele>
        <time>2024-09-10T14:44:04.397Z</time>
      </trkpt>
      <trkpt lat="39.462941666666666" lon="-0.37725000000000003">
        <ele>14.799620357253652</ele>
        <time>2024-09-10T14:44:16.439Z</time>
      </trkpt>
      <trkpt lat="39.463058333333336" lon="-0.3788183333333333">
        <ele>14.799612764181482</ele>
        <time>2024-09-10T14:46:43.427Z</time>
      </trkpt>
      <trkpt lat="39.463274999999996" lon="-0.37916500000000003">
        <ele>-30.899315551557905</ele>
        <time>2024-09-10T14:46:46.410Z</time>
      </trkpt>
      <trkpt lat="39.46322333333333" lon="-0.3794283333333333">
        <ele>-10.899264316831562</ele>
        <time>2024-09-10T14:46:49.428Z</time>
      </trkpt>
      <trkpt lat="39.463078333333335" lon="-0.3795983333333333">
        <ele>23.100657372082566</ele>
        <time>2024-09-10T14:46:56.384Z</time>
      </trkpt>
      <trkpt lat="39.46315333333334" lon="-0.37965666666666664">
        <ele>25.400755088761287</ele>
        <time>2024-09-10T14:47:19.421Z</time>
      </trkpt>
      <trkpt lat="39.463125" lon="-0.3795083333333333">
        <ele>25.10068073879487</ele>
        <time>2024-09-10T14:47:39.393Z</time>
      </trkpt>
      <trkpt lat="39.46301166666667" lon="-0.37951833333333335">
        <ele>25.700552429593934</ele>
        <time>2024-09-10T14:47:51.407Z</time>
      </trkpt>
      <trkpt lat="39.462826666666665" lon="-0.37958166666666665">
        <ele>22.500362737216868</ele>
        <time>2024-09-10T14:48:10.423Z</time>
      </trkpt>
      <trkpt lat="39.462830000000004" lon="-0.3797">
        <ele>20.700396255668316</ele>
        <time>2024-09-10T14:48:20.391Z</time>
      </trkpt>
      <trkpt lat="39.46167333333334" lon="-0.38003333333333333">
        <ele>26.799175864695655</ele>
        <time>2024-09-10T14:50:25.407Z</time>
      </trkpt>
      <trkpt lat="39.461528333333334" lon="-0.38020333333333334">
        <ele>24.499054839630084</ele>
        <time>2024-09-10T14:50:47.391Z</time>
      </trkpt>
      <trkpt lat="39.461396666666666" lon="-0.3800516666666667">
        <ele>23.498855809638854</ele>
        <time>2024-09-10T14:51:03.417Z</time>
      </trkpt>
      <trkpt lat="39.461088333333336" lon="-0.380075">
        <ele>16.798493014863013</ele>
        <time>2024-09-10T14:51:39.804Z</time>
      </trkpt>
      <trkpt lat="39.46000414911401" lon="-0.38127549055363374">
        <ele>10.900000000001455</ele>
        <time>2024-09-10T14:54:27.845Z</time>
      </trkpt>
      <trkpt lat="39.460588333333334" lon="-0.3807933333333333">
        <ele>12.443610785180592</ele>
        <time>2024-09-10T14:55:49.454Z</time>
      </trkpt>
      <trkpt lat="39.46073333333333" lon="-0.38072">
        <ele>19.19829502100732</ele>
        <time>2024-09-10T15:09:18.428Z</time>
      </trkpt>
      <trkpt lat="39.46073" lon="-0.38059666666666664">
        <ele>17.69825717055256</ele>
        <time>2024-09-10T15:09:29.416Z</time>
      </trkpt>
      <trkpt lat="39.461013333333334" lon="-0.3800966666666667">
        <ele>14.29839652133046</ele>
        <time>2024-09-10T15:10:34.387Z</time>
      </trkpt>
      <trkpt lat="39.46148" lon="-0.37989500000000004">
        <ele>17.298879035839484</ele>
        <time>2024-09-10T15:11:40.444Z</time>
      </trkpt>
      <trkpt lat="39.46306166666667" lon="-0.37936833333333336">
        <ele>22.000543552656154</ele>
        <time>2024-09-10T15:14:48.444Z</time>
      </trkpt>
      <trkpt lat="39.463135" lon="-0.379175">
        <ele>12.400556920465569</ele>
        <time>2024-09-10T15:16:35.407Z</time>
      </trkpt>
      <trkpt lat="39.462988333333335" lon="-0.379085">
        <ele>22.300360834733382</ele>
        <time>2024-09-10T15:18:41.395Z</time>
      </trkpt>
      <trkpt lat="39.46304" lon="-0.37902833333333336">
        <ele>18.800391672659188</ele>
        <time>2024-09-10T15:19:05.423Z</time>
      </trkpt>
      <trkpt lat="39.46304" lon="-0.3791283333333333">
        <ele>19.0004245747539</ele>
        <time>2024-09-10T15:19:16.407Z</time>
      </trkpt>
      <trkpt lat="39.46304666666666" lon="-0.37763833333333335">
        <ele>18.900430881857005</ele>
        <time>2024-09-10T15:21:00.428Z</time>
      </trkpt>
      <trkpt lat="39.4629" lon="-0.3777233333333333">
        <ele>16.899755979002364</ele>
        <time>2024-09-10T15:21:05.395Z</time>
      </trkpt>
      <trkpt lat="39.462925000000006" lon="-0.377615">
        <ele>33.29973339074778</ele>
        <time>2024-09-10T15:21:15.397Z</time>
      </trkpt>
      <trkpt lat="39.46303" lon="-0.37758833333333336">
        <ele>27.399840355195003</ele>
        <time>2024-09-10T15:21:27.393Z</time>
      </trkpt>
      <trkpt lat="39.463836666666666" lon="-0.3757983333333333">
        <ele>16.000111511990696</ele>
        <time>2024-09-10T15:24:23.426Z</time>
      </trkpt>
      <trkpt lat="39.46446666666667" lon="-0.37427">
        <ele>15.700276990920088</ele>
        <time>2024-09-10T15:26:35.374Z</time>
      </trkpt>
      <trkpt lat="39.46478333333334" lon="-0.37339333333333335">
        <ele>16.900312146377985</ele>
        <time>2024-09-10T15:27:57.405Z</time>
      </trkpt>
      <trkpt lat="39.46473833333334" lon="-0.3732">
        <ele>17.30018982891506</ele>
        <time>2024-09-10T15:28:18.431Z</time>
      </trkpt>
      <trkpt lat="39.464866666666666" lon="-0.3730066666666667">
        <ele>30.30026448560833</ele>
        <time>2024-09-10T15:28:52.395Z</time>
      </trkpt>
      <trkpt lat="39.46478333333334" lon="-0.3729033333333333">
        <ele>34.40013347935248</ele>
        <time>2024-09-10T15:29:10.390Z</time>
      </trkpt>
      <trkpt lat="39.464573333333334" lon="-0.37182333333333334">
        <ele>21.599464381832426</ele>
        <time>2024-09-10T15:31:23.401Z</time>
      </trkpt>
      <trkpt lat="39.46486166666667" lon="-0.37159166666666665">
        <ele>24.299703096209747</ele>
        <time>2024-09-10T15:32:12.414Z</time>
      </trkpt>
      <trkpt lat="39.46537333333333" lon="-0.37190833333333334">
        <ele>29.300420748468134</ele>
        <time>2024-09-10T15:33:07.421Z</time>
      </trkpt>
      <trkpt lat="39.465453333333336" lon="-0.3720616666666666">
        <ele>33.60056856681155</ele>
        <time>2024-09-10T15:33:32.400Z</time>
      </trkpt>
      <trkpt lat="39.46561333333333" lon="-0.37174">
        <ele>28.100652442283803</ele>
        <time>2024-09-10T15:34:00.384Z</time>
      </trkpt>
      <trkpt lat="39.46572166666667" lon="-0.37168666666666667">
        <ele>28.100696877429577</ele>
        <time>2024-09-10T15:34:43.427Z</time>
      </trkpt>
      <trkpt lat="39.46577333333333" lon="-0.37185">
        <ele>31.800874295429786</ele>
        <time>2024-09-10T15:35:17.384Z</time>
      </trkpt>
      <trkpt lat="39.465905" lon="-0.37132166666666666">
        <ele>45.60083574715873</ele>
        <time>2024-09-10T15:36:09.414Z</time>
      </trkpt>
      <trkpt lat="39.466005" lon="-0.3712316666666667">
        <ele>42.100913082909805</ele>
        <time>2024-09-10T15:36:28.387Z</time>
      </trkpt>
      <trkpt lat="39.465934999999995" lon="-0.37111">
        <ele>39.100789702361816</ele>
        <time>2024-09-10T15:36:44.387Z</time>
      </trkpt>
      <trkpt lat="39.466170000000005" lon="-0.37073999999999996">
        <ele>40.80092002142568</ele>
        <time>2024-09-10T15:37:13.384Z</time>
      </trkpt>
      <trkpt lat="39.466366666666666" lon="-0.37062333333333336">
        <ele>38.801100952907476</ele>
        <time>2024-09-10T15:37:30.390Z</time>
      </trkpt>
      <trkpt lat="39.466474999999996" lon="-0.37033166666666667">
        <ele>39.20111798963732</ele>
        <time>2024-09-10T15:37:54.387Z</time>
      </trkpt>
      <trkpt lat="39.4664" lon="-0.370095">
        <ele>34.400944466279775</ele>
        <time>2024-09-10T15:38:33.423Z</time>
      </trkpt>
      <trkpt lat="39.46654" lon="-0.3700016666666667">
        <ele>28.8010606239635</ele>
        <time>2024-09-10T15:38:50.413Z</time>
      </trkpt>
      <trkpt lat="39.46688666666667" lon="-0.36918666666666666">
        <ele>25.601155705027573</ele>
        <time>2024-09-10T15:39:56.426Z</time>
      </trkpt>
      <trkpt lat="39.46686833333333" lon="-0.36900499999999997">
        <ele>31.501064443445507</ele>
        <time>2024-09-10T15:40:18.427Z</time>
      </trkpt>
      <trkpt lat="39.46750333333333" lon="-0.3677316666666667">
        <ele>31.30130838554053</ele>
        <time>2024-09-10T15:42:21.390Z</time>
      </trkpt>
      <trkpt lat="39.467585" lon="-0.36776666666666663">
        <ele>43.001419836934936</ele>
        <time>2024-09-10T15:42:49.391Z</time>
      </trkpt>
      <trkpt lat="39.467545" lon="-0.3680566666666667">
        <ele>37.901483109323486</ele>
        <time>2024-09-10T15:43:09.401Z</time>
      </trkpt>
      <trkpt lat="39.46763" lon="-0.36827666666666664">
        <ele>27.001663374126238</ele>
        <time>2024-09-10T15:43:32.424Z</time>
      </trkpt>
      <trkpt lat="39.468565" lon="-0.3689233333333333">
        <ele>31.703013571187938</ele>
        <time>2024-09-10T15:45:08.384Z</time>
      </trkpt>
      <trkpt lat="39.46866833333333" lon="-0.3684983333333333">
        <ele>38.802975046953506</ele>
        <time>2024-09-10T15:45:44.388Z</time>
      </trkpt>
      <trkpt lat="39.468756666666664" lon="-0.36850499999999997">
        <ele>41.603074696831044</ele>
        <time>2024-09-10T15:45:57.095Z</time>
      </trkpt>
      <trkpt lat="39.47021017091831" lon="-0.36458049873692744">
        <ele>10.040847748743776</ele>
        <time>2024-09-10T15:59:21.736Z</time>
      </trkpt>
      <trkpt lat="39.47029300692853" lon="-0.3630623059135587">
        <ele>5.166910951586033</ele>
        <time>2024-09-10T16:04:03.080Z</time>
      </trkpt>
      <trkpt lat="39.46915718886703" lon="-0.3614954553718235">
        <ele>3.0082337024912524</ele>
        <time>2024-09-10T16:10:17.385Z</time>
      </trkpt>
      <trkpt lat="39.46936753793838" lon="-0.35914644789065164">
        <ele>10.313224954345472</ele>
        <time>2024-09-10T16:17:07.325Z</time>
      </trkpt>
      <trkpt lat="39.46999858105403" lon="-0.35800013222709026">
        <ele>11.343925149250932</ele>
        <time>2024-09-10T16:21:11.396Z</time>
      </trkpt>
      <trkpt lat="39.46938929814121" lon="-0.3554444120610185">
        <ele>14.793421211879343</ele>
        <time>2024-09-10T16:28:10.492Z</time>
      </trkpt>
      <trkpt lat="39.471561666666666" lon="-0.35445499999999996">
        <ele>15.200667372206865</ele>
        <time>2024-09-10T16:34:37.343Z</time>
      </trkpt>
      <trkpt lat="39.47181" lon="-0.354355">
        <ele>12.700896983803553</ele>
        <time>2024-09-10T16:35:25.357Z</time>
      </trkpt>
      <trkpt lat="39.47179166666667" lon="-0.35385500000000003">
        <ele>17.700681736942286</ele>
        <time>2024-09-10T16:37:01.363Z</time>
      </trkpt>
      <trkpt lat="39.472361666666664" lon="-0.352135">
        <ele>10.000633380935419</ele>
        <time>2024-09-10T16:39:07.386Z</time>
      </trkpt>
      <trkpt lat="39.472585" lon="-0.3517266666666667">
        <ele>9.700704572708794</ele>
        <time>2024-09-10T16:39:54.380Z</time>
      </trkpt>
      <trkpt lat="39.47261666666667" lon="-0.35133833333333336">
        <ele>11.100582428148371</ele>
        <time>2024-09-10T16:40:17.393Z</time>
      </trkpt>
      <trkpt lat="39.473108333333336" lon="-0.3496883333333333">
        <ele>4.600449347651775</ele>
        <time>2024-09-10T16:42:26.400Z</time>
      </trkpt>
      <trkpt lat="39.47320833333333" lon="-0.3496416666666667">
        <ele>4.200542597989148</ele>
        <time>2024-09-10T16:42:37.396Z</time>
      </trkpt>
      <trkpt lat="39.47329333333333" lon="-0.3494">
        <ele>2.700533833575669</ele>
        <time>2024-09-10T16:43:02.393Z</time>
      </trkpt>
      <trkpt lat="39.473238333333335" lon="-0.34935">
        <ele>3.100471741683265</ele>
        <time>2024-09-10T16:43:07.400Z</time>
      </trkpt>
      <trkpt lat="39.473531666666666" lon="-0.3487133333333333">
        <ele>4.4005300279496495</ele>
        <time>2024-09-10T16:43:51.376Z</time>
      </trkpt>
      <trkpt lat="39.473486666666666" lon="-0.34856166666666666">
        <ele>6.900428251026135</ele>
        <time>2024-09-10T16:44:01.372Z</time>
      </trkpt>
      <trkpt lat="39.47319666666667" lon="-0.3484">
        <ele>9.400011039174558</ele>
        <time>2024-09-10T16:44:28.366Z</time>
      </trkpt>
      <trkpt lat="39.47307166666667" lon="-0.3480933333333333">
        <ele>11.19974434141372</ele>
        <time>2024-09-10T16:44:47.360Z</time>
      </trkpt>
      <trkpt lat="39.47289833333333" lon="-0.34750833333333336">
        <ele>17.799280938820765</ele>
        <time>2024-09-10T16:45:34.346Z</time>
      </trkpt>
      <trkpt lat="39.47299833333333" lon="-0.3473266666666667">
        <ele>19.39930121161207</ele>
        <time>2024-09-10T16:45:44.372Z</time>
      </trkpt>
      <trkpt lat="39.47263" lon="-0.34623166666666666">
        <ele>10.498411651416632</ele>
        <time>2024-09-10T16:47:11.373Z</time>
      </trkpt>
      <trkpt lat="39.472925000000004" lon="-0.34604666666666667">
        <ele>12.298661989875427</ele>
        <time>2024-09-10T16:47:52.399Z</time>
      </trkpt>
      <trkpt lat="39.47373" lon="-0.34580333333333335">
        <ele>5.599490415674623</ele>
        <time>2024-09-10T16:49:23.344Z</time>
      </trkpt>
      <trkpt lat="39.473958333333336" lon="-0.3454916666666667">
        <ele>3.999617672386165</ele>
        <time>2024-09-10T16:49:58.370Z</time>
      </trkpt>
      <trkpt lat="39.474111666666666" lon="-0.34591">
        <ele>5.4999880390037035</ele>
        <time>2024-09-10T16:50:33.363Z</time>
      </trkpt>
      <trkpt lat="39.47419166666667" lon="-0.34590166666666666">
        <ele>6.900072760869918</ele>
        <time>2024-09-10T16:50:49.370Z</time>
      </trkpt>
      <trkpt lat="39.47409666666667" lon="-0.34559500000000004">
        <ele>6.999856591459228</ele>
        <time>2024-09-10T16:51:26.370Z</time>
      </trkpt>
      <trkpt lat="39.474178333333334" lon="-0.3456966666666667">
        <ele>7.5999523564524765</ele>
        <time>2024-09-10T16:51:38.389Z</time>
      </trkpt>
      <trkpt lat="39.47477" lon="-0.3454666666666667">
        <ele>9.400554611257597</ele>
        <time>2024-09-10T16:52:18.351Z</time>
      </trkpt>
      <trkpt lat="39.474865" lon="-0.3453416666666667">
        <ele>12.500616377036671</ele>
        <time>2024-09-10T16:52:27.357Z</time>
      </trkpt>
      <trkpt lat="39.47431166666667" lon="-0.343345">
        <ele>4.2990984963713</ele>
        <time>2024-09-10T16:54:57.405Z</time>
      </trkpt>
      <trkpt lat="39.47408166666666" lon="-0.34264">
        <ele>9.598535384215197</ele>
        <time>2024-09-10T16:55:51.393Z</time>
      </trkpt>
      <trkpt lat="39.473965" lon="-0.3425">
        <ele>6.398344802676263</ele>
        <time>2024-09-10T16:56:10.349Z</time>
      </trkpt>
      <trkpt lat="39.473836666666664" lon="-0.3417066666666667">
        <ele>9.197835013639974</ele>
        <time>2024-09-10T16:57:13.379Z</time>
      </trkpt>
      <trkpt lat="39.473618333333334" lon="-0.3417866666666667">
        <ele>7.397617006836597</ele>
        <time>2024-09-10T16:57:38.357Z</time>
      </trkpt>
      <trkpt lat="39.473814999999995" lon="-0.3416783333333333">
        <ele>8.997779001632132</ele>
        <time>2024-09-10T16:57:58.343Z</time>
      </trkpt>
      <trkpt lat="39.473775" lon="-0.3414783333333334">
        <ele>8.097663295455284</ele>
        <time>2024-09-10T16:58:10.364Z</time>
      </trkpt>
      <trkpt lat="39.47341166666667" lon="-0.3403933333333333">
        <ele>1.9967734796364383</ele>
        <time>2024-09-10T16:59:35.363Z</time>
      </trkpt>
      <trkpt lat="39.473415" lon="-0.34014333333333335">
        <ele>11.496673985039394</ele>
        <time>2024-09-10T17:00:03.361Z</time>
      </trkpt>
      <trkpt lat="39.47315833333334" lon="-0.33958333333333335">
        <ele>6.196115742907672</ele>
        <time>2024-09-10T17:00:54.377Z</time>
      </trkpt>
      <trkpt lat="39.47301166666667" lon="-0.33893833333333334">
        <ele>5.095655727193019</ele>
        <time>2024-09-10T17:01:48.387Z</time>
      </trkpt>
      <trkpt lat="39.473034999999996" lon="-0.3387366666666667">
        <ele>4.8955925223064725</ele>
        <time>2024-09-10T17:02:02.390Z</time>
      </trkpt>
      <trkpt lat="39.47268000825159" lon="-0.33764484748934365">
        <ele>12.224972644525945</ele>
        <time>2024-09-10T17:03:55.989Z</time>
      </trkpt>
      <trkpt lat="39.4735962064141" lon="-0.33706041450938073">
        <ele>3.941413626284763</ele>
        <time>2024-09-10T17:05:40.821Z</time>
      </trkpt>
      <trkpt lat="39.472830388108974" lon="-0.3343402758289642">
        <ele>7.268583521783292</ele>
        <time>2024-09-10T17:09:30.249Z</time>
      </trkpt>
      <trkpt lat="39.47164546236638" lon="-0.32411102022973637">
        <ele>2.52567480682065</ele>
        <time>2024-09-10T17:23:09.889Z</time>
      </trkpt>
      <trkpt lat="39.48116803987347" lon="-0.3242725441886307">
        <ele>4.7084759946915185</ele>
        <time>2024-09-10T17:39:27.473Z</time>
      </trkpt>
      <trkpt lat="39.48137833333333" lon="-0.3244066666666667">
        <ele>5.998640271741451</ele>
        <time>2024-09-10T17:39:50.294Z</time>
      </trkpt>
      <trkpt lat="39.48142333333333" lon="-0.3241866666666667">
        <ele>5.8985888847357515</ele>
        <time>2024-09-10T17:40:15.274Z</time>
      </trkpt>
      <trkpt lat="39.481424999999994" lon="-0.3257683333333333">
        <ele>4.999330576198332</ele>
        <time>2024-09-10T17:42:24.310Z</time>
      </trkpt>
      <trkpt lat="39.48227166666666" lon="-0.32574333333333333">
        <ele>8.500299397967282</ele>
        <time>2024-09-10T17:43:45.293Z</time>
      </trkpt>
      <trkpt lat="39.481315" lon="-0.3257983333333333">
        <ele>4.399230337118901</ele>
        <time>2024-09-10T17:45:26.273Z</time>
      </trkpt>
      <trkpt lat="39.481305" lon="-0.3267966666666667">
        <ele>9.799677619993709</ele>
        <time>2024-09-10T17:46:33.315Z</time>
      </trkpt>
      <trkpt lat="39.48143166666667" lon="-0.32723">
        <ele>12.900022092405806</ele>
        <time>2024-09-10T17:47:06.316Z</time>
      </trkpt>
      <trkpt lat="39.48139333333334" lon="-0.3286466666666667">
        <ele>14.500641516026711</ele>
        <time>2024-09-10T17:48:58.303Z</time>
      </trkpt>
      <trkpt lat="39.480893333333334" lon="-0.32883333333333337">
        <ele>12.900167795359025</ele>
        <time>2024-09-10T17:49:42.316Z</time>
      </trkpt>
      <trkpt lat="39.48090333333334" lon="-0.32944666666666667">
        <ele>19.60045821160771</ele>
        <time>2024-09-10T17:50:23.276Z</time>
      </trkpt>
      <trkpt lat="39.4801" lon="-0.32966500000000004">
        <ele>17.099639742143644</ele>
        <time>2024-09-10T17:51:40.256Z</time>
      </trkpt>
      <trkpt lat="39.480085" lon="-0.32977333333333336">
        <ele>16.59966536211425</ele>
        <time>2024-09-10T17:51:49.287Z</time>
      </trkpt>
      <trkpt lat="39.479905" lon="-0.3298666666666667">
        <ele>7.299499742681789</ele>
        <time>2024-09-10T17:52:12.257Z</time>
      </trkpt>
      <trkpt lat="39.480305" lon="-0.33103166666666667">
        <ele>7.60047997959412</ele>
        <time>2024-09-10T17:54:01.283Z</time>
      </trkpt>
      <trkpt lat="39.480509999999995" lon="-0.332365">
        <ele>11.801347828513151</ele>
        <time>2024-09-10T17:55:46.270Z</time>
      </trkpt>
      <trkpt lat="39.476886666666665" lon="-0.33304833333333334">
        <ele>8.897483891237357</ele>
        <time>2024-09-10T18:01:37.315Z</time>
      </trkpt>
      <trkpt lat="39.47691" lon="-0.33342">
        <ele>8.997660675649122</ele>
        <time>2024-09-10T18:01:48.309Z</time>
      </trkpt>
      <trkpt lat="39.476866666666666" lon="-0.3339283333333333">
        <ele>10.297839570669112</ele>
        <time>2024-09-10T18:02:22.284Z</time>
      </trkpt>
      <trkpt lat="39.47640333333333" lon="-0.33409333333333335">
        <ele>10.197396309399977</ele>
        <time>2024-09-10T18:02:54.263Z</time>
      </trkpt>
      <trkpt lat="39.47640166666667" lon="-0.3342983333333333">
        <ele>14.997478723173423</ele>
        <time>2024-09-10T18:03:12.300Z</time>
      </trkpt>
      <trkpt lat="39.477945" lon="-0.33987833333333334">
        <ele>14.801786453488774</ele>
        <time>2024-09-10T18:10:25.264Z</time>
      </trkpt>
      <trkpt lat="39.478053333333335" lon="-0.34003">
        <ele>17.201966694450135</ele>
        <time>2024-09-10T18:10:45.277Z</time>
      </trkpt>
      <trkpt lat="39.47927166666667" lon="-0.34426999999999996">
        <ele>19.20525363338382</ele>
        <time>2024-09-10T18:16:39.273Z</time>
      </trkpt>
      <trkpt lat="39.47961" lon="-0.345585">
        <ele>22.70622197713987</ele>
        <time>2024-09-10T18:18:28.289Z</time>
      </trkpt>
      <trkpt lat="39.478320000000004" lon="-0.34626">
        <ele>15.705042584721966</ele>
        <time>2024-09-10T18:20:36.290Z</time>
      </trkpt>
      <trkpt lat="39.47830166666667" lon="-0.34639333333333333">
        <ele>18.605064052996156</ele>
        <time>2024-09-10T18:20:44.306Z</time>
      </trkpt>
      <trkpt lat="39.47817166666667" lon="-0.3464916666666667">
        <ele>18.104969044186923</ele>
        <time>2024-09-10T18:20:58.273Z</time>
      </trkpt>
      <trkpt lat="39.47824333333333" lon="-0.34732833333333335">
        <ele>16.905402503202765</ele>
        <time>2024-09-10T18:22:11.270Z</time>
      </trkpt>
      <trkpt lat="39.478165" lon="-0.3474466666666667">
        <ele>16.105370949448222</ele>
        <time>2024-09-10T18:22:21.269Z</time>
      </trkpt>
      <trkpt lat="39.47815666666667" lon="-0.3477483333333333">
        <ele>18.405479789920044</ele>
        <time>2024-09-10T18:22:46.289Z</time>
      </trkpt>
      <trkpt lat="39.478015" lon="-0.34768000000000004">
        <ele>19.705290040927963</ele>
        <time>2024-09-10T18:23:04.283Z</time>
      </trkpt>
      <trkpt lat="39.47813833333333" lon="-0.34763333333333335">
        <ele>22.00541321166969</ele>
        <time>2024-09-10T18:23:40.287Z</time>
      </trkpt>
      <trkpt lat="39.478190000000005" lon="-0.34779666666666664">
        <ele>22.105538472670062</ele>
        <time>2024-09-10T18:23:48.303Z</time>
      </trkpt>
      <trkpt lat="39.478115" lon="-0.34807333333333335">
        <ele>14.405578856094444</ele>
        <time>2024-09-10T18:24:07.302Z</time>
      </trkpt>
      <trkpt lat="39.47817333333333" lon="-0.348395">
        <ele>13.705777647807736</ele>
        <time>2024-09-10T18:24:29.313Z</time>
      </trkpt>
      <trkpt lat="39.478136666666664" lon="-0.3501416666666667">
        <ele>11.806486098072703</ele>
        <time>2024-09-10T18:26:45.296Z</time>
      </trkpt>
      <trkpt lat="39.47835666666666" lon="-0.3502266666666667">
        <ele>21.70678239563299</ele>
        <time>2024-09-10T18:27:03.315Z</time>
      </trkpt>
      <trkpt lat="39.478325000000005" lon="-0.35109">
        <ele>15.907102437101628</ele>
        <time>2024-09-10T18:28:03.277Z</time>
      </trkpt>
      <trkpt lat="39.47741833333334" lon="-0.3514666666666667">
        <ele>21.50622577651258</ele>
        <time>2024-09-10T18:29:36.271Z</time>
      </trkpt>
      <trkpt lat="39.477305" lon="-0.35169500000000004">
        <ele>26.506198219186658</ele>
        <time>2024-09-10T18:29:51.274Z</time>
      </trkpt>
      <trkpt lat="39.47754166666667" lon="-0.3517983333333333">
        <ele>42.60639771832684</ele>
        <time>2024-09-10T18:31:24.304Z</time>
      </trkpt>
      <trkpt lat="39.477536666666666" lon="-0.351885">
        <ele>44.30650941808522</ele>
        <time>2024-09-10T18:31:25.309Z</time>
      </trkpt>
      <trkpt lat="39.47756833333334" lon="-0.35178333333333334">
        <ele>31.40654046954083</ele>
        <time>2024-09-10T18:31:26.303Z</time>
      </trkpt>
      <trkpt lat="39.477493333333335" lon="-0.3517466666666667">
        <ele>67.90644509457317</ele>
        <time>2024-09-10T18:31:32.294Z</time>
      </trkpt>
      <trkpt lat="39.47711" lon="-0.35174333333333335">
        <ele>73.80600297978575</ele>
        <time>2024-09-10T18:32:14.299Z</time>
      </trkpt>
      <trkpt lat="39.47698833333333" lon="-0.35164833333333334">
        <ele>50.405810287361646</ele>
        <time>2024-09-10T18:32:24.303Z</time>
      </trkpt>
      <trkpt lat="39.47646833333333" lon="-0.35199833333333336">
        <ele>43.905348459689556</ele>
        <time>2024-09-10T18:33:01.284Z</time>
      </trkpt>
      <trkpt lat="39.476276666666664" lon="-0.35169666666666666">
        <ele>39.504997406306906</ele>
        <time>2024-09-10T18:33:28.290Z</time>
      </trkpt>
      <trkpt lat="39.476101666666665" lon="-0.35201333333333334">
        <ele>28.804926850181715</ele>
        <time>2024-09-10T18:33:56.283Z</time>
      </trkpt>
      <trkpt lat="39.475791666666666" lon="-0.35213">
        <ele>23.304620219123187</ele>
        <time>2024-09-10T18:34:21.296Z</time>
      </trkpt>
      <trkpt lat="39.475741666666664" lon="-0.35262166666666667">
        <ele>25.004759715512193</ele>
        <time>2024-09-10T18:35:12.277Z</time>
      </trkpt>
      <trkpt lat="39.475075" lon="-0.3531383333333334">
        <ele>21.204201710410118</ele>
        <time>2024-09-10T18:36:19.274Z</time>
      </trkpt>
      <trkpt lat="39.475384999999996" lon="-0.35401666666666665">
        <ele>17.104919055988773</ele>
        <time>2024-09-10T18:37:26.319Z</time>
      </trkpt>
      <trkpt lat="39.475525" lon="-0.35474">
        <ele>21.70539890572725</ele>
        <time>2024-09-10T18:38:40.317Z</time>
      </trkpt>
      <trkpt lat="39.474900000000005" lon="-0.35502666666666666">
        <ele>15.40480261144603</ele>
        <time>2024-09-10T18:39:39.294Z</time>
      </trkpt>
      <trkpt lat="39.47475166666666" lon="-0.355245">
        <ele>19.504716433049936</ele>
        <time>2024-09-10T18:40:00.290Z</time>
      </trkpt>
      <trkpt lat="39.47372166666666" lon="-0.3556933333333333">
        <ele>16.803716263274026</ele>
        <time>2024-09-10T18:42:06.277Z</time>
      </trkpt>
      <trkpt lat="39.47338166666667" lon="-0.35581">
        <ele>9.90336082377241</ele>
        <time>2024-09-10T18:42:32.310Z</time>
      </trkpt>
      <trkpt lat="39.473373333333335" lon="-0.35644333333333333">
        <ele>20.703594583505414</ele>
        <time>2024-09-10T18:43:16.320Z</time>
      </trkpt>
      <trkpt lat="39.473245" lon="-0.3568233333333334">
        <ele>19.403610306019928</ele>
        <time>2024-09-10T18:44:22.284Z</time>
      </trkpt>
      <trkpt lat="39.47345833333333" lon="-0.3573516666666666">
        <ele>22.204082372277554</ele>
        <time>2024-09-10T18:45:17.292Z</time>
      </trkpt>
      <trkpt lat="39.473515" lon="-0.3574583333333334">
        <ele>23.20418949154029</ele>
        <time>2024-09-10T18:46:28.281Z</time>
      </trkpt>
      <trkpt lat="39.4724" lon="-0.35785999999999996">
        <ele>20.103076508076484</ele>
        <time>2024-09-10T18:48:16.259Z</time>
      </trkpt>
      <trkpt lat="39.47264166666666" lon="-0.35875333333333337">
        <ele>26.803685793362185</ele>
        <time>2024-09-10T18:49:13.309Z</time>
      </trkpt>
      <trkpt lat="39.472838333333335" lon="-0.358915">
        <ele>32.80399010575506</ele>
        <time>2024-09-10T18:49:32.287Z</time>
      </trkpt>
      <trkpt lat="39.472746666666666" lon="-0.3592833333333333">
        <ele>24.40404402761063</ele>
        <time>2024-09-10T18:49:57.296Z</time>
      </trkpt>
      <trkpt lat="39.472878333333334" lon="-0.3593766666666667">
        <ele>25.004225843132886</ele>
        <time>2024-09-10T18:50:12.296Z</time>
      </trkpt>
      <trkpt lat="39.47309166666666" lon="-0.36006499999999997">
        <ele>21.50476451786323</ele>
        <time>2024-09-10T18:51:04.316Z</time>
      </trkpt>
      <trkpt lat="39.47304999999999" lon="-0.36039">
        <ele>22.90484248263631</ele>
        <time>2024-09-10T18:51:22.274Z</time>
      </trkpt>
      <trkpt lat="39.47287333333334" lon="-0.360475">
        <ele>20.00468438383639</ele>
        <time>2024-09-10T18:51:37.263Z</time>
      </trkpt>
      <trkpt lat="39.473235" lon="-0.36082333333333333">
        <ele>21.605230899164013</ele>
        <time>2024-09-10T18:52:33.297Z</time>
      </trkpt>
      <trkpt lat="39.473213333333334" lon="-0.3609666666666667">
        <ele>17.405278979540235</ele>
        <time>2024-09-10T18:52:47.289Z</time>
      </trkpt>
      <trkpt lat="39.47344666666667" lon="-0.3613983333333334">
        <ele>21.30571811986905</ele>
        <time>2024-09-10T18:53:20.271Z</time>
      </trkpt>
      <trkpt lat="39.47352166666667" lon="-0.36184">
        <ele>25.305986197118564</ele>
        <time>2024-09-10T18:54:05.280Z</time>
      </trkpt>
      <trkpt lat="39.47419333333333" lon="-0.36373833333333333">
        <ele>33.507544803961494</ele>
        <time>2024-09-10T18:56:47.280Z</time>
      </trkpt>
      <trkpt lat="39.47357" lon="-0.364745">
        <ele>12.907236151976953</ele>
        <time>2024-09-10T18:59:17.271Z</time>
      </trkpt>
      <trkpt lat="39.47336166666666" lon="-0.365385">
        <ele>18.907237940795348</ele>
        <time>2024-09-10T19:00:16.276Z</time>
      </trkpt>
      <trkpt lat="39.47259666666666" lon="-0.3668616666666667">
        <ele>22.00693384430589</ele>
        <time>2024-09-10T19:03:05.263Z</time>
      </trkpt>
      <trkpt lat="39.472791666666666" lon="-0.3668983333333333">
        <ele>24.007171685376633</ele>
        <time>2024-09-10T19:03:37.277Z</time>
      </trkpt>
      <trkpt lat="39.47256" lon="-0.36750166666666667">
        <ele>18.007135910755203</ele>
        <time>2024-09-10T19:04:45.299Z</time>
      </trkpt>
      <trkpt lat="39.472438333333336" lon="-0.36759">
        <ele>5.407051194884268</ele>
        <time>2024-09-10T19:04:54.304Z</time>
      </trkpt>
      <trkpt lat="39.47228500000001" lon="-0.3679366666666667">
        <ele>3.4069957570568334</ele>
        <time>2024-09-10T19:05:15.261Z</time>
      </trkpt>
      <trkpt lat="39.47236" lon="-0.3680483333333333">
        <ele>11.607108879709159</ele>
        <time>2024-09-10T19:05:28.263Z</time>
      </trkpt>
      <trkpt lat="39.47231333333333" lon="-0.3683566666666667">
        <ele>19.80719372238785</ele>
        <time>2024-09-10T19:05:47.267Z</time>
      </trkpt>
      <trkpt lat="39.47245" lon="-0.36851500000000004">
        <ele>21.90740417347657</ele>
        <time>2024-09-10T19:06:00.259Z</time>
      </trkpt>
      <trkpt lat="39.47239666666667" lon="-0.36875166666666664">
        <ele>23.307453351972157</ele>
        <time>2024-09-10T19:06:17.266Z</time>
      </trkpt>
      <trkpt lat="39.472631666666665" lon="-0.36891666666666667">
        <ele>22.2077548947209</ele>
        <time>2024-09-10T19:06:52.277Z</time>
      </trkpt>
      <trkpt lat="39.47255333333333" lon="-0.369105">
        <ele>17.207770471958277</ele>
        <time>2024-09-10T19:07:03.286Z</time>
      </trkpt>
      <trkpt lat="39.47260833333333" lon="-0.3695066666666667">
        <ele>11.807982057974726</ele>
        <time>2024-09-10T19:07:20.294Z</time>
      </trkpt>
      <trkpt lat="39.47252" lon="-0.3699233333333333">
        <ele>23.108046742802266</ele>
        <time>2024-09-10T19:07:40.320Z</time>
      </trkpt>
      <trkpt lat="39.47259666666666" lon="-0.3702283333333333">
        <ele>27.208246605648995</ele>
        <time>2024-09-10T19:07:58.263Z</time>
      </trkpt>
      <trkpt lat="39.47277" lon="-0.37031833333333336">
        <ele>26.708487281687688</ele>
        <time>2024-09-10T19:08:10.289Z</time>
      </trkpt>
      <trkpt lat="39.47293166666667" lon="-0.37083">
        <ele>23.30886767625975</ele>
        <time>2024-09-10T19:08:46.284Z</time>
      </trkpt>
      <trkpt lat="39.472896666666664" lon="-0.37122666666666665">
        <ele>18.80900124442526</ele>
        <time>2024-09-10T19:09:03.280Z</time>
      </trkpt>
      <trkpt lat="39.473076666666664" lon="-0.3718">
        <ele>19.90943697056519</ele>
        <time>2024-09-10T19:09:38.263Z</time>
      </trkpt>
      <trkpt lat="39.472941666666664" lon="-0.37138333333333334">
        <ele>12.809115893669748</ele>
        <time>2024-09-10T19:16:22.286Z</time>
      </trkpt>
      <trkpt lat="39.47300333333333" lon="-0.37188499999999997">
        <ele>14.109374192139228</ele>
        <time>2024-09-10T19:17:33.307Z</time>
      </trkpt>
      <trkpt lat="39.47325333333333" lon="-0.372115">
        <ele>16.009746294169098</ele>
        <time>2024-09-10T19:17:58.302Z</time>
      </trkpt>
      <trkpt lat="39.473205" lon="-0.3724233333333334">
        <ele>24.10983035233133</ele>
        <time>2024-09-10T19:18:25.267Z</time>
      </trkpt>
      <trkpt lat="39.473378333333336" lon="-0.3730066666666667">
        <ele>26.310233184176795</ele>
        <time>2024-09-10T19:19:20.307Z</time>
      </trkpt>
      <trkpt lat="39.47338666666667" lon="-0.37315833333333337">
        <ele>29.710322607727207</ele>
        <time>2024-09-10T19:19:32.312Z</time>
      </trkpt>
      <trkpt lat="39.472705" lon="-0.37337333333333333">
        <ele>21.709625661553694</ele>
        <time>2024-09-10T19:20:26.257Z</time>
      </trkpt>
      <trkpt lat="39.47266666666667" lon="-0.37348333333333333">
        <ele>15.509614039295947</ele>
        <time>2024-09-10T19:20:37.303Z</time>
      </trkpt>
      <trkpt lat="39.47271166666667" lon="-0.3740016666666667">
        <ele>20.90986324363955</ele>
        <time>2024-09-10T19:21:28.309Z</time>
      </trkpt>
      <trkpt lat="39.472785" lon="-0.374085">
        <ele>20.309976424856224</ele>
        <time>2024-09-10T19:21:38.304Z</time>
      </trkpt>
      <trkpt lat="39.47268999999999" lon="-0.374435">
        <ele>47.710006142895246</ele>
        <time>2024-09-10T19:22:09.266Z</time>
      </trkpt>
      <trkpt lat="39.472743333333334" lon="-0.37446">
        <ele>55.61006796790418</ele>
        <time>2024-09-10T19:22:25.269Z</time>
      </trkpt>
      <trkpt lat="39.472681666666666" lon="-0.3744283333333333">
        <ele>59.11000090633269</ele>
        <time>2024-09-10T19:22:35.261Z</time>
      </trkpt>
      <trkpt lat="39.473013333333334" lon="-0.37518166666666664">
        <ele>49.010663751481</ele>
        <time>2024-09-10T19:23:32.269Z</time>
      </trkpt>
      <trkpt lat="39.47309333333333" lon="-0.37569166666666665">
        <ele>38.5109411963144</ele>
        <time>2024-09-10T19:24:07.269Z</time>
      </trkpt>
      <trkpt lat="39.472805" lon="-0.3764116666666667">
        <ele>36.01086416328183</ele>
        <time>2024-09-10T19:25:42.289Z</time>
      </trkpt>
      <trkpt lat="39.47262666666666" lon="-0.3765466666666667">
        <ele>47.810742439302395</ele>
        <time>2024-09-10T19:26:20.277Z</time>
      </trkpt>
      <trkpt lat="39.47304999999999" lon="-0.3771566666666667">
        <ele>25.711450441800082</ele>
        <time>2024-09-10T19:27:16.280Z</time>
      </trkpt>
      <trkpt lat="39.47299666666667" lon="-0.3775783333333333">
        <ele>23.81156300197847</ele>
        <time>2024-09-10T19:27:55.277Z</time>
      </trkpt>
      <trkpt lat="39.473214999999996" lon="-0.3778316666666666">
        <ele>27.411921483170126</ele>
        <time>2024-09-10T19:28:45.281Z</time>
      </trkpt>
      <trkpt lat="39.47343166666667" lon="-0.3780033333333333">
        <ele>29.412220314046543</ele>
        <time>2024-09-10T19:29:17.290Z</time>
      </trkpt>
      <trkpt lat="39.473304999999996" lon="-0.37816833333333333">
        <ele>33.41219096407608</ele>
        <time>2024-09-10T19:30:04.297Z</time>
      </trkpt>
      <trkpt lat="39.473198333333336" lon="-0.3786566666666667">
        <ele>28.112216648412314</ele>
        <time>2024-09-10T19:30:38.279Z</time>
      </trkpt>
      <trkpt lat="39.47295666666666" lon="-0.3787183333333333">
        <ele>43.91196036658926</ele>
        <time>2024-09-10T19:31:06.869Z</time>
      </trkpt>
      <trkpt lat="39.47279415409713" lon="-0.37725872580924147">
        <ele>22.403460787912852</ele>
        <time>2024-09-10T19:47:13.720Z</time>
      </trkpt>
      <trkpt lat="39.47273321630814" lon="-0.3773470413784139">
        <ele>21.840692656883615</ele>
        <time>2024-09-10T20:00:39.182Z</time>
      </trkpt>
      <trkpt lat="39.47292" lon="-0.3775816666666667">
        <ele>23.33671081532035</ele>
        <time>2024-09-10T20:00:50.944Z</time>
      </trkpt>
      <trkpt lat="39.4731" lon="-0.37746833333333335">
        <ele>21.91164518906057</ele>
        <time>2024-09-10T20:20:02.273Z</time>
      </trkpt>
      <trkpt lat="39.47225" lon="-0.37699">
        <ele>26.61047393844516</ele>
        <time>2024-09-10T20:26:27.279Z</time>
      </trkpt>
      <trkpt lat="39.472183333333334" lon="-0.3768316666666667">
        <ele>27.110331213573268</ele>
        <time>2024-09-10T20:26:52.290Z</time>
      </trkpt>
      <trkpt lat="39.47256166666667" lon="-0.3766966666666667">
        <ele>24.41072178055785</ele>
        <time>2024-09-10T20:27:44.286Z</time>
      </trkpt>
      <trkpt lat="39.47265166666667" lon="-0.37679500000000005">
        <ele>29.810856757317396</ele>
        <time>2024-09-10T20:28:11.300Z</time>
      </trkpt>
      <trkpt lat="39.472631666666665" lon="-0.37653">
        <ele>30.910746308357595</ele>
        <time>2024-09-10T20:28:32.310Z</time>
      </trkpt>
      <trkpt lat="39.47328856715296" lon="-0.3760105623752281">
        <ele>31.03627675772008</ele>
        <time>2024-09-10T20:32:15.324Z</time>
      </trkpt>
      <trkpt lat="39.473165515714925" lon="-0.3757493874517479">
        <ele>29.554046127063415</ele>
        <time>2024-09-10T20:33:23.546Z</time>
      </trkpt>
      <trkpt lat="39.47326879104378" lon="-0.37593085776691737">
        <ele>30.815182967455605</ele>
        <time>2024-09-10T20:34:14.060Z</time>
      </trkpt>
      <trkpt lat="39.47377166666667" lon="-0.37551999999999996">
        <ele>30.06506881681302</ele>
        <time>2024-09-10T20:36:27.071Z</time>
      </trkpt>
      <trkpt lat="39.473475" lon="-0.37438000000000005">
        <ele>20.710924645170294</ele>
        <time>2024-09-10T20:38:02.067Z</time>
      </trkpt>
      <trkpt lat="39.473575" lon="-0.37416166666666667">
        <ele>20.81094824593277</ele>
        <time>2024-09-10T20:38:18.031Z</time>
      </trkpt>
      <trkpt lat="39.473463333333335" lon="-0.37401666666666666">
        <ele>17.810770813106252</ele>
        <time>2024-09-10T20:38:29.018Z</time>
      </trkpt>
      <trkpt lat="39.47353833333333" lon="-0.3739">
        <ele>18.310792972219353</ele>
        <time>2024-09-10T20:38:37.051Z</time>
      </trkpt>
      <trkpt lat="39.47345833333333" lon="-0.3733633333333334">
        <ele>14.910511524669893</ele>
        <time>2024-09-10T20:39:34.021Z</time>
      </trkpt>
      <trkpt lat="39.473126666666666" lon="-0.3718">
        <ele>14.609504135237735</ele>
        <time>2024-09-10T20:41:39.037Z</time>
      </trkpt>
      <trkpt lat="39.47287333333334" lon="-0.37193333333333334">
        <ele>14.70949957950645</ele>
        <time>2024-09-10T20:43:09.056Z</time>
      </trkpt>
      <trkpt lat="39.472991666666665" lon="-0.37191166666666664">
        <ele>35.20938128577243</ele>
        <time>2024-09-10T20:43:55.050Z</time>
      </trkpt>
      <trkpt lat="39.47294" lon="-0.37200833333333333">
        <ele>47.70936150400212</ele>
        <time>2024-09-10T21:04:56.642Z</time>
      </trkpt>
    </trkseg>
  </trk>
</gpx>
