<?xml version="1.0" encoding="UTF-8"?>
<gpx version="1.1" creator="Export" xmlns="http://www.topografix.com/GPX/1/1" xmlns:xsi="http://www.w3.org/2001/XMLSchema-instance" xsi:schemaLocation="http://www.topografix.com/GPX/1/1 http://www.topografix.com/GPX/1/1/gpx.xsd http://www.garmin.com/xmlschemas/GpxExtensions/v3 http://www.garmin.com/xmlschemas/GpxExtensionsv3.xsd http://www.garmin.com/xmlschemas/TrackPointExtension/v1 http://www.garmin.com/xmlschemas/TrackPointExtensionv1.xsd http://www.garmin.com/xmlschemas/PowerExtension/v1 http://www.garmin.com/xmlschemas/PowerExtensionv1.xsd http://www.topografix.com/GPX/gpx_style/0/2 http://www.topografix.com/GPX/gpx_style/0/2/gpx_style.xsd" xmlns:gpxtpx="http://www.garmin.com/xmlschemas/TrackPointExtension/v1" xmlns:gpxx="http://www.garmin.com/xmlschemas/GpxExtensions/v3" xmlns:gpxpx="http://www.garmin.com/xmlschemas/PowerExtension/v1" xmlns:gpx_style="http://www.topografix.com/GPX/gpx_style/0/2">
  <metadata>
    <name>activity_164_2024-08-24</name>
    <author>
      <name>gpx.studio</name>
      <link href="https://gpx.studio"/>
    </author>
  </metadata>
  <wpt lat="52.36652907863606" lon="4.896301656365694">
    <ele>8.205155213503913</ele>
    <name>Stroopwaffle Workshop</name>
    <sym>Car Repair</sym>
  </wpt>
  <wpt lat="52.366105" lon="4.899798">
    <ele>7.995093091126722</ele>
    <name>Our House</name>
    <sym>Information</sym>
  </wpt>
  <wpt lat="52.369262" lon="4.892983">
    <ele>9.782783715858475</ele>
    <name>De Laatse Kruimel</name>
    <sym>Restaurant</sym>
  </wpt>
  <trk>
    <trkseg>
      <trkpt lat="52.367428681504464" lon="4.902206558687368">
        <ele>8.509048788017825</ele>
        <time>2024-08-24T09:58:15.577Z</time>
      </trkpt>
      <trkpt lat="52.36801012697538" lon="4.902774904657548">
        <ele>4.853223970906232</ele>
        <time>2024-08-24T10:00:07.091Z</time>
      </trkpt>
      <trkpt lat="52.36884049384835" lon="4.900427090408897">
        <ele>4.359025598784399</ele>
        <time>2024-08-24T10:04:54.067Z</time>
      </trkpt>
      <trkpt lat="52.36762166666667" lon="4.898925">
        <ele>0.41446683071619084</ele>
        <time>2024-08-24T10:09:18.297Z</time>
      </trkpt>
      <trkpt lat="52.36792333333333" lon="4.899328333333333">
        <ele>-3.451370833163466</ele>
        <time>2024-08-24T10:19:59.566Z</time>
      </trkpt>
      <trkpt lat="52.36805" lon="4.899145">
        <ele>1.048474442654765</ele>
        <time>2024-08-24T10:20:57.585Z</time>
      </trkpt>
      <trkpt lat="52.36816166666667" lon="4.8986616666666665">
        <ele>3.9480088175219237</ele>
        <time>2024-08-24T10:21:45.572Z</time>
      </trkpt>
      <trkpt lat="52.367648333333335" lon="4.898133333333333">
        <ele>-5.6525293885636145</ele>
        <time>2024-08-24T10:23:04.594Z</time>
      </trkpt>
      <trkpt lat="52.36775666666667" lon="4.897391666666667">
        <ele>-3.1532486606734267</ele>
        <time>2024-08-24T10:23:48.585Z</time>
      </trkpt>
      <trkpt lat="52.36819333333333" lon="4.897758333333333">
        <ele>8.547127117382914</ele>
        <time>2024-08-24T10:24:49.601Z</time>
      </trkpt>
      <trkpt lat="52.36821499999999" lon="4.897696666666667">
        <ele>8.047094333548394</ele>
        <time>2024-08-24T10:24:53.594Z</time>
      </trkpt>
      <trkpt lat="52.36818166666667" lon="4.897663333333334">
        <ele>7.547048399298255</ele>
        <time>2024-08-24T10:25:00.569Z</time>
      </trkpt>
      <trkpt lat="52.368266666666656" lon="4.897713333333333">
        <ele>13.447100135603485</ele>
        <time>2024-08-24T10:25:21.565Z</time>
      </trkpt>
      <trkpt lat="52.36827166666667" lon="4.896905">
        <ele>4.846336711509458</ele>
        <time>2024-08-24T10:26:40.594Z</time>
      </trkpt>
      <trkpt lat="52.36840666666667" lon="4.896563333333333">
        <ele>9.946003763552262</ele>
        <time>2024-08-24T10:27:09.591Z</time>
      </trkpt>
      <trkpt lat="52.36835666666666" lon="4.896401666666667">
        <ele>1.545881744865497</ele>
        <time>2024-08-24T10:28:00.602Z</time>
      </trkpt>
      <trkpt lat="52.36843666666667" lon="4.896116666666667">
        <ele>1.6455872727135343</ele>
        <time>2024-08-24T10:28:16.591Z</time>
      </trkpt>
      <trkpt lat="52.368358333333326" lon="4.895893333333333">
        <ele>3.0453518037558567</ele>
        <time>2024-08-24T10:28:40.607Z</time>
      </trkpt>
      <trkpt lat="52.36840166666666" lon="4.895976666666667">
        <ele>4.645421322752291</ele>
        <time>2024-08-24T10:34:21.121Z</time>
      </trkpt>
      <trkpt lat="52.36840166666666" lon="4.895976666666667">
        <ele>5.800388019589693</ele>
        <time>2024-08-24T10:34:21.121Z</time>
      </trkpt>
      <trkpt lat="52.36839666666666" lon="4.896013333333333">
        <ele>5.855131960539733</ele>
        <time>2024-08-24T10:36:18.002Z</time>
      </trkpt>
      <trkpt lat="52.36839666666666" lon="4.896013333333333">
        <ele>5.745566750644784</ele>
        <time>2024-08-24T10:36:18.002Z</time>
      </trkpt>
      <trkpt lat="52.36832833333333" lon="4.896083333333333">
        <ele>5.545518388060707</ele>
        <time>2024-08-24T10:39:44.598Z</time>
      </trkpt>
      <trkpt lat="52.368381666666664" lon="4.896063333333333">
        <ele>4.245512291096581</ele>
        <time>2024-08-24T10:39:50.595Z</time>
      </trkpt>
      <trkpt lat="52.368465" lon="4.896155">
        <ele>5.245595359878905</ele>
        <time>2024-08-24T10:40:00.594Z</time>
      </trkpt>
      <trkpt lat="52.36855666666667" lon="4.896083333333333">
        <ele>7.845547423525282</ele>
        <time>2024-08-24T10:40:12.589Z</time>
      </trkpt>
      <trkpt lat="52.36921833333334" lon="4.896721666666666">
        <ele>-1.8537878165527246</ele>
        <time>2024-08-24T10:41:31.572Z</time>
      </trkpt>
      <trkpt lat="52.36931166666667" lon="4.896560000000001">
        <ele>1.0460985520282833</ele>
        <time>2024-08-24T10:41:44.588Z</time>
      </trkpt>
      <trkpt lat="52.36940833333333" lon="4.896105">
        <ele>3.045670173607455</ele>
        <time>2024-08-24T10:42:00.594Z</time>
      </trkpt>
      <trkpt lat="52.36931833333333" lon="4.89609">
        <ele>3.2456457951793567</ele>
        <time>2024-08-24T10:42:02.595Z</time>
      </trkpt>
      <trkpt lat="52.369351666666674" lon="4.895958333333333">
        <ele>3.745550618611418</ele>
        <time>2024-08-24T10:42:07.598Z</time>
      </trkpt>
      <trkpt lat="52.36922500000001" lon="4.89597">
        <ele>3.345503603224884</ele>
        <time>2024-08-24T10:42:20.568Z</time>
      </trkpt>
      <trkpt lat="52.36913166666667" lon="4.896178333333333">
        <ele>10.845696531993141</ele>
        <time>2024-08-24T10:42:39.575Z</time>
      </trkpt>
      <trkpt lat="52.369171666666674" lon="4.8962216666666665">
        <ele>10.745733663412864</ele>
        <time>2024-08-24T10:42:45.559Z</time>
      </trkpt>
      <trkpt lat="52.36914166666667" lon="4.896041666666666">
        <ele>16.345566523650618</ele>
        <time>2024-08-24T10:51:12.601Z</time>
      </trkpt>
      <trkpt lat="52.36927000000001" lon="4.896015">
        <ele>15.845559931416126</ele>
        <time>2024-08-24T10:51:34.595Z</time>
      </trkpt>
      <trkpt lat="52.369260000000004" lon="4.8964533333333335">
        <ele>15.34588944445327</ele>
        <time>2024-08-24T10:51:51.594Z</time>
      </trkpt>
      <trkpt lat="52.36936666666667" lon="4.8965000000000005">
        <ele>15.245972129527509</ele>
        <time>2024-08-24T10:51:52.596Z</time>
      </trkpt>
      <trkpt lat="52.36919833333333" lon="4.896673333333334">
        <ele>14.94615489792232</ele>
        <time>2024-08-24T10:51:56.595Z</time>
      </trkpt>
      <trkpt lat="52.36922333333334" lon="4.8967616666666665">
        <ele>10.946270857910733</ele>
        <time>2024-08-24T10:52:04.166Z</time>
      </trkpt>
      <trkpt lat="52.37100110800213" lon="4.898424489346354">
        <ele>7.981553987041446</ele>
        <time>2024-08-24T10:56:24.936Z</time>
      </trkpt>
      <trkpt lat="52.37142833333334" lon="4.898798333333334">
        <ele>8.781443215411048</ele>
        <time>2024-08-24T10:57:26.633Z</time>
      </trkpt>
      <trkpt lat="52.37152" lon="4.89898">
        <ele>8.690694385715544</ele>
        <time>2024-08-24T11:02:25.296Z</time>
      </trkpt>
      <trkpt lat="52.37121333333333" lon="4.898798333333334">
        <ele>3.9484220517421775</ele>
        <time>2024-08-24T11:06:13.585Z</time>
      </trkpt>
      <trkpt lat="52.37115333333333" lon="4.898616666666666">
        <ele>-0.8517417724180376</ele>
        <time>2024-08-24T11:06:24.596Z</time>
      </trkpt>
      <trkpt lat="52.37106000000001" lon="4.898548333333333">
        <ele>-2.651833003143963</ele>
        <time>2024-08-24T11:06:34.595Z</time>
      </trkpt>
      <trkpt lat="52.371435000000005" lon="4.897201666666668">
        <ele>11.346902463215486</ele>
        <time>2024-08-24T11:07:57.584Z</time>
      </trkpt>
      <trkpt lat="52.37145" lon="4.897028333333334">
        <ele>14.24673466676218</ele>
        <time>2024-08-24T11:08:06.584Z</time>
      </trkpt>
      <trkpt lat="52.371615000000006" lon="4.89677">
        <ele>10.54650360560337</ele>
        <time>2024-08-24T11:08:29.586Z</time>
      </trkpt>
      <trkpt lat="52.37186" lon="4.89607">
        <ele>6.245847515425304</ele>
        <time>2024-08-24T11:09:23.584Z</time>
      </trkpt>
      <trkpt lat="52.37188666666666" lon="4.895856666666667">
        <ele>3.9456375053675146</ele>
        <time>2024-08-24T11:09:47.591Z</time>
      </trkpt>
      <trkpt lat="52.37193666666667" lon="4.895841666666667">
        <ele>3.04562256498906</ele>
        <time>2024-08-24T11:09:57.559Z</time>
      </trkpt>
      <trkpt lat="52.37223166666666" lon="4.894785">
        <ele>10.444616608770275</ele>
        <time>2024-08-24T11:11:15.555Z</time>
      </trkpt>
      <trkpt lat="52.37257833333333" lon="4.893836666666667">
        <ele>10.343762324549175</ele>
        <time>2024-08-24T11:12:21.562Z</time>
      </trkpt>
      <trkpt lat="52.372708333333335" lon="4.8938299999999995">
        <ele>11.243740008895337</ele>
        <time>2024-08-24T11:12:34.562Z</time>
      </trkpt>
      <trkpt lat="52.37283166666666" lon="4.894045">
        <ele>15.343942181879605</ele>
        <time>2024-08-24T11:12:47.568Z</time>
      </trkpt>
      <trkpt lat="52.372890000000005" lon="4.894025">
        <ele>17.543943045550336</ele>
        <time>2024-08-24T11:12:53.573Z</time>
      </trkpt>
      <trkpt lat="52.37298333333333" lon="4.893653333333333">
        <ele>12.243600043890154</ele>
        <time>2024-08-24T11:13:33.582Z</time>
      </trkpt>
      <trkpt lat="52.37307166666666" lon="4.893491666666667">
        <ele>7.443451476589452</ele>
        <time>2024-08-24T11:13:52.565Z</time>
      </trkpt>
      <trkpt lat="52.37299500000001" lon="4.893418333333333">
        <ele>5.443367930523607</ele>
        <time>2024-08-24T11:14:09.565Z</time>
      </trkpt>
      <trkpt lat="52.37292833333333" lon="4.893468333333333">
        <ele>6.243405784326718</ele>
        <time>2024-08-24T11:14:18.569Z</time>
      </trkpt>
      <trkpt lat="52.37289666666667" lon="4.8935450000000005">
        <ele>4.543479695772199</ele>
        <time>2024-08-24T11:14:31.561Z</time>
      </trkpt>
      <trkpt lat="52.37297" lon="4.893706666666667">
        <ele>5.443627323665488</ele>
        <time>2024-08-24T11:14:46.599Z</time>
      </trkpt>
      <trkpt lat="52.372888333333336" lon="4.893963333333334">
        <ele>3.4438697255065662</ele>
        <time>2024-08-24T11:15:04.601Z</time>
      </trkpt>
      <trkpt lat="52.37285166666667" lon="4.893953333333333">
        <ele>2.043875748679241</ele>
        <time>2024-08-24T11:15:15.591Z</time>
      </trkpt>
      <trkpt lat="52.37286833333333" lon="4.894">
        <ele>14.843870763610106</ele>
        <time>2024-08-24T11:17:03.612Z</time>
      </trkpt>
      <trkpt lat="52.37296500000001" lon="4.893933333333334">
        <ele>21.44386120105589</ele>
        <time>2024-08-24T11:17:24.563Z</time>
      </trkpt>
      <trkpt lat="52.372885" lon="4.893995">
        <ele>16.243901254097928</ele>
        <time>2024-08-24T11:18:30.585Z</time>
      </trkpt>
      <trkpt lat="52.37295833333333" lon="4.894276666666667">
        <ele>17.644183225657834</ele>
        <time>2024-08-24T11:18:47.584Z</time>
      </trkpt>
      <trkpt lat="52.372911666666674" lon="4.894411666666667">
        <ele>13.144310670043915</ele>
        <time>2024-08-24T11:18:58.558Z</time>
      </trkpt>
      <trkpt lat="52.37295166666666" lon="4.8946499999999995">
        <ele>3.74453592389397</ele>
        <time>2024-08-24T11:19:15.588Z</time>
      </trkpt>
      <trkpt lat="52.37323833333333" lon="4.895116666666667">
        <ele>1.3450291299057326</ele>
        <time>2024-08-24T11:19:55.555Z</time>
      </trkpt>
      <trkpt lat="52.373304999999995" lon="4.895055">
        <ele>2.744974408399621</ele>
        <time>2024-08-24T11:20:11.604Z</time>
      </trkpt>
      <trkpt lat="52.37378166666667" lon="4.895811666666667">
        <ele>0.045744509884357853</ele>
        <time>2024-08-24T11:21:18.559Z</time>
      </trkpt>
      <trkpt lat="52.37375166666667" lon="4.895700000000001">
        <ele>7.045639315790311</ele>
        <time>2024-08-24T11:21:43.569Z</time>
      </trkpt>
      <trkpt lat="52.373823333333334" lon="4.895553333333334">
        <ele>8.945529853462645</ele>
        <time>2024-08-24T11:22:02.599Z</time>
      </trkpt>
      <trkpt lat="52.373983333333335" lon="4.895415">
        <ele>13.445398501666538</ele>
        <time>2024-08-24T11:22:16.591Z</time>
      </trkpt>
      <trkpt lat="52.37401833333333" lon="4.895288333333333">
        <ele>21.64526879061941</ele>
        <time>2024-08-24T11:22:31.594Z</time>
      </trkpt>
      <trkpt lat="52.37410499999999" lon="4.895393333333333">
        <ele>20.045357382446085</ele>
        <time>2024-08-24T11:22:42.584Z</time>
      </trkpt>
      <trkpt lat="52.374085" lon="4.895361666666666">
        <ele>17.84535767473777</ele>
        <time>2024-08-24T11:22:45.562Z</time>
      </trkpt>
      <trkpt lat="52.37415333333333" lon="4.89529">
        <ele>11.94527520015172</ele>
        <time>2024-08-24T11:22:52.555Z</time>
      </trkpt>
      <trkpt lat="52.37431333333334" lon="4.895506666666666">
        <ele>3.845487302732707</ele>
        <time>2024-08-24T11:23:16.601Z</time>
      </trkpt>
      <trkpt lat="52.37449" lon="4.895301666666667">
        <ele>0.6453154090787478</ele>
        <time>2024-08-24T11:23:55.588Z</time>
      </trkpt>
      <trkpt lat="52.37460833333333" lon="4.895501666666666">
        <ele>1.445521949756916</ele>
        <time>2024-08-24T11:25:57.571Z</time>
      </trkpt>
      <trkpt lat="52.37484166666666" lon="4.895256666666667">
        <ele>1.645316549131941</ele>
        <time>2024-08-24T11:26:07.592Z</time>
      </trkpt>
      <trkpt lat="52.37482333333334" lon="4.895381666666666">
        <ele>1.6454009218113654</ele>
        <time>2024-08-24T11:26:11.604Z</time>
      </trkpt>
      <trkpt lat="52.374715" lon="4.895413333333334">
        <ele>1.6454417724483008</ele>
        <time>2024-08-24T11:26:18.598Z</time>
      </trkpt>
      <trkpt lat="52.374456666666674" lon="4.89512">
        <ele>1.6452708917476144</ele>
        <time>2024-08-24T11:26:23.608Z</time>
      </trkpt>
      <trkpt lat="52.37390833333334" lon="4.8948366666666665">
        <ele>1.9448388214981875</ele>
        <time>2024-08-24T11:26:33.596Z</time>
      </trkpt>
      <trkpt lat="52.37482166666667" lon="4.896003333333333">
        <ele>1.9448184501292687</ele>
        <time>2024-08-24T11:32:51.562Z</time>
      </trkpt>
      <trkpt lat="52.37481" lon="4.896073333333334">
        <ele>13.04602828870096</ele>
        <time>2024-08-24T11:32:52.599Z</time>
      </trkpt>
      <trkpt lat="52.3749" lon="4.8960550000000005">
        <ele>19.246095070738143</ele>
        <time>2024-08-24T11:32:53.565Z</time>
      </trkpt>
      <trkpt lat="52.37487666666666" lon="4.895998333333334">
        <ele>28.84604572267662</ele>
        <time>2024-08-24T11:32:57.559Z</time>
      </trkpt>
      <trkpt lat="52.37502333333334" lon="4.895901666666667">
        <ele>34.345974627087934</ele>
        <time>2024-08-24T11:33:06.552Z</time>
      </trkpt>
      <trkpt lat="52.37480000000001" lon="4.896085">
        <ele>33.04610182049792</ele>
        <time>2024-08-24T11:33:25.558Z</time>
      </trkpt>
      <trkpt lat="52.37480166666666" lon="4.895996666666666">
        <ele>32.74603974326071</ele>
        <time>2024-08-24T11:33:31.589Z</time>
      </trkpt>
      <trkpt lat="52.37462166666666" lon="4.895931666666667">
        <ele>31.045985506783232</ele>
        <time>2024-08-24T11:33:36.596Z</time>
      </trkpt>
      <trkpt lat="52.37462833333334" lon="4.89576">
        <ele>27.245790187478576</ele>
        <time>2024-08-24T11:33:41.592Z</time>
      </trkpt>
      <trkpt lat="52.37453833333334" lon="4.895475">
        <ele>19.645553227208325</ele>
        <time>2024-08-24T11:33:48.591Z</time>
      </trkpt>
      <trkpt lat="52.37458" lon="4.89528">
        <ele>6.845314626009504</ele>
        <time>2024-08-24T11:34:06.589Z</time>
      </trkpt>
      <trkpt lat="52.37467166666667" lon="4.895311666666667">
        <ele>2.345350088487635</ele>
        <time>2024-08-24T11:34:30.553Z</time>
      </trkpt>
      <trkpt lat="52.37454666666666" lon="4.895283333333333">
        <ele>2.6453105316536565</ele>
        <time>2024-08-24T11:35:02.565Z</time>
      </trkpt>
      <trkpt lat="52.37435333333333" lon="4.894988333333333">
        <ele>1.2450177679532217</ele>
        <time>2024-08-24T11:36:01.572Z</time>
      </trkpt>
      <trkpt lat="52.37421833333333" lon="4.894891666666666">
        <ele>0.944911025978044</ele>
        <time>2024-08-24T11:36:18.578Z</time>
      </trkpt>
      <trkpt lat="52.37392833333333" lon="4.894353333333333">
        <ele>1.3443638540003562</ele>
        <time>2024-08-24T11:37:14.581Z</time>
      </trkpt>
      <trkpt lat="52.37335666666666" lon="4.8935699999999995">
        <ele>-1.656454221292833</ele>
        <time>2024-08-24T11:38:18.598Z</time>
      </trkpt>
      <trkpt lat="52.373443333333334" lon="4.893283333333333">
        <ele>1.1432804746938459</ele>
        <time>2024-08-24T11:38:46.562Z</time>
      </trkpt>
      <trkpt lat="52.37341333333334" lon="4.893171666666667">
        <ele>0.8431768216464022</ele>
        <time>2024-08-24T11:39:14.601Z</time>
      </trkpt>
      <trkpt lat="52.37317500000001" lon="4.892886666666667">
        <ele>-2.2571263936870665</ele>
        <time>2024-08-24T11:39:48.596Z</time>
      </trkpt>
      <trkpt lat="52.37284666666666" lon="4.892795">
        <ele>-0.657263301454762</ele>
        <time>2024-08-24T11:40:54.612Z</time>
      </trkpt>
      <trkpt lat="52.37284833333333" lon="4.892653333333333">
        <ele>4.642650660531167</ele>
        <time>2024-08-24T11:49:24.556Z</time>
      </trkpt>
      <trkpt lat="52.37287833333333" lon="4.892659999999999">
        <ele>5.542624695705456</ele>
        <time>2024-08-24T11:50:42.569Z</time>
      </trkpt>
      <trkpt lat="52.3727" lon="4.892828333333334">
        <ele>6.342766676564196</ele>
        <time>2024-08-24T11:53:41.634Z</time>
      </trkpt>
      <trkpt lat="52.37120333333334" lon="4.892625">
        <ele>-7.357552027579736</ele>
        <time>2024-08-24T11:54:54.617Z</time>
      </trkpt>
      <trkpt lat="52.37031333333333" lon="4.892390000000001">
        <ele>-9.557862552523432</ele>
        <time>2024-08-24T11:55:44.608Z</time>
      </trkpt>
      <trkpt lat="52.36944833333334" lon="4.891946666666667">
        <ele>-8.45836372320096</ele>
        <time>2024-08-24T11:57:09.608Z</time>
      </trkpt>
      <trkpt lat="52.36954166666666" lon="4.891838333333332">
        <ele>-6.958459627969319</ele>
        <time>2024-08-24T11:58:03.602Z</time>
      </trkpt>
      <trkpt lat="52.36949" lon="4.89189">
        <ele>-7.458420391701658</ele>
        <time>2024-08-24T11:58:12.607Z</time>
      </trkpt>
      <trkpt lat="52.36955833333333" lon="4.891915">
        <ele>-6.958398843858895</ele>
        <time>2024-08-24T11:58:39.576Z</time>
      </trkpt>
      <trkpt lat="52.36957" lon="4.892058333333334">
        <ele>-6.658279618332365</ele>
        <time>2024-08-24T11:58:50.566Z</time>
      </trkpt>
      <trkpt lat="52.369505" lon="4.891935">
        <ele>-3.3583739598395965</ele>
        <time>2024-08-24T11:59:00.562Z</time>
      </trkpt>
      <trkpt lat="52.36913500000001" lon="4.89189">
        <ele>-1.4584525882211068</ele>
        <time>2024-08-24T12:00:54.601Z</time>
      </trkpt>
      <trkpt lat="52.36903833333334" lon="4.8918">
        <ele>-3.258548108724618</ele>
        <time>2024-08-24T12:01:06.595Z</time>
      </trkpt>
      <trkpt lat="52.368765" lon="4.891891666666667">
        <ele>-5.758486878968924</ele>
        <time>2024-08-24T12:01:31.584Z</time>
      </trkpt>
      <trkpt lat="52.36818333333334" lon="4.8923033333333334">
        <ele>-7.758137428774177</ele>
        <time>2024-08-24T12:02:41.575Z</time>
      </trkpt>
      <trkpt lat="52.367696666666674" lon="4.892945">
        <ele>-3.957568545792384</ele>
        <time>2024-08-24T12:03:49.609Z</time>
      </trkpt>
      <trkpt lat="52.36752166666667" lon="4.893045">
        <ele>-6.657487463085545</ele>
        <time>2024-08-24T12:04:12.599Z</time>
      </trkpt>
      <trkpt lat="52.367399999999996" lon="4.893330000000001">
        <ele>-4.257223001682256</ele>
        <time>2024-08-24T12:04:35.605Z</time>
      </trkpt>
      <trkpt lat="52.36720666666667" lon="4.893318333333333">
        <ele>1.2427640144754264</ele>
        <time>2024-08-24T12:05:06.559Z</time>
      </trkpt>
      <trkpt lat="52.36712000000001" lon="4.893676666666667">
        <ele>2.8430834194130057</ele>
        <time>2024-08-24T12:05:48.558Z</time>
      </trkpt>
      <trkpt lat="52.367198333333334" lon="4.893941666666667">
        <ele>5.143347699784904</ele>
        <time>2024-08-24T12:06:02.562Z</time>
      </trkpt>
      <trkpt lat="52.36725166666667" lon="4.893941666666667">
        <ele>6.743361975866421</ele>
        <time>2024-08-24T12:06:10.562Z</time>
      </trkpt>
      <trkpt lat="52.36715666666667" lon="4.893895">
        <ele>5.2433088388996865</ele>
        <time>2024-08-24T12:12:34.558Z</time>
      </trkpt>
      <trkpt lat="52.367198333333334" lon="4.893876666666667">
        <ele>2.5433043539172075</ele>
        <time>2024-08-24T12:15:52.582Z</time>
      </trkpt>
      <trkpt lat="52.367155000000004" lon="4.893786666666667">
        <ele>1.6432107242843301</ele>
        <time>2024-08-24T12:16:01.585Z</time>
      </trkpt>
      <trkpt lat="52.36679000000001" lon="4.893423333333333">
        <ele>2.642827016047079</ele>
        <time>2024-08-24T12:16:42.339Z</time>
      </trkpt>
      <trkpt lat="52.36692097700703" lon="4.893459732212534">
        <ele>9.698322969626854</ele>
        <time>2024-08-24T12:17:13.923Z</time>
      </trkpt>
      <trkpt lat="52.3670255709915" lon="4.893298386803821">
        <ele>8.858552933922555</ele>
        <time>2024-08-24T12:17:45.094Z</time>
      </trkpt>
      <trkpt lat="52.367254140467026" lon="4.89302016370587">
        <ele>9.29346151645812</ele>
        <time>2024-08-24T12:18:46.876Z</time>
      </trkpt>
      <trkpt lat="52.36739333333333" lon="4.892635">
        <ele>10.675069196553736</ele>
        <time>2024-08-24T12:19:46.163Z</time>
      </trkpt>
      <trkpt lat="52.368165" lon="4.891493333333333">
        <ele>-0.058922374136173516</ele>
        <time>2024-08-24T12:41:45.776Z</time>
      </trkpt>
      <trkpt lat="52.36819333333333" lon="4.891491666666667">
        <ele>12.2298537719097</ele>
        <time>2024-08-24T12:42:21.741Z</time>
      </trkpt>
      <trkpt lat="52.36895500000001" lon="4.891">
        <ele>11.04067623954468</ele>
        <time>2024-08-24T12:59:40.640Z</time>
      </trkpt>
      <trkpt lat="52.369009999999996" lon="4.89113">
        <ele>9.340781088390557</ele>
        <time>2024-08-24T12:59:47.637Z</time>
      </trkpt>
      <trkpt lat="52.36897666666667" lon="4.8912933333333335">
        <ele>2.240934965820948</ele>
        <time>2024-08-24T12:59:58.640Z</time>
      </trkpt>
      <trkpt lat="52.36902166666667" lon="4.891845">
        <ele>2.341463887339792</ele>
        <time>2024-08-24T13:00:35.639Z</time>
      </trkpt>
      <trkpt lat="52.369341666666664" lon="4.8918800000000005">
        <ele>-1.8584482676537135</ele>
        <time>2024-08-24T13:01:31.617Z</time>
      </trkpt>
      <trkpt lat="52.36924586024733" lon="4.892981383901827">
        <ele>9.79132235678381</ele>
        <time>2024-08-24T13:03:13.622Z</time>
      </trkpt>
      <trkpt lat="52.369330138333765" lon="4.892514412744475">
        <ele>7.589907737843386</ele>
        <time>2024-08-24T13:03:56.445Z</time>
      </trkpt>
      <trkpt lat="52.36914" lon="4.8922">
        <ele>4.24185656876174</ele>
        <time>2024-08-24T13:41:18.607Z</time>
      </trkpt>
      <trkpt lat="52.36903333333333" lon="4.892141666666667">
        <ele>3.0417831470919694</ele>
        <time>2024-08-24T13:41:29.623Z</time>
      </trkpt>
      <trkpt lat="52.36884833333333" lon="4.892173333333333">
        <ele>4.041796961380193</ele>
        <time>2024-08-24T13:42:06.640Z</time>
      </trkpt>
      <trkpt lat="52.36832666666666" lon="4.892581666666667">
        <ele>1.6421350534882464</ele>
        <time>2024-08-24T13:43:10.643Z</time>
      </trkpt>
      <trkpt lat="52.36793333333333" lon="4.893031666666667">
        <ele>2.2425302488351377</ele>
        <time>2024-08-24T13:43:59.594Z</time>
      </trkpt>
      <trkpt lat="52.367925" lon="4.8931249999999995">
        <ele>4.342627031763449</ele>
        <time>2024-08-24T13:44:17.639Z</time>
      </trkpt>
      <trkpt lat="52.36752666666666" lon="4.893626666666666">
        <ele>-0.05692161718850741</ele>
        <time>2024-08-24T13:45:07.603Z</time>
      </trkpt>
      <trkpt lat="52.36742833333333" lon="4.89335">
        <ele>4.542828142211555</ele>
        <time>2024-08-24T13:45:35.614Z</time>
      </trkpt>
      <trkpt lat="52.36734166666667" lon="4.89336">
        <ele>2.942815887684766</ele>
        <time>2024-08-24T13:45:41.604Z</time>
      </trkpt>
      <trkpt lat="52.36713833333333" lon="4.893221666666666">
        <ele>3.0426655455370195</ele>
        <time>2024-08-24T13:46:01.613Z</time>
      </trkpt>
      <trkpt lat="52.36714" lon="4.893118333333334">
        <ele>6.742568016383714</ele>
        <time>2024-08-24T13:46:11.604Z</time>
      </trkpt>
      <trkpt lat="52.366928333333334" lon="4.893276666666667">
        <ele>7.042688257506967</ele>
        <time>2024-08-24T13:46:27.604Z</time>
      </trkpt>
      <trkpt lat="52.366838333333334" lon="4.89323">
        <ele>6.042641131861387</ele>
        <time>2024-08-24T13:46:39.624Z</time>
      </trkpt>
      <trkpt lat="52.36692166666667" lon="4.8933116666666665">
        <ele>4.842722055750784</ele>
        <time>2024-08-24T13:46:52.614Z</time>
      </trkpt>
      <trkpt lat="52.36691333333333" lon="4.893513333333333">
        <ele>4.642910053894234</ele>
        <time>2024-08-24T13:47:06.695Z</time>
      </trkpt>
      <trkpt lat="52.36653166666667" lon="4.894721666666666">
        <ele>-6.355963540709581</ele>
        <time>2024-08-24T13:48:18.633Z</time>
      </trkpt>
      <trkpt lat="52.366276666666664" lon="4.895783333333334">
        <ele>2.745041155891876</ele>
        <time>2024-08-24T13:49:24.646Z</time>
      </trkpt>
      <trkpt lat="52.36618" lon="4.895941666666667">
        <ele>2.0451919774483684</ele>
        <time>2024-08-24T13:49:39.627Z</time>
      </trkpt>
      <trkpt lat="52.366183333333325" lon="4.897095">
        <ele>11.046299200167532</ele>
        <time>2024-08-24T13:52:49.643Z</time>
      </trkpt>
      <trkpt lat="52.36625833333333" lon="4.897448333333333">
        <ele>11.446652189426281</ele>
        <time>2024-08-24T13:53:21.652Z</time>
      </trkpt>
      <trkpt lat="52.36620500000001" lon="4.897718333333333">
        <ele>10.046904109883158</ele>
        <time>2024-08-24T13:53:43.600Z</time>
      </trkpt>
      <trkpt lat="52.366186666666664" lon="4.89877">
        <ele>6.947919517272702</ele>
        <time>2024-08-24T13:54:44.640Z</time>
      </trkpt>
      <trkpt lat="52.36624333333332" lon="4.898825">
        <ele>4.04799171245341</ele>
        <time>2024-08-24T13:55:16.646Z</time>
      </trkpt>
      <trkpt lat="52.36622642536352" lon="4.899813728335602">
        <ele>7.173693122177816</ele>
        <time>2024-08-24T13:59:06.953Z</time>
      </trkpt>
      <trkpt lat="52.36615690295537" lon="4.899804146325579">
        <ele>7.559735611641144</ele>
        <time>2024-08-24T13:59:40.316Z</time>
      </trkpt>
      <trkpt lat="52.36626464203857" lon="4.900844251055702">
        <ele>1.0156786347502003</ele>
        <time>2024-08-24T14:04:48.404Z</time>
      </trkpt>
      <trkpt lat="52.36622666666667" lon="4.900736666666667">
        <ele>1.2983598034839756</ele>
        <time>2024-08-24T14:05:24.695Z</time>
      </trkpt>
      <trkpt lat="52.36634666666667" lon="4.900246666666666">
        <ele>6.149382645112354</ele>
        <time>2024-08-24T14:06:17.245Z</time>
      </trkpt>
      <trkpt lat="52.366310000000006" lon="4.900148333333333">
        <ele>6.149283605836743</ele>
        <time>2024-08-24T14:06:33.228Z</time>
      </trkpt>
      <trkpt lat="52.36651333333332" lon="4.900031666666666">
        <ele>7.14919456062902</ele>
        <time>2024-08-24T14:07:01.233Z</time>
      </trkpt>
      <trkpt lat="52.36658166666666" lon="4.899906666666666">
        <ele>4.84908463768285</ele>
        <time>2024-08-24T14:07:10.229Z</time>
      </trkpt>
      <trkpt lat="52.366903333333326" lon="4.898973333333333">
        <ele>0.7482049610788053</ele>
        <time>2024-08-24T14:08:04.219Z</time>
      </trkpt>
      <trkpt lat="52.36707557559612" lon="4.89714205747714">
        <ele>7.996270630555842</ele>
        <time>2024-08-24T14:09:49.615Z</time>
      </trkpt>
      <trkpt lat="52.36710985416829" lon="4.897163109658891">
        <ele>7.774367160537346</ele>
        <time>2024-08-24T14:09:59.990Z</time>
      </trkpt>
      <trkpt lat="52.36713927658823" lon="4.8971369113881735">
        <ele>7.687751618074936</ele>
        <time>2024-08-24T14:10:12.145Z</time>
      </trkpt>
      <trkpt lat="52.366998333333335" lon="4.896115">
        <ele>9.237725866726304</ele>
        <time>2024-08-24T14:14:15.055Z</time>
      </trkpt>
      <trkpt lat="52.367039999999996" lon="4.895753333333333">
        <ele>8.54510601756676</ele>
        <time>2024-08-24T14:14:48.725Z</time>
      </trkpt>
      <trkpt lat="52.36726458271846" lon="4.895789381012975">
        <ele>9.094962409791009</ele>
        <time>2024-08-24T14:15:22.535Z</time>
      </trkpt>
      <trkpt lat="52.367065000000004" lon="4.8956100000000005">
        <ele>10.472148533677842</ele>
        <time>2024-08-24T14:15:56.645Z</time>
      </trkpt>
      <trkpt lat="52.366845" lon="4.895801666666667">
        <ele>5.845120189388425</ele>
        <time>2024-08-24T14:16:56.221Z</time>
      </trkpt>
      <trkpt lat="52.36629833333333" lon="4.895965">
        <ele>2.2452351450596026</ele>
        <time>2024-08-24T14:18:21.698Z</time>
      </trkpt>
      <trkpt lat="52.36596453967476" lon="4.896462021994807">
        <ele>6.247135416476002</ele>
        <time>2024-08-24T14:19:31.058Z</time>
      </trkpt>
      <trkpt lat="52.36605780631274" lon="4.8964651496626175">
        <ele>5.998160561244081</ele>
        <time>2024-08-24T14:19:45.989Z</time>
      </trkpt>
      <trkpt lat="52.366539830593155" lon="4.896295946633785">
        <ele>8.314303264118575</ele>
        <time>2024-08-24T14:21:04.898Z</time>
      </trkpt>
      <trkpt lat="52.36630517865606" lon="4.896444559327676">
        <ele>7.12977910628654</ele>
        <time>2024-08-24T14:21:43.926Z</time>
      </trkpt>
      <trkpt lat="52.366376666666675" lon="4.897241666666666">
        <ele>10.697169289203163</ele>
        <time>2024-08-24T14:22:43.866Z</time>
      </trkpt>
      <trkpt lat="52.366265000000006" lon="4.897575">
        <ele>6.046778815361051</ele>
        <time>2024-08-24T16:01:04.919Z</time>
      </trkpt>
      <trkpt lat="52.36621333333333" lon="4.899543333333334">
        <ele>-10.151330822990964</ele>
        <time>2024-08-24T16:03:18.281Z</time>
      </trkpt>
      <trkpt lat="52.36612332371163" lon="4.899790957211877">
        <ele>7.90821853596834</ele>
        <time>2024-08-24T16:03:40.905Z</time>
      </trkpt>
      <trkpt lat="52.366224183885976" lon="4.9006368294132585">
        <ele>1.4241532229826595</ele>
        <time>2024-08-24T16:04:49.344Z</time>
      </trkpt>
      <trkpt lat="52.366156128571276" lon="4.900484095929272">
        <ele>2.0704450300209296</ele>
        <time>2024-08-24T16:05:19.360Z</time>
      </trkpt>
      <trkpt lat="52.36614141527542" lon="4.899814291983091">
        <ele>7.607017804590388</ele>
        <time>2024-08-24T16:07:05.763Z</time>
      </trkpt>
      <trkpt lat="52.366112929385054" lon="4.899811047768139">
        <ele>7.846965456861888</ele>
        <time>2024-08-24T16:07:13.405Z</time>
      </trkpt>
    </trkseg>
  </trk>
  <trk>
    <trkseg>
      <trkpt lat="52.370243333333335" lon="4.908045">
        <ele>-3.6427686562521444</ele>
        <time>2024-08-25T00:17:17.003Z</time>
      </trkpt>
      <trkpt lat="52.370245000000004" lon="4.9081383333333335">
        <ele>-0.1426691060301053</ele>
        <time>2024-08-25T00:17:19.033Z</time>
      </trkpt>
      <trkpt lat="52.37028166666667" lon="4.908334999999999">
        <ele>6.257553556371633</ele>
        <time>2024-08-25T00:17:25.589Z</time>
      </trkpt>
      <trkpt lat="52.37041333333333" lon="4.9085616666666665">
        <ele>3.457794783099402</ele>
        <time>2024-08-25T00:17:41.579Z</time>
      </trkpt>
      <trkpt lat="52.37050666666667" lon="4.908778333333333">
        <ele>1.8580140287403566</ele>
        <time>2024-08-25T00:17:56.608Z</time>
      </trkpt>
      <trkpt lat="52.37067333333333" lon="4.908991666666666">
        <ele>1.9582373187149429</ele>
        <time>2024-08-25T00:18:10.588Z</time>
      </trkpt>
      <trkpt lat="52.37069833333333" lon="4.9090549999999995">
        <ele>1.2582912139281177</ele>
        <time>2024-08-25T00:18:13.596Z</time>
      </trkpt>
      <trkpt lat="52.370783333333335" lon="4.909165">
        <ele>0.058408986870659874</ele>
        <time>2024-08-25T00:18:20.595Z</time>
      </trkpt>
      <trkpt lat="52.371129999999994" lon="4.909751666666667">
        <ele>0.8590103202071901</ele>
        <time>2024-08-25T00:18:53.591Z</time>
      </trkpt>
      <trkpt lat="52.371188333333336" lon="4.909805">
        <ele>0.25907891335850053</ele>
        <time>2024-08-25T00:18:58.588Z</time>
      </trkpt>
      <trkpt lat="52.37124166666668" lon="4.909918333333334">
        <ele>-0.840817659281349</ele>
        <time>2024-08-25T00:19:05.599Z</time>
      </trkpt>
      <trkpt lat="52.371346666666675" lon="4.9100383333333335">
        <ele>-1.840690232310763</ele>
        <time>2024-08-25T00:19:14.588Z</time>
      </trkpt>
      <trkpt lat="52.371566666666666" lon="4.910398333333333">
        <ele>2.5596797481811535</ele>
        <time>2024-08-25T00:19:37.591Z</time>
      </trkpt>
      <trkpt lat="52.371669999999995" lon="4.9104399999999995">
        <ele>2.6597448452187464</ele>
        <time>2024-08-25T00:19:50.598Z</time>
      </trkpt>
      <trkpt lat="52.371795000000006" lon="4.910528333333334">
        <ele>4.019824829651115</ele>
        <time>2024-08-25T00:20:06.581Z</time>
      </trkpt>
      <trkpt lat="52.371925" lon="4.910658333333333">
        <ele>2.2599697341629934</ele>
        <time>2024-08-25T00:20:52.601Z</time>
      </trkpt>
      <trkpt lat="52.37197166666667" lon="4.91067">
        <ele>1.5599955049726972</ele>
        <time>2024-08-25T00:20:56.586Z</time>
      </trkpt>
      <trkpt lat="52.37203666666666" lon="4.910616666666667">
        <ele>1.0599603811852276</ele>
        <time>2024-08-25T00:21:08.604Z</time>
      </trkpt>
      <trkpt lat="52.37208166666666" lon="4.91052">
        <ele>0.8598647603551655</ele>
        <time>2024-08-25T00:21:16.594Z</time>
      </trkpt>
      <trkpt lat="52.37211166666666" lon="4.910651666666666">
        <ele>1.9599728627210737</ele>
        <time>2024-08-25T00:21:24.605Z</time>
      </trkpt>
      <trkpt lat="52.372233333333334" lon="4.91085">
        <ele>4.760184400135586</ele>
        <time>2024-08-25T00:21:38.575Z</time>
      </trkpt>
      <trkpt lat="52.37240666666666" lon="4.9109799999999995">
        <ele>4.660324293115558</ele>
        <time>2024-08-25T00:21:51.842Z</time>
      </trkpt>
      <trkpt lat="52.372495521090485" lon="4.911001044342129">
        <ele>2.0690765865615286</ele>
        <time>2024-08-25T00:22:03.727Z</time>
      </trkpt>
      <trkpt lat="52.3726170432418" lon="4.910642979755551">
        <ele>2.77250413298706</ele>
        <time>2024-08-25T00:22:40.714Z</time>
      </trkpt>
      <trkpt lat="52.37261333333333" lon="4.910605">
        <ele>2.6599897460716804</ele>
        <time>2024-08-25T01:03:01.604Z</time>
      </trkpt>
      <trkpt lat="52.372625" lon="4.910626666666667">
        <ele>2.3600052282913353</ele>
        <time>2024-08-25T01:03:04.666Z</time>
      </trkpt>
      <trkpt lat="52.37247499118641" lon="4.91106025827014">
        <ele>2.000087360152975</ele>
        <time>2024-08-25T01:03:31.328Z</time>
      </trkpt>
      <trkpt lat="52.37229333333333" lon="4.910970000000001">
        <ele>2.127726869669219</ele>
        <time>2024-08-25T01:03:47.914Z</time>
      </trkpt>
      <trkpt lat="52.37211166666666" lon="4.91063">
        <ele>-0.6399890885983908</ele>
        <time>2024-08-25T01:04:19.591Z</time>
      </trkpt>
      <trkpt lat="52.37206666666666" lon="4.91051">
        <ele>1.0598528208722797</ele>
        <time>2024-08-25T01:04:26.835Z</time>
      </trkpt>
      <trkpt lat="52.37194041803306" lon="4.910684049357911">
        <ele>3.9646460689606213</ele>
        <time>2024-08-25T01:04:50.181Z</time>
      </trkpt>
      <trkpt lat="52.371855000000004" lon="4.910595">
        <ele>4</ele>
        <time>2024-08-25T01:05:04.506Z</time>
      </trkpt>
      <trkpt lat="52.371755" lon="4.91055">
        <ele>5.959890618205691</ele>
        <time>2024-08-25T01:05:47.568Z</time>
      </trkpt>
      <trkpt lat="52.371556666666656" lon="4.910375">
        <ele>4.259711930555312</ele>
        <time>2024-08-25T01:05:53.571Z</time>
      </trkpt>
      <trkpt lat="52.371335" lon="4.910041666666667">
        <ele>2.9593773913722146</ele>
        <time>2024-08-25T01:06:00.572Z</time>
      </trkpt>
      <trkpt lat="52.371233333333336" lon="4.9099216666666665">
        <ele>3.559247183138588</ele>
        <time>2024-08-25T01:06:03.573Z</time>
      </trkpt>
      <trkpt lat="52.37109166666667" lon="4.909673333333333">
        <ele>4.258994293912245</ele>
        <time>2024-08-25T01:06:08.592Z</time>
      </trkpt>
      <trkpt lat="52.370941666666674" lon="4.909465">
        <ele>4.658769936446859</ele>
        <time>2024-08-25T01:06:13.601Z</time>
      </trkpt>
      <trkpt lat="52.37088000000001" lon="4.909418333333333">
        <ele>4.358704891416849</ele>
        <time>2024-08-25T01:06:15.553Z</time>
      </trkpt>
      <trkpt lat="52.37078666666666" lon="4.909253333333334">
        <ele>3.358561315294459</ele>
        <time>2024-08-25T01:06:19.581Z</time>
      </trkpt>
      <trkpt lat="52.370565000000006" lon="4.908951666666667">
        <ele>3.75822944562519</ele>
        <time>2024-08-25T01:06:27.594Z</time>
      </trkpt>
      <trkpt lat="52.37045333333334" lon="4.908755">
        <ele>3.9580405470376974</ele>
        <time>2024-08-25T01:06:32.592Z</time>
      </trkpt>
      <trkpt lat="52.37026000000001" lon="4.908276666666667">
        <ele>2.9575547159677598</ele>
        <time>2024-08-25T01:06:43.604Z</time>
      </trkpt>
      <trkpt lat="52.37022333333333" lon="4.908216666666666">
        <ele>2.657483901606632</ele>
        <time>2024-08-25T01:06:45.607Z</time>
      </trkpt>
      <trkpt lat="52.37018333333334" lon="4.908163333333333">
        <ele>2.6574059506929473</ele>
        <time>2024-08-25T01:06:49.599Z</time>
      </trkpt>
      <trkpt lat="52.37017000000001" lon="4.90822">
        <ele>2.957423737795189</ele>
        <time>2024-08-25T01:07:13.588Z</time>
      </trkpt>
      <trkpt lat="52.37012166666667" lon="4.908258333333333">
        <ele>5.257477984977406</ele>
        <time>2024-08-25T01:07:16.565Z</time>
      </trkpt>
      <trkpt lat="52.37007333333333" lon="4.908284999999999">
        <ele>5.357498121362212</ele>
        <time>2024-08-25T01:07:18.569Z</time>
      </trkpt>
      <trkpt lat="52.370026666666675" lon="4.908253333333334">
        <ele>5.657501781663932</ele>
        <time>2024-08-25T01:07:20.592Z</time>
      </trkpt>
      <trkpt lat="52.369923333333325" lon="4.907991666666666">
        <ele>8.057257256535152</ele>
        <time>2024-08-25T01:07:26.589Z</time>
      </trkpt>
      <trkpt lat="52.369901666666664" lon="4.907878333333333">
        <ele>10.257133095025175</ele>
        <time>2024-08-25T01:07:29.588Z</time>
      </trkpt>
      <trkpt lat="52.36990000000001" lon="4.907673333333333">
        <ele>20.656938928862708</ele>
        <time>2024-08-25T01:07:38.604Z</time>
      </trkpt>
      <trkpt lat="52.36984" lon="4.907466666666666">
        <ele>21.856746666215365</ele>
        <time>2024-08-25T01:07:42.582Z</time>
      </trkpt>
      <trkpt lat="52.36981333333333" lon="4.907421666666666">
        <ele>22.45669371434554</ele>
        <time>2024-08-25T01:07:43.582Z</time>
      </trkpt>
      <trkpt lat="52.36958666666666" lon="4.906593333333333">
        <ele>31.9558848772216</ele>
        <time>2024-08-25T01:07:57.588Z</time>
      </trkpt>
      <trkpt lat="52.36950333333333" lon="4.906431666666666">
        <ele>31.355714485876867</ele>
        <time>2024-08-25T01:08:00.584Z</time>
      </trkpt>
      <trkpt lat="52.36923" lon="4.905681666666666">
        <ele>23.154914971506543</ele>
        <time>2024-08-25T01:08:15.611Z</time>
      </trkpt>
    </trkseg>
  </trk>
</gpx>
