<?xml version="1.0" encoding="UTF-8"?>
<gpx version="1.1" creator="Export" xmlns="http://www.topografix.com/GPX/1/1" xmlns:xsi="http://www.w3.org/2001/XMLSchema-instance" xsi:schemaLocation="http://www.topografix.com/GPX/1/1 http://www.topografix.com/GPX/1/1/gpx.xsd http://www.garmin.com/xmlschemas/GpxExtensions/v3 http://www.garmin.com/xmlschemas/GpxExtensionsv3.xsd http://www.garmin.com/xmlschemas/TrackPointExtension/v1 http://www.garmin.com/xmlschemas/TrackPointExtensionv1.xsd http://www.garmin.com/xmlschemas/PowerExtension/v1 http://www.garmin.com/xmlschemas/PowerExtensionv1.xsd http://www.topografix.com/GPX/gpx_style/0/2 http://www.topografix.com/GPX/gpx_style/0/2/gpx_style.xsd" xmlns:gpxtpx="http://www.garmin.com/xmlschemas/TrackPointExtension/v1" xmlns:gpxx="http://www.garmin.com/xmlschemas/GpxExtensions/v3" xmlns:gpxpx="http://www.garmin.com/xmlschemas/PowerExtension/v1" xmlns:gpx_style="http://www.topografix.com/GPX/gpx_style/0/2">
  <metadata>
    <name>activity_173_2024-08-29</name>
    <author>
      <name>gpx.studio</name>
      <link href="https://gpx.studio"/>
    </author>
  </metadata>
  <wpt lat="45.76741" lon="4.858804">
    <ele>178.20570236533024</ele>
    <name>Le Splendid</name>
    <sym>Restaurant</sym>
  </wpt>
  <trk>
    <name>activity_173_2024-08-29</name>
    <trkseg>
      <trkpt lat="45.76066002831567" lon="4.859674350553746">
        <ele>175.6305763861637</ele>
        <time>2024-08-29T11:47:27.548Z</time>
      </trkpt>
      <trkpt lat="45.76063398747294" lon="4.859242611748272">
        <ele>176.72797872950406</ele>
        <time>2024-08-29T11:47:48.706Z</time>
      </trkpt>
      <trkpt lat="45.76112499999999" lon="4.859093333333333">
        <ele>175.78392423015578</ele>
        <time>2024-08-29T11:48:23.832Z</time>
      </trkpt>
      <trkpt lat="45.76115166666667" lon="4.859018333333333">
        <ele>202.98180502431177</ele>
        <time>2024-08-29T11:51:52.537Z</time>
      </trkpt>
      <trkpt lat="45.76120833333333" lon="4.85899">
        <ele>200.78184971891392</ele>
        <time>2024-08-29T11:51:58.520Z</time>
      </trkpt>
      <trkpt lat="45.76120666666667" lon="4.858923333333333">
        <ele>201.78178022716574</ele>
        <time>2024-08-29T11:52:05.514Z</time>
      </trkpt>
      <trkpt lat="45.76126333333333" lon="4.859030000000001">
        <ele>201.1819664149063</ele>
        <time>2024-08-29T11:52:11.524Z</time>
      </trkpt>
      <trkpt lat="45.761255" lon="4.858838333333334">
        <ele>183.3817647765603</ele>
        <time>2024-08-29T11:52:29.545Z</time>
      </trkpt>
      <trkpt lat="45.76124166666667" lon="4.858815">
        <ele>179.98170799286194</ele>
        <time>2024-08-29T11:52:32.544Z</time>
      </trkpt>
      <trkpt lat="45.761265" lon="4.85874">
        <ele>176.18165858554963</ele>
        <time>2024-08-29T11:52:36.545Z</time>
      </trkpt>
      <trkpt lat="45.76124333333334" lon="4.858671666666667">
        <ele>172.78154831132144</ele>
        <time>2024-08-29T11:52:40.534Z</time>
      </trkpt>
      <trkpt lat="45.76125166666667" lon="4.858573333333334">
        <ele>170.18144353105833</ele>
        <time>2024-08-29T11:52:45.567Z</time>
      </trkpt>
      <trkpt lat="45.76123166666666" lon="4.858499999999999">
        <ele>167.3813293309426</ele>
        <time>2024-08-29T11:52:50.541Z</time>
      </trkpt>
      <trkpt lat="45.76126166666666" lon="4.858405">
        <ele>167.3812633832783</ele>
        <time>2024-08-29T11:52:56.544Z</time>
      </trkpt>
      <trkpt lat="45.761255" lon="4.858313333333333">
        <ele>168.0811437792488</ele>
        <time>2024-08-29T11:53:01.534Z</time>
      </trkpt>
      <trkpt lat="45.76126666666667" lon="4.858268333333333">
        <ele>166.88110088421433</ele>
        <time>2024-08-29T11:53:04.560Z</time>
      </trkpt>
      <trkpt lat="45.761316666666666" lon="4.858198333333333">
        <ele>183.38107904693825</ele>
        <time>2024-08-29T11:53:10.544Z</time>
      </trkpt>
      <trkpt lat="45.76214" lon="4.858035">
        <ele>165.88211917018785</ele>
        <time>2024-08-29T11:54:33.547Z</time>
      </trkpt>
      <trkpt lat="45.76223666666667" lon="4.85805">
        <ele>160.78226903894046</ele>
        <time>2024-08-29T11:54:51.541Z</time>
      </trkpt>
      <trkpt lat="45.76245333333333" lon="4.858036666666666">
        <ele>162.6825882056129</ele>
        <time>2024-08-29T11:55:10.543Z</time>
      </trkpt>
      <trkpt lat="45.76251166666666" lon="4.858078333333333">
        <ele>161.6827470879443</ele>
        <time>2024-08-29T11:55:25.540Z</time>
      </trkpt>
      <trkpt lat="45.76249833333333" lon="4.8580950000000005">
        <ele>163.28273623712602</ele>
        <time>2024-08-29T11:55:36.527Z</time>
      </trkpt>
      <trkpt lat="45.762485" lon="4.8580033333333335">
        <ele>167.0826319555983</ele>
        <time>2024-08-29T11:56:12.505Z</time>
      </trkpt>
      <trkpt lat="45.76251333333333" lon="4.857903333333333">
        <ele>167.38255410322975</ele>
        <time>2024-08-29T11:56:18.520Z</time>
      </trkpt>
      <trkpt lat="45.76253" lon="4.857746666666667">
        <ele>169.68239266068719</ele>
        <time>2024-08-29T11:56:26.535Z</time>
      </trkpt>
      <trkpt lat="45.76251666666667" lon="4.857505000000001">
        <ele>168.98211326781652</ele>
        <time>2024-08-29T11:56:34.534Z</time>
      </trkpt>
      <trkpt lat="45.762570000000004" lon="4.857433333333334">
        <ele>168.3820661369574</ele>
        <time>2024-08-29T11:56:40.528Z</time>
      </trkpt>
      <trkpt lat="45.762656666666665" lon="4.857431666666667">
        <ele>168.38217889850333</ele>
        <time>2024-08-29T11:56:46.541Z</time>
      </trkpt>
      <trkpt lat="45.76322666666667" lon="4.857306666666666">
        <ele>171.48289831806665</ele>
        <time>2024-08-29T11:57:38.556Z</time>
      </trkpt>
      <trkpt lat="45.76334666666666" lon="4.857378333333333">
        <ele>171.68315158000678</ele>
        <time>2024-08-29T11:57:47.534Z</time>
      </trkpt>
      <trkpt lat="45.763446666666674" lon="4.85737">
        <ele>173.78330481796934</ele>
        <time>2024-08-29T11:58:00.527Z</time>
      </trkpt>
      <trkpt lat="45.76351" lon="4.857398333333333">
        <ele>174.98341676555506</ele>
        <time>2024-08-29T11:58:06.554Z</time>
      </trkpt>
      <trkpt lat="45.76359666666667" lon="4.857253333333333">
        <ele>174.58340574413273</ele>
        <time>2024-08-29T11:58:13.554Z</time>
      </trkpt>
      <trkpt lat="45.763735" lon="4.857145">
        <ele>175.08349190485174</ele>
        <time>2024-08-29T11:58:30.517Z</time>
      </trkpt>
      <trkpt lat="45.763738333333336" lon="4.856833333333334">
        <ele>175.78312989926653</ele>
        <time>2024-08-29T11:58:53.550Z</time>
      </trkpt>
      <trkpt lat="45.76371166666666" lon="4.856821666666666">
        <ele>176.2830880100197</ele>
        <time>2024-08-29T11:58:57.531Z</time>
      </trkpt>
      <trkpt lat="45.76366500000001" lon="4.856741666666666">
        <ele>176.08292406360198</ele>
        <time>2024-08-29T11:59:07.548Z</time>
      </trkpt>
      <trkpt lat="45.76366500000001" lon="4.856508333333333">
        <ele>174.08264974550053</ele>
        <time>2024-08-29T11:59:22.515Z</time>
      </trkpt>
      <trkpt lat="45.76368333333333" lon="4.856468333333334">
        <ele>173.38262236801708</ele>
        <time>2024-08-29T11:59:25.518Z</time>
      </trkpt>
      <trkpt lat="45.763693333333336" lon="4.856298333333333">
        <ele>174.1824550428461</ele>
        <time>2024-08-29T11:59:34.510Z</time>
      </trkpt>
      <trkpt lat="45.763706666666664" lon="4.856271666666667">
        <ele>178.5824245965042</ele>
        <time>2024-08-29T11:59:44.527Z</time>
      </trkpt>
      <trkpt lat="45.764450000000004" lon="4.856131666666667">
        <ele>181.083360303369</ele>
        <time>2024-08-29T12:00:44.512Z</time>
      </trkpt>
      <trkpt lat="45.76447666666666" lon="4.856179999999999">
        <ele>177.88346362704925</ele>
        <time>2024-08-29T12:00:51.551Z</time>
      </trkpt>
      <trkpt lat="45.76452333333334" lon="4.856181666666667">
        <ele>176.48353317522995</ele>
        <time>2024-08-29T12:01:22.553Z</time>
      </trkpt>
      <trkpt lat="45.764616666666676" lon="4.856111666666666">
        <ele>177.68359778703166</ele>
        <time>2024-08-29T12:01:35.500Z</time>
      </trkpt>
      <trkpt lat="45.76467833333333" lon="4.8561250000000005">
        <ele>177.68369945871834</ele>
        <time>2024-08-29T12:01:41.545Z</time>
      </trkpt>
      <trkpt lat="45.76476833333333" lon="4.8560783333333335">
        <ele>177.38377997934322</ele>
        <time>2024-08-29T12:01:47.547Z</time>
      </trkpt>
      <trkpt lat="45.76522" lon="4.855993333333333">
        <ele>174.5843603735336</ele>
        <time>2024-08-29T12:02:22.563Z</time>
      </trkpt>
      <trkpt lat="45.76526333333333" lon="4.855933333333333">
        <ele>172.08436774792162</ele>
        <time>2024-08-29T12:02:28.550Z</time>
      </trkpt>
      <trkpt lat="45.765393333333336" lon="4.855976666666667">
        <ele>168.78461239045413</ele>
        <time>2024-08-29T12:02:39.521Z</time>
      </trkpt>
      <trkpt lat="45.76542333333334" lon="4.855946666666667">
        <ele>172.08462195487147</ele>
        <time>2024-08-29T12:02:47.548Z</time>
      </trkpt>
      <trkpt lat="45.76581833333333" lon="4.855888333333333">
        <ele>171.7851238258289</ele>
        <time>2024-08-29T12:03:17.550Z</time>
      </trkpt>
      <trkpt lat="45.76580666666667" lon="4.855865">
        <ele>172.3851445026372</ele>
        <time>2024-08-29T12:03:19.517Z</time>
      </trkpt>
      <trkpt lat="45.765815" lon="4.8557966666666665">
        <ele>174.38507319400662</ele>
        <time>2024-08-29T12:03:23.544Z</time>
      </trkpt>
      <trkpt lat="45.765843333333336" lon="4.855728333333333">
        <ele>172.9850153277364</ele>
        <time>2024-08-29T12:03:30.521Z</time>
      </trkpt>
      <trkpt lat="45.765800000000006" lon="4.855721666666667">
        <ele>172.48494245228312</ele>
        <time>2024-08-29T12:03:38.514Z</time>
      </trkpt>
      <trkpt lat="45.76584166666667" lon="4.855793333333334">
        <ele>174.28507076862215</ele>
        <time>2024-08-29T12:04:08.514Z</time>
      </trkpt>
      <trkpt lat="45.765899999999995" lon="4.855783333333333">
        <ele>175.38515569315638</ele>
        <time>2024-08-29T12:04:25.541Z</time>
      </trkpt>
      <trkpt lat="45.765985" lon="4.855576666666667">
        <ele>175.4850571206678</ele>
        <time>2024-08-29T12:04:34.570Z</time>
      </trkpt>
      <trkpt lat="45.765985" lon="4.855523333333333">
        <ele>175.08501508524094</ele>
        <time>2024-08-29T12:04:36.534Z</time>
      </trkpt>
      <trkpt lat="45.766045" lon="4.855416666666667">
        <ele>173.58495904470107</ele>
        <time>2024-08-29T12:04:42.528Z</time>
      </trkpt>
      <trkpt lat="45.76604999999999" lon="4.855333333333333">
        <ele>171.18488109092215</ele>
        <time>2024-08-29T12:04:47.557Z</time>
      </trkpt>
      <trkpt lat="45.76602666666666" lon="4.855275000000001">
        <ele>169.88478906565675</ele>
        <time>2024-08-29T12:04:50.521Z</time>
      </trkpt>
      <trkpt lat="45.76600499999999" lon="4.854903333333333">
        <ele>174.28430861790736</ele>
        <time>2024-08-29T12:05:10.544Z</time>
      </trkpt>
      <trkpt lat="45.76602" lon="4.854868333333333">
        <ele>175.68427049153988</ele>
        <time>2024-08-29T12:05:15.522Z</time>
      </trkpt>
      <trkpt lat="45.76600333333334" lon="4.85485">
        <ele>176.08422865538142</ele>
        <time>2024-08-29T12:05:21.541Z</time>
      </trkpt>
      <trkpt lat="45.76618666666666" lon="4.854828333333333">
        <ele>177.68445298900406</ele>
        <time>2024-08-29T12:05:48.543Z</time>
      </trkpt>
      <trkpt lat="45.76640999999999" lon="4.854751666666667">
        <ele>174.28471332661567</ele>
        <time>2024-08-29T12:06:03.550Z</time>
      </trkpt>
      <trkpt lat="45.76679000000001" lon="4.854673333333333">
        <ele>173.18519520908558</ele>
        <time>2024-08-29T12:06:39.544Z</time>
      </trkpt>
      <trkpt lat="45.766780000000004" lon="4.854628333333333">
        <ele>174.18514146139083</ele>
        <time>2024-08-29T12:06:46.561Z</time>
      </trkpt>
      <trkpt lat="45.76684" lon="4.8546233333333335">
        <ele>178.88520972892624</ele>
        <time>2024-08-29T12:07:05.522Z</time>
      </trkpt>
      <trkpt lat="45.766938333333336" lon="4.854678333333334">
        <ele>182.28540130431776</ele>
        <time>2024-08-29T12:07:17.528Z</time>
      </trkpt>
      <trkpt lat="45.766960000000005" lon="4.854658333333333">
        <ele>183.38544018507326</ele>
        <time>2024-08-29T12:07:20.537Z</time>
      </trkpt>
      <trkpt lat="45.76697666666667" lon="4.854688333333333">
        <ele>184.0855001712781</ele>
        <time>2024-08-29T12:07:25.551Z</time>
      </trkpt>
      <trkpt lat="45.766951666666664" lon="4.8546450000000005">
        <ele>183.3854212710641</ele>
        <time>2024-08-29T12:07:33.518Z</time>
      </trkpt>
      <trkpt lat="45.766960000000005" lon="4.854606666666667">
        <ele>183.38538173863083</ele>
        <time>2024-08-29T12:07:41.514Z</time>
      </trkpt>
      <trkpt lat="45.76701333333334" lon="4.854604999999999">
        <ele>184.1854418890829</ele>
        <time>2024-08-29T12:07:47.511Z</time>
      </trkpt>
      <trkpt lat="45.767051666666674" lon="4.854568333333333">
        <ele>187.78546721810847</ele>
        <time>2024-08-29T12:07:52.566Z</time>
      </trkpt>
      <trkpt lat="45.76710166666667" lon="4.854558333333333">
        <ele>190.8855198209906</ele>
        <time>2024-08-29T12:07:56.554Z</time>
      </trkpt>
      <trkpt lat="45.76759666666667" lon="4.8544833333333335">
        <ele>180.28617737542334</ele>
        <time>2024-08-29T12:08:34.533Z</time>
      </trkpt>
      <trkpt lat="45.767669999999995" lon="4.85451">
        <ele>178.48632906935904</ele>
        <time>2024-08-29T12:08:42.530Z</time>
      </trkpt>
      <trkpt lat="45.76780999999999" lon="4.8545050000000005">
        <ele>183.186524530775</ele>
        <time>2024-08-29T12:08:57.541Z</time>
      </trkpt>
      <trkpt lat="45.76821499999999" lon="4.854418333333333">
        <ele>182.48704005204928</ele>
        <time>2024-08-29T12:09:28.544Z</time>
      </trkpt>
      <trkpt lat="45.76951999999999" lon="4.854206666666667">
        <ele>165.18876635974</ele>
        <time>2024-08-29T12:11:12.550Z</time>
      </trkpt>
      <trkpt lat="45.769548333333326" lon="4.85416">
        <ele>166.88877977208296</ele>
        <time>2024-08-29T12:11:17.543Z</time>
      </trkpt>
      <trkpt lat="45.76953666666667" lon="4.854118333333333">
        <ele>171.48871589088878</ele>
        <time>2024-08-29T12:11:21.541Z</time>
      </trkpt>
      <trkpt lat="45.76954666666667" lon="4.854046666666666">
        <ele>174.88865408283934</ele>
        <time>2024-08-29T12:11:26.534Z</time>
      </trkpt>
      <trkpt lat="45.76958666666666" lon="4.854045">
        <ele>182.08868922235794</ele>
        <time>2024-08-29T12:11:34.534Z</time>
      </trkpt>
      <trkpt lat="45.76965333333332" lon="4.853998333333333">
        <ele>185.38873844748258</ele>
        <time>2024-08-29T12:11:51.547Z</time>
      </trkpt>
      <trkpt lat="45.76966833333333" lon="4.853881666666666">
        <ele>182.68864160403453</ele>
        <time>2024-08-29T12:11:59.511Z</time>
      </trkpt>
      <trkpt lat="45.769551666666665" lon="4.852695">
        <ele>182.18706933373528</ele>
        <time>2024-08-29T12:13:13.570Z</time>
      </trkpt>
      <trkpt lat="45.769455" lon="4.852781666666667">
        <ele>183.58702517508246</ele>
        <time>2024-08-29T12:13:45.510Z</time>
      </trkpt>
      <trkpt lat="45.76942999999999" lon="4.852758333333334">
        <ele>183.18697321091747</ele>
        <time>2024-08-29T12:13:48.547Z</time>
      </trkpt>
      <trkpt lat="45.769445" lon="4.852711666666666">
        <ele>181.58692925291888</ele>
        <time>2024-08-29T12:13:53.533Z</time>
      </trkpt>
      <trkpt lat="45.76949333333334" lon="4.852718333333333">
        <ele>182.78698683398233</ele>
        <time>2024-08-29T12:14:02.540Z</time>
      </trkpt>
      <trkpt lat="45.76959166666667" lon="4.852786666666667">
        <ele>186.78718755534388</ele>
        <time>2024-08-29T12:14:09.531Z</time>
      </trkpt>
      <trkpt lat="45.769616666666664" lon="4.85284">
        <ele>188.1872993068124</ele>
        <time>2024-08-29T12:14:12.557Z</time>
      </trkpt>
      <trkpt lat="45.76961333333334" lon="4.852914999999999">
        <ele>189.38738456039707</ele>
        <time>2024-08-29T12:14:15.547Z</time>
      </trkpt>
      <trkpt lat="45.76959" lon="4.852968333333333">
        <ele>185.88743066583484</ele>
        <time>2024-08-29T12:14:18.533Z</time>
      </trkpt>
      <trkpt lat="45.769600000000004" lon="4.853078333333333">
        <ele>185.78757167400266</ele>
        <time>2024-08-29T12:14:24.543Z</time>
      </trkpt>
      <trkpt lat="45.769618333333334" lon="4.853105">
        <ele>185.58762541874984</ele>
        <time>2024-08-29T12:14:28.533Z</time>
      </trkpt>
      <trkpt lat="45.76960333333333" lon="4.853165000000001">
        <ele>181.38767577469073</ele>
        <time>2024-08-29T12:14:32.547Z</time>
      </trkpt>
      <trkpt lat="45.769616666666664" lon="4.853231666666666">
        <ele>179.68776721379476</ele>
        <time>2024-08-29T12:14:38.550Z</time>
      </trkpt>
      <trkpt lat="45.76964666666666" lon="4.853275">
        <ele>179.58785023542848</ele>
        <time>2024-08-29T12:14:41.554Z</time>
      </trkpt>
      <trkpt lat="45.769690000000004" lon="4.853618333333333">
        <ele>172.988324147764</ele>
        <time>2024-08-29T12:15:04.534Z</time>
      </trkpt>
      <trkpt lat="45.76984833333333" lon="4.855201666666666">
        <ele>180.19040859142987</ele>
        <time>2024-08-29T12:16:41.544Z</time>
      </trkpt>
      <trkpt lat="45.76967666666666" lon="4.855251666666666">
        <ele>177.99025924244773</ele>
        <time>2024-08-29T12:16:51.551Z</time>
      </trkpt>
      <trkpt lat="45.769593333333326" lon="4.855253333333334">
        <ele>176.39012933282487</ele>
        <time>2024-08-29T12:16:55.550Z</time>
      </trkpt>
      <trkpt lat="45.76951833333332" lon="4.855221666666667">
        <ele>174.6899758830627</ele>
        <time>2024-08-29T12:17:02.537Z</time>
      </trkpt>
      <trkpt lat="45.769510000000004" lon="4.855176666666667">
        <ele>174.08990835261744</ele>
        <time>2024-08-29T12:17:06.553Z</time>
      </trkpt>
      <trkpt lat="45.769461666666665" lon="4.855171666666666">
        <ele>174.2898949834804</ele>
        <time>2024-08-29T12:17:19.537Z</time>
      </trkpt>
      <trkpt lat="45.76938666666667" lon="4.855208333333334">
        <ele>173.8897531806143</ele>
        <time>2024-08-29T12:17:25.550Z</time>
      </trkpt>
      <trkpt lat="45.76939000000001" lon="4.855226666666667">
        <ele>172.88976003925796</ele>
        <time>2024-08-29T12:17:27.543Z</time>
      </trkpt>
      <trkpt lat="45.76933999999999" lon="4.855238333333333">
        <ele>172.18973981735496</ele>
        <time>2024-08-29T12:17:30.540Z</time>
      </trkpt>
      <trkpt lat="45.76906999999999" lon="4.855284999999999">
        <ele>184.48937887332852</ele>
        <time>2024-08-29T12:17:51.537Z</time>
      </trkpt>
      <trkpt lat="45.769054999999994" lon="4.8552583333333335">
        <ele>182.88931532941814</ele>
        <time>2024-08-29T12:17:54.528Z</time>
      </trkpt>
      <trkpt lat="45.768978333333344" lon="4.855268333333333">
        <ele>179.089227237784</ele>
        <time>2024-08-29T12:18:02.533Z</time>
      </trkpt>
      <trkpt lat="45.76896333333334" lon="4.855346666666667">
        <ele>179.28925561592882</ele>
        <time>2024-08-29T12:18:09.520Z</time>
      </trkpt>
      <trkpt lat="45.76906" lon="4.856263333333334">
        <ele>164.99046782395294</ele>
        <time>2024-08-29T12:19:15.551Z</time>
      </trkpt>
      <trkpt lat="45.76907666666666" lon="4.856295">
        <ele>169.19053067340684</ele>
        <time>2024-08-29T12:19:20.534Z</time>
      </trkpt>
      <trkpt lat="45.76904833333333" lon="4.856343333333333">
        <ele>171.890551961367</ele>
        <time>2024-08-29T12:19:32.521Z</time>
      </trkpt>
      <trkpt lat="45.76907666666666" lon="4.856473333333334">
        <ele>175.89072169827682</ele>
        <time>2024-08-29T12:19:41.547Z</time>
      </trkpt>
      <trkpt lat="45.769005" lon="4.856478333333333">
        <ele>177.99066011849513</ele>
        <time>2024-08-29T12:19:51.522Z</time>
      </trkpt>
      <trkpt lat="45.769011666666664" lon="4.856551666666666">
        <ele>177.390717049765</ele>
        <time>2024-08-29T12:19:58.511Z</time>
      </trkpt>
      <trkpt lat="45.76902666666667" lon="4.856558333333334">
        <ele>176.69074677083353</ele>
        <time>2024-08-29T12:19:59.510Z</time>
      </trkpt>
      <trkpt lat="45.76905333333334" lon="4.857">
        <ele>178.59131816829165</ele>
        <time>2024-08-29T12:20:31.544Z</time>
      </trkpt>
      <trkpt lat="45.769155" lon="4.857116666666667">
        <ele>179.49139800759815</ele>
        <time>2024-08-29T12:21:04.929Z</time>
      </trkpt>
      <trkpt lat="45.76958700738206" lon="4.857209820164741">
        <ele>177.98208640419404</ele>
        <time>2024-08-29T12:22:07.086Z</time>
      </trkpt>
      <trkpt lat="45.76966761602387" lon="4.8572014462164645">
        <ele>177.1977216944284</ele>
        <time>2024-08-29T12:22:17.766Z</time>
      </trkpt>
      <trkpt lat="45.76951340808546" lon="4.857385673073367">
        <ele>179.45993629396057</ele>
        <time>2024-08-29T12:22:38.989Z</time>
      </trkpt>
      <trkpt lat="45.76902833333334" lon="4.857793333333333">
        <ele>182.47818644703443</ele>
        <time>2024-08-29T12:23:38.181Z</time>
      </trkpt>
      <trkpt lat="45.768945" lon="4.85792">
        <ele>180.09223964601665</ele>
        <time>2024-08-29T12:25:05.421Z</time>
      </trkpt>
      <trkpt lat="45.76890166666667" lon="4.858038333333333">
        <ele>179.09229463304638</ele>
        <time>2024-08-29T12:25:14.423Z</time>
      </trkpt>
      <trkpt lat="45.76867333333333" lon="4.858268333333333">
        <ele>179.79224299010096</ele>
        <time>2024-08-29T12:25:34.427Z</time>
      </trkpt>
      <trkpt lat="45.76867833333334" lon="4.858325000000001">
        <ele>178.99230213446123</ele>
        <time>2024-08-29T12:25:51.437Z</time>
      </trkpt>
      <trkpt lat="45.76823666666666" lon="4.858836666666666">
        <ele>163.49224486041174</ele>
        <time>2024-08-29T12:26:54.457Z</time>
      </trkpt>
      <trkpt lat="45.76825" lon="4.85882">
        <ele>162.8922468055727</ele>
        <time>2024-08-29T12:26:56.444Z</time>
      </trkpt>
      <trkpt lat="45.76822833333334" lon="4.858826666666667">
        <ele>162.5922451218501</ele>
        <time>2024-08-29T12:26:58.466Z</time>
      </trkpt>
      <trkpt lat="45.76815166666667" lon="4.85874">
        <ele>164.29201531254358</ele>
        <time>2024-08-29T12:27:10.423Z</time>
      </trkpt>
      <trkpt lat="45.76816333333333" lon="4.858745">
        <ele>164.6920052859444</ele>
        <time>2024-08-29T12:27:21.427Z</time>
      </trkpt>
      <trkpt lat="45.76815666666666" lon="4.858785">
        <ele>165.89205560382266</ele>
        <time>2024-08-29T12:27:24.457Z</time>
      </trkpt>
      <trkpt lat="45.76808833333333" lon="4.858838333333334">
        <ele>165.79202650060918</ele>
        <time>2024-08-29T12:27:33.429Z</time>
      </trkpt>
      <trkpt lat="45.76798999999999" lon="4.858835">
        <ele>166.49188976492295</ele>
        <time>2024-08-29T12:27:42.434Z</time>
      </trkpt>
      <trkpt lat="45.76792833333334" lon="4.85889">
        <ele>167.99185483716263</ele>
        <time>2024-08-29T12:27:47.444Z</time>
      </trkpt>
      <trkpt lat="45.76784333333333" lon="4.858921666666667">
        <ele>169.69176731349302</ele>
        <time>2024-08-29T12:27:53.529Z</time>
      </trkpt>
      <trkpt lat="45.7673998819194" lon="4.8589432684928795">
        <ele>178.0196242245663</ele>
        <time>2024-08-29T12:28:34.696Z</time>
      </trkpt>
      <trkpt lat="45.76738752150348" lon="4.858802710681573">
        <ele>178.1583303194499</ele>
        <time>2024-08-29T12:28:44.469Z</time>
      </trkpt>
      <trkpt lat="45.76735331709881" lon="4.858872210228384">
        <ele>178.02022940074102</ele>
        <time>2024-08-29T12:28:49.931Z</time>
      </trkpt>
      <trkpt lat="45.767095000000005" lon="4.858876666666667">
        <ele>178.26719616861183</ele>
        <time>2024-08-29T12:29:13.711Z</time>
      </trkpt>
      <trkpt lat="45.76707" lon="4.858925">
        <ele>169.09058309551406</ele>
        <time>2024-08-29T12:29:16.725Z</time>
      </trkpt>
      <trkpt lat="45.76706166666666" lon="4.858995">
        <ele>170.59066210658108</ele>
        <time>2024-08-29T12:29:20.712Z</time>
      </trkpt>
      <trkpt lat="45.76694166666666" lon="4.859071666666667">
        <ele>170.5905826503627</ele>
        <time>2024-08-29T12:29:31.729Z</time>
      </trkpt>
      <trkpt lat="45.766724999999994" lon="4.859078333333333">
        <ele>167.790259848385</ele>
        <time>2024-08-29T12:29:53.715Z</time>
      </trkpt>
      <trkpt lat="45.76666333333333" lon="4.858976666666666">
        <ele>167.69006744712527</ele>
        <time>2024-08-29T12:30:03.709Z</time>
      </trkpt>
      <trkpt lat="45.76660333333333" lon="4.858946666666667">
        <ele>166.9899393405265</ele>
        <time>2024-08-29T12:30:09.695Z</time>
      </trkpt>
      <trkpt lat="45.766355000000004" lon="4.858953333333333">
        <ele>165.68956718519564</ele>
        <time>2024-08-29T12:30:30.695Z</time>
      </trkpt>
      <trkpt lat="45.766220000000004" lon="4.858981666666667">
        <ele>169.08939391072704</ele>
        <time>2024-08-29T12:30:41.695Z</time>
      </trkpt>
      <trkpt lat="45.766173333333334" lon="4.859071666666667">
        <ele>169.9894136774025</ele>
        <time>2024-08-29T12:30:49.704Z</time>
      </trkpt>
      <trkpt lat="45.76612333333334" lon="4.859121666666667">
        <ele>170.6894067136301</ele>
        <time>2024-08-29T12:30:59.698Z</time>
      </trkpt>
      <trkpt lat="45.76589166666666" lon="4.859126666666667">
        <ele>169.9890780351147</ele>
        <time>2024-08-29T12:31:23.679Z</time>
      </trkpt>
      <trkpt lat="45.76532666666667" lon="4.858853333333333">
        <ele>165.1879089128609</ele>
        <time>2024-08-29T12:32:18.728Z</time>
      </trkpt>
      <trkpt lat="45.76530833333333" lon="4.858803333333334">
        <ele>166.48780828552984</ele>
        <time>2024-08-29T12:32:34.718Z</time>
      </trkpt>
      <trkpt lat="45.76526833333334" lon="4.858806666666666">
        <ele>166.38776955391913</ele>
        <time>2024-08-29T12:32:40.722Z</time>
      </trkpt>
      <trkpt lat="45.76514999999999" lon="4.858755">
        <ele>165.6875234507756</ele>
        <time>2024-08-29T12:32:52.718Z</time>
      </trkpt>
      <trkpt lat="45.76454333333333" lon="4.858411666666667">
        <ele>160.48621696658543</ele>
        <time>2024-08-29T12:33:51.716Z</time>
      </trkpt>
      <trkpt lat="45.764481666666676" lon="4.858409999999999">
        <ele>160.48611045158617</ele>
        <time>2024-08-29T12:33:56.724Z</time>
      </trkpt>
      <trkpt lat="45.76436" lon="4.858315">
        <ele>161.18582958524925</ele>
        <time>2024-08-29T12:34:07.724Z</time>
      </trkpt>
      <trkpt lat="45.764211666666675" lon="4.858275000000001">
        <ele>161.28554901246682</ele>
        <time>2024-08-29T12:34:22.719Z</time>
      </trkpt>
      <trkpt lat="45.76381500000001" lon="4.858105">
        <ele>159.5847268849644</ele>
        <time>2024-08-29T12:34:57.695Z</time>
      </trkpt>
      <trkpt lat="45.76382333333333" lon="4.858068333333334">
        <ele>161.28471346567102</ele>
        <time>2024-08-29T12:34:59.678Z</time>
      </trkpt>
      <trkpt lat="45.763798333333334" lon="4.858053333333333">
        <ele>163.6846540158414</ele>
        <time>2024-08-29T12:35:04.722Z</time>
      </trkpt>
      <trkpt lat="45.763751666666664" lon="4.858296666666666">
        <ele>174.28484291756953</ele>
        <time>2024-08-29T12:35:17.718Z</time>
      </trkpt>
      <trkpt lat="45.763748333333325" lon="4.858393333333334">
        <ele>180.28496582981566</ele>
        <time>2024-08-29T12:35:24.698Z</time>
      </trkpt>
      <trkpt lat="45.76366666666666" lon="4.858405">
        <ele>189.1848699379196</ele>
        <time>2024-08-29T12:35:34.714Z</time>
      </trkpt>
      <trkpt lat="45.76358833333334" lon="4.858381666666666">
        <ele>188.8847419123798</ele>
        <time>2024-08-29T12:35:43.708Z</time>
      </trkpt>
      <trkpt lat="45.763436666666664" lon="4.858288333333333">
        <ele>183.68439395577678</ele>
        <time>2024-08-29T12:35:58.681Z</time>
      </trkpt>
      <trkpt lat="45.76342666666666" lon="4.8583083333333335">
        <ele>183.68438055809247</ele>
        <time>2024-08-29T12:35:59.686Z</time>
      </trkpt>
      <trkpt lat="45.763475" lon="4.858333333333333">
        <ele>177.5844835651594</ele>
        <time>2024-08-29T12:36:05.749Z</time>
      </trkpt>
      <trkpt lat="45.76345333333334" lon="4.858364999999999">
        <ele>177.28449644116853</ele>
        <time>2024-08-29T12:36:09.732Z</time>
      </trkpt>
      <trkpt lat="45.763401666666674" lon="4.858381666666666">
        <ele>176.9844443560005</ele>
        <time>2024-08-29T12:36:14.722Z</time>
      </trkpt>
      <trkpt lat="45.763434999999994" lon="4.858319999999999">
        <ele>175.58443059642516</ele>
        <time>2024-08-29T12:36:21.724Z</time>
      </trkpt>
      <trkpt lat="45.76340833333334" lon="4.858266666666666">
        <ele>176.18431050428046</ele>
        <time>2024-08-29T12:36:28.685Z</time>
      </trkpt>
      <trkpt lat="45.763419999999996" lon="4.85825">
        <ele>176.0843132751741</ele>
        <time>2024-08-29T12:36:32.689Z</time>
      </trkpt>
      <trkpt lat="45.76332666666667" lon="4.858146666666667">
        <ele>175.9840556006925</ele>
        <time>2024-08-29T12:36:43.722Z</time>
      </trkpt>
      <trkpt lat="45.763284999999996" lon="4.858163333333334">
        <ele>175.38402299826382</ele>
        <time>2024-08-29T12:36:48.715Z</time>
      </trkpt>
      <trkpt lat="45.76307" lon="4.858115">
        <ele>169.48364938651437</ele>
        <time>2024-08-29T12:37:04.705Z</time>
      </trkpt>
      <trkpt lat="45.76293333333333" lon="4.858128333333333">
        <ele>167.98343712886256</ele>
        <time>2024-08-29T12:37:19.698Z</time>
      </trkpt>
      <trkpt lat="45.76290166666666" lon="4.858101666666667">
        <ele>169.583384920022</ele>
        <time>2024-08-29T12:37:26.683Z</time>
      </trkpt>
      <trkpt lat="45.76282166666667" lon="4.858091666666667">
        <ele>170.38324594088058</ele>
        <time>2024-08-29T12:37:32.735Z</time>
      </trkpt>
      <trkpt lat="45.762768333333334" lon="4.858168333333333">
        <ele>169.5832419317631</ele>
        <time>2024-08-29T12:37:36.712Z</time>
      </trkpt>
      <trkpt lat="45.762575" lon="4.858208333333334">
        <ele>169.38300550767602</ele>
        <time>2024-08-29T12:37:52.721Z</time>
      </trkpt>
      <trkpt lat="45.76245166666666" lon="4.858140000000001">
        <ele>171.38274616464605</ele>
        <time>2024-08-29T12:38:02.685Z</time>
      </trkpt>
      <trkpt lat="45.76226166666667" lon="4.858105">
        <ele>171.3824162847332</ele>
        <time>2024-08-29T12:38:22.685Z</time>
      </trkpt>
      <trkpt lat="45.76215666666667" lon="4.858194999999999">
        <ele>172.98234904402486</ele>
        <time>2024-08-29T12:38:31.686Z</time>
      </trkpt>
      <trkpt lat="45.76209833333334" lon="4.8581883333333336">
        <ele>172.38226477762004</ele>
        <time>2024-08-29T12:38:36.688Z</time>
      </trkpt>
      <trkpt lat="45.761936666666664" lon="4.858230000000001">
        <ele>176.18206376497776</ele>
        <time>2024-08-29T12:38:50.691Z</time>
      </trkpt>
      <trkpt lat="45.76184" lon="4.858203333333334">
        <ele>179.98188818779263</ele>
        <time>2024-08-29T12:38:58.685Z</time>
      </trkpt>
      <trkpt lat="45.76166166666667" lon="4.858243333333333">
        <ele>183.78166764212642</ele>
        <time>2024-08-29T12:39:13.686Z</time>
      </trkpt>
      <trkpt lat="45.76148666666666" lon="4.858238333333333">
        <ele>181.28139699787323</ele>
        <time>2024-08-29T12:39:27.692Z</time>
      </trkpt>
      <trkpt lat="45.76127666666666" lon="4.85829">
        <ele>175.2811405117115</ele>
        <time>2024-08-29T12:39:51.683Z</time>
      </trkpt>
      <trkpt lat="45.76125666666667" lon="4.858346666666667">
        <ele>174.88115076202763</ele>
        <time>2024-08-29T12:39:55.681Z</time>
      </trkpt>
      <trkpt lat="45.76127499999999" lon="4.858643333333333">
        <ele>174.6815100480947</ele>
        <time>2024-08-29T12:40:12.685Z</time>
      </trkpt>
      <trkpt lat="45.76125166666667" lon="4.858775">
        <ele>175.78163929107475</ele>
        <time>2024-08-29T12:40:18.725Z</time>
      </trkpt>
      <trkpt lat="45.761236666666676" lon="4.859053333333334">
        <ele>168.98195088950294</ele>
        <time>2024-08-29T12:40:37.716Z</time>
      </trkpt>
      <trkpt lat="45.761181666666666" lon="4.859141666666666">
        <ele>167.98197419652772</ele>
        <time>2024-08-29T12:40:47.393Z</time>
      </trkpt>
      <trkpt lat="45.76072719034585" lon="4.859464591652255">
        <ele>176.13276987242966</ele>
        <time>2024-08-29T12:41:46.821Z</time>
      </trkpt>
      <trkpt lat="45.760696234506526" lon="4.859680768283482">
        <ele>175.48721639397618</ele>
        <time>2024-08-29T12:42:04.858Z</time>
      </trkpt>
    </trkseg>
  </trk>
</gpx>
